{"type": "FeatureCollection", "features": [{"type": "Feature", "properties": {"name": "Obszar demo"}, "geometry": {"type": "Polygon", "coordinates": [[[19.968137, 50.052599], [19.967209, 50.052734], [19.966883, 50.05276], [19.965854, 50.05284], [19.965683, 50.052854], [19.964238, 50.052867], [19.962786, 50.05281], [19.961388, 50.052615], [19.961097, 50.052557], [19.960298, 50.052397], [19.96009, 50.052355], [19.958732, 50.051903], [19.957677, 50.051523], [19.95637, 50.051026], [19.954889, 50.050228], [19.954662, 50.050106], [19.954647, 50.050097], [19.95397, 50.049733], [19.953386, 50.049413], [19.95286, 50.049135], [19.951809, 50.048583], [19.951364, 50.048349], [19.950877, 50.048075], [19.950208, 50.047715], [19.949539, 50.047364], [19.948868, 50.047036], [19.948194, 50.046734], [19.947518, 50.046459], [19.946843, 50.046179], [19.946167, 50.045914], [19.945222, 50.045516], [19.945177, 50.0455], [19.944859, 50.045387], [19.944815, 50.045371], [19.944136, 50.045132], [19.94345, 50.044973], [19.942759, 50.044883], [19.942064, 50.044833], [19.941364, 50.04484], [19.940952, 50.044861], [19.940339, 50.044913], [19.939659, 50.045033], [19.938753, 50.045315], [19.937798, 50.045776], [19.937074, 50.046366], [19.936651, 50.046811], [19.936141, 50.047349], [19.936136, 50.047356], [19.935734, 50.047783], [19.934983, 50.048686], [19.934612, 50.049188], [19.934356, 50.04954], [19.934206, 50.049756], [19.934199, 50.049766], [19.933749, 50.050396], [19.933129, 50.051359], [19.933005, 50.051567], [19.932935, 50.051685], [19.93237, 50.052636], [19.932299, 50.052772], [19.931971, 50.053406], [19.931797, 50.053709], [19.93176, 50.053774], [19.931651, 50.053962], [19.931381, 50.0542], [19.93076, 50.054372], [19.930145, 50.054452], [19.929807, 50.054452], [19.929549, 50.054423], [19.929159, 50.054361], [19.928486, 50.054166], [19.928103, 50.054663], [19.927932, 50.054875], [19.927897, 50.054917], [19.927907, 50.05492], [19.927889, 50.054943], [19.928024, 50.054987], [19.928052, 50.054996], [19.927944, 50.055135], [19.927934, 50.055153], [19.927929, 50.05517], [19.927928, 50.055182], [19.927932, 50.055189], [19.927939, 50.055196], [19.928015, 50.055237], [19.928002, 50.055253], [19.928102, 50.05532], [19.927919, 50.055468], [19.9278, 50.055563], [19.927595, 50.055717], [19.927583, 50.055711], [19.927576, 50.055717], [19.927525, 50.055755], [19.927518, 50.05576], [19.927529, 50.055766], [19.927463, 50.055816], [19.927449, 50.055844], [19.927457, 50.055847], [19.927452, 50.055859], [19.927445, 50.055873], [19.927436, 50.055871], [19.927404, 50.055937], [19.927353, 50.056045], [19.927351, 50.056044], [19.927338, 50.056071], [19.927341, 50.056072], [19.927322, 50.056111], [19.927271, 50.056267], [19.927261, 50.056298], [19.927253, 50.056326], [19.927219, 50.056397], [19.92717, 50.056496], [19.927124, 50.05659], [19.926999, 50.056756], [19.926985, 50.056782], [19.926976, 50.0568], [19.926897, 50.056957], [19.926786, 50.057167], [19.926788, 50.057167], [19.926787, 50.057169], [19.92673, 50.05728], [19.926725, 50.057279], [19.926716, 50.057296], [19.926722, 50.057298], [19.926664, 50.057409], [19.926537, 50.057651], [19.926529, 50.057666], [19.926486, 50.057733], [19.926424, 50.057839], [19.926424, 50.05784], [19.926336, 50.057976], [19.926215, 50.058165], [19.926212, 50.058169], [19.926183, 50.058216], [19.926134, 50.058293], [19.926122, 50.05831], [19.926121, 50.05831], [19.926074, 50.058382], [19.926072, 50.058381], [19.92601, 50.058473], [19.926011, 50.058473], [19.925964, 50.058544], [19.925855, 50.058705], [19.925854, 50.058707], [19.925801, 50.058785], [19.925806, 50.058787], [19.925792, 50.058806], [19.925787, 50.058805], [19.925736, 50.058882], [19.925645, 50.059019], [19.925555, 50.059151], [19.925512, 50.059216], [19.925511, 50.05922], [19.925512, 50.059224], [19.925314, 50.059565], [19.925309, 50.059565], [19.925301, 50.059588], [19.925291, 50.059614], [19.925289, 50.05962], [19.925279, 50.059647], [19.925285, 50.059648], [19.925261, 50.059713], [19.925234, 50.059714], [19.925228, 50.059712], [19.925212, 50.059745], [19.925215, 50.059745], [19.925101, 50.059918], [19.92502, 50.060041], [19.925012, 50.060055], [19.924947, 50.060168], [19.924923, 50.06021], [19.924922, 50.060209], [19.924862, 50.060314], [19.924863, 50.060314], [19.924688, 50.06062], [19.924687, 50.060619], [19.924627, 50.060724], [19.924628, 50.060725], [19.924604, 50.060767], [19.924549, 50.060864], [19.924481, 50.060992], [19.92439, 50.061171], [19.924282, 50.061386], [19.924236, 50.061477], [19.924126, 50.061692], [19.924048, 50.061847], [19.924008, 50.061927], [19.923961, 50.06202], [19.923869, 50.062201], [19.923811, 50.062356], [19.923801, 50.062359], [19.923777, 50.062433], [19.923767, 50.062499], [19.923765, 50.062551], [19.923769, 50.062606], [19.923792, 50.062684], [19.923869, 50.062897], [19.923907, 50.063002], [19.923922, 50.063056], [19.923923, 50.063059], [19.923924, 50.06306], [19.923924, 50.063061], [19.923946, 50.06312], [19.92395, 50.063119], [19.923982, 50.06321], [19.923978, 50.06321], [19.923999, 50.063268], [19.924, 50.06327], [19.924003, 50.063269], [19.924006, 50.063269], [19.924017, 50.063298], [19.924011, 50.063299], [19.92402, 50.063325], [19.924018, 50.063325], [19.924031, 50.063362], [19.924033, 50.063362], [19.924042, 50.063388], [19.924048, 50.063388], [19.924058, 50.063417], [19.924057, 50.063417], [19.924064, 50.063438], [19.924073, 50.06346], [19.924092, 50.063513], [19.9241, 50.063537], [19.924108, 50.063558], [19.92411, 50.063558], [19.924143, 50.063639], [19.924137, 50.06364], [19.924152, 50.063679], [19.924155, 50.063687], [19.924247, 50.063915], [19.924447, 50.064471], [19.924481, 50.064567], [19.924489, 50.064566], [19.924539, 50.064699], [19.924551, 50.064697], [19.924621, 50.064883], [19.924606, 50.064885], [19.924616, 50.064914], [19.924634, 50.064961], [19.924645, 50.06499], [19.924659, 50.064989], [19.924728, 50.065174], [19.924716, 50.065176], [19.924765, 50.065309], [19.92476, 50.06531], [19.924761, 50.065314], [19.92477, 50.065336], [19.924788, 50.065388], [19.924789, 50.06539], [19.924791, 50.065396], [19.924791, 50.065398], [19.924808, 50.065442], [19.924812, 50.065451], [19.924885, 50.065657], [19.924908, 50.065712], [19.924958, 50.065845], [19.925044, 50.066054], [19.925085, 50.066153], [19.92513, 50.066257], [19.925201, 50.066423], [19.925263, 50.066572], [19.925262, 50.066573], [19.925278, 50.066611], [19.92528, 50.06661], [19.92531, 50.066685], [19.925391, 50.066875], [19.925473, 50.067026], [19.925499, 50.067067], [19.925502, 50.067067], [19.925548, 50.067142], [19.925535, 50.067145], [19.925537, 50.067147], [19.925533, 50.067148], [19.925619, 50.06728], [19.92562, 50.06728], [19.925649, 50.067324], [19.925651, 50.067323], [19.925704, 50.067409], [19.92576, 50.067494], [19.925758, 50.067494], [19.925785, 50.067538], [19.92586, 50.067655], [19.925931, 50.067763], [19.926005, 50.067878], [19.926081, 50.067994], [19.926082, 50.067996], [19.926217, 50.068209], [19.926219, 50.068212], [19.926248, 50.068257], [19.92625, 50.068256], [19.926297, 50.068328], [19.926293, 50.068329], [19.926309, 50.068353], [19.926311, 50.068352], [19.926358, 50.068423], [19.926401, 50.06849], [19.9264, 50.06849], [19.926403, 50.068495], [19.926405, 50.068494], [19.926405, 50.068495], [19.926417, 50.068492], [19.926425, 50.068504], [19.926413, 50.068507], [19.926414, 50.068508], [19.926412, 50.068508], [19.926415, 50.068513], [19.926416, 50.068512], [19.92646, 50.06858], [19.926571, 50.068752], [19.926569, 50.068752], [19.926603, 50.068804], [19.926751, 50.069013], [19.926754, 50.069019], [19.926766, 50.069036], [19.926774, 50.06905], [19.926816, 50.069106], [19.926889, 50.06921], [19.927114, 50.069536], [19.92716, 50.069602], [19.927158, 50.069603], [19.927191, 50.069649], [19.927256, 50.069743], [19.927257, 50.069746], [19.927259, 50.069749], [19.927341, 50.069869], [19.927343, 50.069868], [19.927344, 50.06987], [19.927443, 50.070012], [19.927494, 50.070039], [19.927479, 50.070044], [19.927483, 50.070056], [19.927533, 50.070117], [19.927546, 50.070128], [19.927565, 50.070134], [19.927603, 50.070173], [19.927671, 50.07024], [19.927725, 50.070246], [19.927737, 50.070253], [19.927706, 50.07028], [19.927892, 50.070386], [19.927893, 50.070384], [19.927896, 50.070385], [19.927895, 50.070386], [19.928271, 50.070595], [19.928319, 50.070561], [19.928378, 50.070592], [19.928382, 50.070589], [19.928386, 50.070592], [19.928422, 50.070611], [19.928424, 50.070612], [19.928515, 50.070666], [19.928513, 50.070668], [19.928885, 50.070874], [19.928994, 50.070934], [19.929253, 50.071076], [19.929258, 50.071072], [19.929305, 50.071096], [19.929368, 50.071136], [19.929444, 50.071194], [19.929471, 50.071214], [19.929554, 50.071277], [19.929661, 50.071357], [19.929717, 50.071387], [19.929711, 50.071392], [19.929953, 50.071518], [19.929955, 50.071519], [19.930047, 50.071567], [19.930046, 50.071568], [19.930106, 50.071599], [19.930106, 50.071598], [19.930198, 50.071646], [19.9302, 50.071647], [19.930468, 50.071784], [19.930528, 50.071815], [19.93053, 50.071817], [19.930582, 50.071844], [19.930581, 50.071845], [19.930701, 50.071907], [19.930703, 50.071906], [19.930749, 50.071929], [19.93083, 50.071972], [19.930858, 50.071986], [19.93094, 50.072028], [19.930983, 50.072051], [19.930981, 50.072052], [19.931092, 50.07211], [19.931094, 50.072108], [19.931136, 50.07213], [19.931138, 50.072131], [19.931331, 50.072232], [19.931391, 50.072263], [19.931425, 50.072281], [19.931514, 50.072327], [19.931544, 50.072342], [19.931584, 50.072363], [19.931602, 50.072373], [19.931778, 50.072464], [19.931837, 50.072492], [19.931838, 50.072491], [19.932056, 50.072596], [19.932055, 50.072597], [19.93226, 50.072697], [19.932263, 50.072698], [19.932375, 50.072741], [19.932374, 50.072742], [19.932376, 50.072743], [19.932403, 50.072753], [19.932407, 50.072755], [19.932408, 50.072754], [19.932519, 50.072797], [19.932522, 50.072798], [19.932524, 50.072798], [19.932534, 50.072803], [19.932602, 50.072829], [19.932717, 50.072874], [19.932844, 50.072923], [19.932932, 50.072956], [19.932934, 50.072957], [19.932936, 50.072958], [19.933161, 50.073021], [19.933241, 50.073042], [19.933413, 50.073087], [19.933503, 50.073109], [19.933581, 50.073129], [19.933798, 50.073183], [19.9338, 50.073184], [19.933899, 50.073209], [19.933899, 50.073211], [19.933902, 50.073212], [19.933905, 50.073212], [19.933907, 50.073211], [19.933929, 50.073216], [19.933929, 50.073218], [19.933932, 50.073219], [19.933935, 50.073219], [19.933937, 50.073218], [19.934033, 50.073242], [19.934035, 50.073243], [19.934055, 50.073248], [19.934123, 50.073265], [19.934121, 50.073267], [19.934167, 50.073279], [19.934169, 50.073276], [19.934236, 50.073293], [19.934254, 50.073298], [19.934256, 50.073299], [19.934259, 50.073299], [19.934428, 50.073341], [19.934453, 50.073343], [19.934479, 50.073341], [19.934501, 50.073332], [19.934518, 50.07332], [19.934536, 50.073326], [19.934563, 50.073296], [19.934593, 50.073307], [19.934661, 50.07323], [19.934662, 50.073229], [19.934663, 50.073228], [19.934698, 50.073188], [19.934809, 50.073231], [19.934942, 50.073283], [19.934935, 50.073299], [19.935461, 50.073358], [19.935698, 50.073378], [19.935919, 50.073397], [19.936134, 50.073413], [19.936291, 50.073426], [19.936395, 50.073439], [19.936495, 50.073447], [19.936773, 50.073472], [19.936997, 50.073492], [19.937448, 50.073501], [19.937774, 50.0735], [19.938111, 50.07348], [19.938146, 50.073502], [19.938583, 50.073775], [19.938633, 50.073807], [19.938695, 50.073934], [19.938719, 50.073983], [19.938747, 50.07411], [19.938819, 50.074166], [19.939377, 50.074574], [19.939415, 50.074604], [19.940071, 50.075114], [19.940199, 50.075214], [19.940229, 50.075237], [19.940252, 50.075256], [19.940306, 50.075297], [19.940324, 50.075309], [19.94033, 50.075306], [19.940367, 50.075287], [19.940429, 50.075255], [19.94044, 50.075262], [19.940443, 50.075261], [19.940558, 50.075345], [19.940605, 50.075386], [19.940626, 50.075404], [19.940702, 50.075437], [19.940808, 50.075483], [19.940834, 50.075494], [19.940879, 50.075526], [19.940916, 50.075553], [19.940921, 50.075564], [19.940914, 50.075564], [19.940924, 50.075591], [19.940932, 50.075589], [19.940936, 50.0756], [19.941017, 50.075585], [19.941053, 50.075675], [19.941067, 50.075708], [19.941073, 50.075722], [19.941093, 50.075801], [19.941098, 50.075822], [19.941103, 50.07584], [19.941105, 50.075847], [19.94115, 50.075961], [19.941156, 50.075963], [19.941149, 50.075974], [19.941144, 50.075981], [19.941083, 50.076051], [19.941074, 50.076051], [19.941058, 50.076045], [19.941054, 50.076049], [19.941081, 50.076056], [19.941154, 50.076081], [19.941251, 50.076114], [19.942123, 50.076414], [19.942131, 50.076416], [19.942364, 50.076496], [19.942407, 50.076511], [19.942423, 50.076491], [19.942489, 50.076513], [19.942472, 50.076534], [19.942511, 50.076547], [19.942589, 50.076575], [19.9426, 50.076566], [19.942655, 50.076593], [19.942655, 50.076596], [19.942825, 50.076647], [19.942893, 50.076667], [19.942901, 50.076655], [19.942929, 50.076664], [19.942908, 50.076682], [19.943842, 50.077003], [19.944204, 50.077127], [19.944231, 50.077131], [19.944759, 50.07731], [19.944847, 50.077289], [19.944852, 50.077288], [19.944968, 50.077262], [19.945159, 50.077334], [19.945083, 50.077426], [19.945254, 50.077482], [19.945414, 50.077528], [19.945508, 50.077739], [19.945582, 50.077962], [19.945621, 50.07808], [19.945875, 50.078603], [19.946086, 50.079039], [19.946133, 50.079137], [19.946169, 50.07919], [19.946432, 50.079622], [19.946468, 50.079685], [19.946572, 50.079852], [19.946758, 50.080091], [19.946798, 50.080142], [19.947014, 50.080462], [19.947121, 50.080621], [19.947147, 50.080661], [19.94716, 50.08068], [19.947363, 50.080977], [19.947346, 50.081001], [19.947508, 50.081242], [19.947575, 50.081342], [19.947694, 50.081521], [19.9477, 50.081529], [19.947895, 50.081818], [19.94809, 50.082107], [19.948326, 50.08245], [19.948512, 50.082722], [19.948601, 50.082701], [19.948856, 50.082642], [19.948882, 50.082735], [19.94895, 50.082928], [19.948975, 50.082985], [19.949013, 50.083061], [19.949075, 50.083172], [19.949182, 50.083357], [19.949365, 50.083656], [19.94942, 50.083745], [19.949717, 50.084225], [19.950104, 50.084658], [19.950153, 50.084752], [19.95027, 50.084971], [19.950407, 50.085205], [19.950417, 50.085219], [19.950442, 50.085281], [19.950512, 50.08538], [19.950643, 50.085528], [19.950762, 50.085663], [19.950867, 50.085782], [19.950804, 50.085799], [19.950749, 50.085814], [19.950713, 50.085824], [19.950738, 50.08586], [19.95074, 50.085863], [19.950745, 50.08587], [19.950769, 50.085904], [19.950793, 50.085939], [19.950799, 50.085948], [19.950806, 50.085958], [19.9512, 50.086504], [19.951213, 50.086525], [19.951216, 50.086529], [19.951298, 50.086646], [19.951329, 50.086692], [19.95133, 50.086693], [19.951396, 50.086795], [19.951446, 50.086872], [19.951459, 50.086887], [19.951475, 50.086949], [19.951521, 50.087021], [19.951528, 50.087031], [19.951548, 50.087056], [19.951609, 50.087132], [19.95161, 50.087134], [19.951666, 50.087203], [19.951715, 50.087264], [19.951852, 50.087424], [19.951987, 50.08755], [19.952087, 50.087678], [19.952104, 50.087696], [19.952106, 50.087698], [19.952575, 50.088114], [19.95313, 50.088507], [19.95325, 50.088588], [19.953259, 50.088594], [19.95333, 50.088643], [19.954012, 50.089079], [19.954197, 50.089194], [19.954777, 50.089566], [19.954813, 50.089585], [19.954839, 50.089599], [19.954852, 50.089606], [19.954848, 50.08961], [19.954913, 50.089638], [19.954919, 50.089641], [19.954989, 50.089675], [19.954996, 50.089679], [19.955075, 50.089722], [19.955079, 50.089725], [19.955095, 50.089735], [19.955178, 50.089794], [19.955665, 50.090136], [19.956037, 50.090382], [19.956472, 50.090667], [19.95698, 50.091004], [19.957403, 50.091278], [19.95748, 50.091336], [19.958231, 50.091836], [19.958374, 50.091921], [19.958444, 50.091964], [19.958538, 50.092036], [19.958734, 50.092158], [19.958738, 50.092161], [19.958808, 50.092212], [19.959144, 50.092431], [19.959329, 50.092538], [19.959325, 50.092549], [19.959547, 50.092678], [19.959742, 50.092791], [19.959757, 50.0928], [19.95976, 50.092811], [19.959947, 50.092924], [19.960059, 50.092989], [19.960139, 50.093029], [19.960144, 50.093032], [19.960146, 50.093034], [19.960619, 50.093311], [19.960768, 50.093399], [19.960791, 50.093413], [19.960982, 50.093419], [19.961003, 50.09342], [19.961181, 50.093453], [19.96131, 50.093525], [19.961503, 50.093626], [19.962091, 50.093938], [19.96239, 50.094088], [19.962495, 50.094145], [19.96262, 50.09421], [19.962665, 50.094225], [19.962934, 50.094363], [19.962939, 50.094365], [19.963219, 50.094505], [19.963225, 50.094508], [19.963499, 50.09464], [19.963707, 50.094748], [19.963754, 50.094774], [19.964057, 50.094939], [19.964223, 50.095025], [19.964326, 50.095086], [19.964333, 50.095089], [19.964681, 50.09527], [19.964685, 50.095271], [19.965063, 50.095469], [19.965427, 50.095651], [19.96546, 50.09567], [19.965666, 50.095778], [19.966016, 50.095967], [19.966241, 50.096091], [19.966431, 50.096186], [19.966612, 50.096283], [19.9667, 50.096332], [19.966748, 50.096353], [19.966791, 50.096363], [19.966929, 50.096377], [19.966957, 50.096366], [19.967188, 50.096397], [19.967779, 50.09648], [19.96813, 50.096543], [19.968557, 50.09662], [19.968643, 50.096636], [19.968779, 50.09666], [19.969083, 50.096757], [19.969508, 50.096894], [19.969896, 50.097019], [19.969946, 50.097034], [19.970315, 50.097177], [19.970324, 50.097181], [19.970372, 50.097199], [19.970386, 50.097205], [19.970407, 50.097213], [19.970622, 50.097312], [19.97104, 50.097505], [19.971492, 50.097732], [19.972071, 50.098082], [19.972579, 50.098394], [19.972817, 50.09854], [19.972892, 50.098587], [19.973081, 50.098706], [19.973549, 50.098988], [19.973575, 50.099004], [19.973854, 50.099173], [19.974049, 50.099292], [19.974196, 50.099386], [19.974616, 50.099651], [19.975034, 50.099916], [19.975656, 50.1003], [19.976281, 50.100685], [19.976722, 50.100939], [19.977164, 50.101195], [19.977867, 50.101554], [19.978737, 50.101913], [19.979297, 50.102113], [19.979854, 50.10231], [19.980723, 50.102629], [19.98128, 50.102838], [19.981833, 50.103047], [19.982519, 50.103291], [19.982883, 50.103428], [19.98293, 50.103447], [19.983043, 50.10349], [19.983645, 50.103717], [19.984247, 50.103944], [19.984739, 50.104149], [19.985145, 50.104317], [19.985186, 50.104333], [19.985237, 50.104354], [19.985791, 50.104509], [19.986057, 50.104598], [19.9861, 50.104588], [19.986129, 50.104581], [19.986205, 50.104563], [19.986266, 50.104622], [19.986325, 50.104681], [19.986674, 50.104783], [19.987371, 50.104646], [19.987379, 50.104645], [19.987982, 50.104526], [19.988211, 50.104483], [19.989471, 50.104249], [19.989498, 50.104245], [19.990898, 50.10399], [19.990917, 50.10397], [19.990922, 50.103958], [19.991022, 50.103897], [19.991044, 50.103882], [19.991063, 50.103852], [19.991054, 50.103789], [19.990998, 50.103668], [19.990992, 50.103656], [19.990956, 50.103577], [19.99098, 50.103549], [19.990994, 50.1035], [19.991005, 50.103479], [19.991009, 50.103468], [19.991019, 50.103444], [19.991028, 50.103444], [19.991051, 50.103446], [19.991059, 50.103367], [19.99104, 50.103332], [19.991045, 50.103308], [19.991047, 50.103277], [19.99106, 50.103121], [19.991062, 50.103105], [19.991062, 50.102998], [19.991064, 50.10288], [19.991015, 50.102787], [19.991005, 50.102709], [19.99099, 50.102678], [19.990878, 50.102583], [19.990867, 50.102572], [19.990843, 50.102548], [19.990832, 50.102507], [19.990841, 50.102428], [19.990845, 50.102364], [19.990873, 50.102299], [19.990901, 50.102229], [19.990925, 50.102198], [19.990942, 50.102143], [19.990942, 50.102115], [19.990989, 50.102016], [19.991008, 50.101949], [19.990981, 50.10192], [19.990979, 50.101834], [19.990976, 50.101788], [19.99081, 50.101645], [19.990736, 50.101564], [19.990696, 50.101513], [19.990663, 50.101458], [19.990652, 50.101415], [19.990647, 50.101293], [19.990646, 50.101205], [19.990637, 50.101107], [19.990666, 50.101023], [19.990729, 50.100939], [19.990753, 50.100872], [19.990751, 50.10086], [19.990746, 50.10082], [19.990743, 50.100801], [19.990715, 50.100702], [19.990702, 50.100629], [19.990698, 50.100605], [19.990642, 50.100557], [19.990584, 50.100505], [19.990518, 50.100461], [19.990466, 50.100429], [19.990429, 50.100405], [19.990537, 50.100424], [19.990567, 50.100441], [19.99154, 50.100661], [19.992478, 50.100859], [19.992525, 50.100834], [19.992596, 50.100793], [19.993217, 50.10071], [19.993247, 50.100705], [19.993658, 50.10056], [19.993853, 50.100487], [19.993958, 50.100433], [19.993987, 50.100419], [19.99404, 50.100401], [19.994308, 50.100307], [19.994339, 50.100296], [19.994477, 50.10023], [19.994671, 50.100137], [19.994736, 50.100066], [19.994727, 50.099936], [19.99448, 50.099679], [19.994363, 50.099658], [19.994119, 50.099615], [19.993979, 50.099589], [19.993935, 50.09943], [19.993928, 50.099404], [19.993926, 50.099394], [19.993756, 50.099353], [19.993473, 50.099284], [19.993529, 50.098856], [19.993471, 50.098868], [19.993309, 50.098904], [19.993295, 50.098907], [19.992864, 50.098855], [19.992707, 50.098855], [19.992556, 50.09884], [19.992419, 50.098878], [19.992183, 50.098944], [19.991474, 50.098817], [19.990584, 50.098603], [19.990369, 50.098552], [19.989974, 50.098579], [19.989948, 50.098581], [19.989664, 50.098601], [19.989599, 50.098569], [19.989338, 50.098441], [19.989194, 50.098387], [19.989072, 50.098351], [19.989027, 50.098316], [19.988939, 50.098314], [19.988835, 50.098282], [19.988682, 50.098247], [19.988642, 50.098236], [19.9886, 50.098182], [19.988497, 50.098171], [19.988278, 50.098008], [19.988111, 50.097985], [19.98799, 50.097945], [19.987761, 50.097903], [19.988057, 50.097902], [19.988055, 50.097893], [19.988004, 50.097677], [19.988004, 50.097676], [19.987998, 50.097651], [19.987997, 50.097649], [19.987987, 50.097605], [19.987985, 50.097597], [19.987984, 50.097592], [19.987983, 50.097585], [19.987965, 50.09746], [19.987954, 50.097385], [19.987846, 50.096651], [19.987818, 50.096456], [19.987774, 50.096255], [19.987735, 50.096078], [19.987697, 50.095636], [19.987696, 50.095622], [19.987786, 50.095308], [19.987834, 50.095124], [19.988026, 50.095131], [19.988051, 50.095023], [19.988075, 50.094915], [19.988076, 50.094913], [19.988108, 50.094777], [19.988137, 50.094647], [19.988179, 50.094649], [19.988242, 50.094613], [19.988266, 50.094599], [19.988284, 50.094571], [19.988335, 50.094463], [19.988371, 50.094386], [19.988405, 50.094314], [19.988469, 50.094175], [19.988536, 50.09403], [19.988541, 50.09402], [19.988551, 50.093999], [19.988575, 50.093946], [19.988781, 50.093502], [19.988873, 50.093303], [19.988887, 50.093142], [19.988889, 50.093128], [19.988953, 50.093131], [19.988974, 50.093084], [19.989009, 50.093009], [19.988859, 50.093005], [19.988877, 50.092964], [19.988884, 50.09292], [19.988757, 50.092919], [19.988737, 50.092918], [19.988845, 50.091877], [19.988915, 50.09188], [19.988919, 50.091839], [19.989393, 50.091853], [19.98953, 50.091853], [19.989548, 50.091815], [19.989644, 50.091603], [19.989695, 50.091501], [19.989361, 50.091356], [19.989231, 50.0913], [19.989204, 50.091289], [19.988942, 50.091178], [19.98895, 50.091141], [19.988936, 50.091121], [19.988879, 50.091116], [19.988866, 50.091127], [19.98864, 50.091082], [19.988559, 50.091065], [19.988458, 50.091045], [19.988326, 50.091018], [19.988236, 50.091], [19.988205, 50.090993], [19.988114, 50.090982], [19.987914, 50.090957], [19.987852, 50.09095], [19.987849, 50.090949], [19.98774, 50.090935], [19.987637, 50.090922], [19.987482, 50.090903], [19.987233, 50.090872], [19.987088, 50.090854], [19.986876, 50.090829], [19.986722, 50.09081], [19.985886, 50.090711], [19.985047, 50.09061], [19.984814, 50.090581], [19.984376, 50.090526], [19.984362, 50.090526], [19.983632, 50.090422], [19.983368, 50.090366], [19.983302, 50.090352], [19.982965, 50.090282], [19.982926, 50.090203], [19.982854, 50.090057], [19.982306, 50.090028], [19.981872, 50.089982], [19.981509, 50.089939], [19.981446, 50.089931], [19.981208, 50.089901], [19.981033, 50.08988], [19.980801, 50.08985], [19.980465, 50.089807], [19.980373, 50.089796], [19.980234, 50.089773], [19.980125, 50.089755], [19.980156, 50.089656], [19.980217, 50.089463], [19.98025, 50.089358], [19.980287, 50.089241], [19.9804, 50.088883], [19.980484, 50.088619], [19.980527, 50.088487], [19.980596, 50.0882], [19.980469, 50.08813], [19.980045, 50.088086], [19.979764, 50.088058], [19.979666, 50.088048], [19.979063, 50.087984], [19.979011, 50.087979], [19.978509, 50.087929], [19.978511, 50.087926], [19.978587, 50.087755], [19.978736, 50.087419], [19.978925, 50.086986], [19.979076, 50.086642], [19.979115, 50.086554], [19.979326, 50.086074], [19.979407, 50.086083], [19.979496, 50.086093], [19.979515, 50.086045], [19.979605, 50.085813], [19.979638, 50.085731], [19.979671, 50.085638], [19.979673, 50.085629], [19.97968, 50.085591], [19.979696, 50.085508], [19.979702, 50.085454], [19.97971, 50.085381], [19.97971, 50.085365], [19.979712, 50.085325], [19.979714, 50.085285], [19.979714, 50.085242], [19.979714, 50.085217], [19.979708, 50.085111], [19.979681, 50.084784], [19.979676, 50.08473], [19.979675, 50.084718], [19.979664, 50.08458], [19.979653, 50.084441], [19.979627, 50.084092], [19.979955, 50.084083], [19.979954, 50.084037], [19.980634, 50.084021], [19.981291, 50.084003], [19.981559, 50.083995], [19.981847, 50.083988], [19.982115, 50.083981], [19.982871, 50.08396], [19.983045, 50.083955], [19.98306, 50.083954], [19.983144, 50.083952], [19.983997, 50.083928], [19.98414, 50.083924], [19.984677, 50.08391], [19.984802, 50.083905], [19.984894, 50.083901], [19.984986, 50.083895], [19.985365, 50.083879], [19.985388, 50.083878], [19.985574, 50.083871], [19.985616, 50.08386], [19.986183, 50.083719], [19.986236, 50.083625], [19.986381, 50.083367], [19.986489, 50.083174], [19.986554, 50.083254], [19.987178, 50.083401], [19.987255, 50.083399], [19.987379, 50.083399], [19.987488, 50.083394], [19.987529, 50.083377], [19.987633, 50.083313], [19.987942, 50.082756], [19.987947, 50.082747], [19.988222, 50.082633], [19.988268, 50.082595], [19.988407, 50.082333], [19.988651, 50.081878], [19.988783, 50.081641], [19.988946, 50.081346], [19.989175, 50.080919], [19.989374, 50.080555], [19.989394, 50.080517], [19.988934, 50.080416], [19.988952, 50.08035], [19.988103, 50.08017], [19.987772, 50.080123], [19.987641, 50.080104], [19.987599, 50.080061], [19.987576, 50.080037], [19.987444, 50.079899], [19.987383, 50.079825], [19.987341, 50.079761], [19.987239, 50.079666], [19.987279, 50.07959], [19.987333, 50.079486], [19.987393, 50.079371], [19.98745, 50.07926], [19.987874, 50.078483], [19.988229, 50.077855], [19.988572, 50.077246], [19.988628, 50.077154], [19.98869, 50.077081], [19.988756, 50.077012], [19.988825, 50.076946], [19.988922, 50.076872], [19.98902, 50.076813], [19.989136, 50.076739], [19.989235, 50.076692], [19.989302, 50.076646], [19.989327, 50.076614], [19.989344, 50.07658], [19.98935, 50.076542], [19.989344, 50.076507], [19.989326, 50.076477], [19.989061, 50.076073], [19.988951, 50.076039], [19.988612, 50.075933], [19.988578, 50.075909], [19.988135, 50.075596], [19.988124, 50.075456], [19.988192, 50.075054], [19.988275, 50.074598], [19.988342, 50.074224], [19.988365, 50.074097], [19.988366, 50.074093], [19.988424, 50.073773], [19.988444, 50.073658], [19.988445, 50.073652], [19.988466, 50.073525], [19.988509, 50.073267], [19.987419, 50.073209], [19.987404, 50.073179], [19.987394, 50.073149], [19.987352, 50.073068], [19.987327, 50.07302], [19.987301, 50.072966], [19.987267, 50.072896], [19.987249, 50.072863], [19.987215, 50.072789], [19.987101, 50.07254], [19.986807, 50.072542], [19.986523, 50.072648], [19.986259, 50.072668], [19.986072, 50.07261], [19.985976, 50.07253], [19.985871, 50.072583], [19.985795, 50.072509], [19.985677, 50.072393], [19.985455, 50.072173], [19.985448, 50.072166], [19.985728, 50.072033], [19.985765, 50.071969], [19.985827, 50.071862], [19.985453, 50.071547], [19.985276, 50.071573], [19.984936, 50.071625], [19.984724, 50.071946], [19.984537, 50.071802], [19.984425, 50.0717], [19.984329, 50.071728], [19.984309, 50.071712], [19.984133, 50.071577], [19.984097, 50.071553], [19.984065, 50.071529], [19.983946, 50.071429], [19.983918, 50.071406], [19.983818, 50.071328], [19.983723, 50.071258], [19.98383, 50.071197], [19.983737, 50.071117], [19.983625, 50.071017], [19.983682, 50.070991], [19.983838, 50.070923], [19.983992, 50.070858], [19.984154, 50.070783], [19.984331, 50.070701], [19.984271, 50.070647], [19.98417, 50.070556], [19.983927, 50.070338], [19.983913, 50.070323], [19.983846, 50.070255], [19.983368, 50.069838], [19.983655, 50.069714], [19.983807, 50.069648], [19.984114, 50.069516], [19.984204, 50.069477], [19.984518, 50.069349], [19.984763, 50.069248], [19.984964, 50.069165], [19.984969, 50.069164], [19.985, 50.069151], [19.985003, 50.069149], [19.985056, 50.06912], [19.985086, 50.069107], [19.98515, 50.06908], [19.985389, 50.06898], [19.98563, 50.06888], [19.985665, 50.068865], [19.986034, 50.068702], [19.986251, 50.068609], [19.986287, 50.06859], [19.986387, 50.068538], [19.986404, 50.068531], [19.986475, 50.068501], [19.986925, 50.068309], [19.986945, 50.068301], [19.98702, 50.068269], [19.987075, 50.068246], [19.987377, 50.068114], [19.987543, 50.068042], [19.987572, 50.06803], [19.98813, 50.067784], [19.9882, 50.067754], [19.988276, 50.06772], [19.988471, 50.067635], [19.98865, 50.067557], [19.98906, 50.067377], [19.989154, 50.067336], [19.989278, 50.067282], [19.989323, 50.067262], [19.989379, 50.067238], [19.989424, 50.067218], [19.9895, 50.067185], [19.989563, 50.067157], [19.989585, 50.067148], [19.989753, 50.067074], [19.989775, 50.067064], [19.990112, 50.066913], [19.990226, 50.066862], [19.990919, 50.066553], [19.991092, 50.066477], [19.991484, 50.066303], [19.991685, 50.066214], [19.991812, 50.066153], [19.991912, 50.066114], [19.992057, 50.06603], [19.992127, 50.06599], [19.992167, 50.065965], [19.992236, 50.065922], [19.992389, 50.065827], [19.992388, 50.065801], [19.992437, 50.065773], [19.992482, 50.06577], [19.992747, 50.065613], [19.992808, 50.065577], [19.993347, 50.065253], [19.992785, 50.065155], [19.992305, 50.065072], [19.991301, 50.064897], [19.991098, 50.064862], [19.990963, 50.064916], [19.990801, 50.064894], [19.990718, 50.064882], [19.990731, 50.064847], [19.990736, 50.064833], [19.990749, 50.064801], [19.990678, 50.064789], [19.990613, 50.064778], [19.990143, 50.064696], [19.989656, 50.064623], [19.989438, 50.06459], [19.989375, 50.064581], [19.989177, 50.064551], [19.988842, 50.064501], [19.988645, 50.064468], [19.988529, 50.064449], [19.988196, 50.064394], [19.988051, 50.06437], [19.987969, 50.064356], [19.987629, 50.0643], [19.987518, 50.064301], [19.987267, 50.064251], [19.987253, 50.064249], [19.98633, 50.064065], [19.985522, 50.063918], [19.984824, 50.063758], [19.984536, 50.063692], [19.983645, 50.063275], [19.983619, 50.063263], [19.983555, 50.063232], [19.983482, 50.063198], [19.983412, 50.063159], [19.983336, 50.063117], [19.983327, 50.063113], [19.983176, 50.063029], [19.983156, 50.063018], [19.983111, 50.062993], [19.982776, 50.062826], [19.982595, 50.062736], [19.982559, 50.062718], [19.982556, 50.062715], [19.982497, 50.062677], [19.982419, 50.062627], [19.982361, 50.062588], [19.982275, 50.062533], [19.982147, 50.062449], [19.982424, 50.062306], [19.982651, 50.062189], [19.982769, 50.062129], [19.983043, 50.062048], [19.983184, 50.062009], [19.983325, 50.061969], [19.983581, 50.061905], [19.983939, 50.061846], [19.984074, 50.061818], [19.984209, 50.06179], [19.984521, 50.061684], [19.984682, 50.06161], [19.984744, 50.061582], [19.984827, 50.061544], [19.984929, 50.061484], [19.984984, 50.061443], [19.985098, 50.061356], [19.98513, 50.061331], [19.985256, 50.061235], [19.985329, 50.061167], [19.985371, 50.061148], [19.98544, 50.061117], [19.985482, 50.061102], [19.985567, 50.061013], [19.985551, 50.060968], [19.985657, 50.060858], [19.985763, 50.06078], [19.985802, 50.060751], [19.985992, 50.060659], [19.986134, 50.060578], [19.986188, 50.060547], [19.986269, 50.060501], [19.986343, 50.060458], [19.986415, 50.060415], [19.98648, 50.060382], [19.986551, 50.060282], [19.986565, 50.060261], [19.986594, 50.06022], [19.986607, 50.060202], [19.98685, 50.059855], [19.986434, 50.059833], [19.98578, 50.059713], [19.985273, 50.059621], [19.984789, 50.059427], [19.984225, 50.059097], [19.98302, 50.058231], [19.982712, 50.057905], [19.982598, 50.057811], [19.982333, 50.057595], [19.982245, 50.057455], [19.982124, 50.057265], [19.981786, 50.056828], [19.981085, 50.05587], [19.980637, 50.055492], [19.980203, 50.055126], [19.978948, 50.054264], [19.978037, 50.053923], [19.977016, 50.053524], [19.976983, 50.053518], [19.97619, 50.053374], [19.975724, 50.053224], [19.975173, 50.05305], [19.974833, 50.052943], [19.973712, 50.052595], [19.972338, 50.052307], [19.971496, 50.052263], [19.970621, 50.052218], [19.969488, 50.052338], [19.968137, 50.052599]]]}}]}