{"type": "FeatureCollection", "features": [{"type": "Feature", "geometry": {"type": "LineString", "coordinates": [[19.9476429, 50.0680801], [19.9476597, 50.067651], [19.9476651, 50.067514], [19.9476711, 50.0673619], [19.9475974, 50.0673607], [19.9475985, 50.0673311], [19.9476015, 50.0672618], [19.947605, 50.0671784], [19.9471986, 50.0671716], [19.9469442, 50.0671673], [19.9469451, 50.0671329], [19.9469495, 50.0670567], [19.9469503, 50.0670432], [19.9469617, 50.0669043], [19.9471841, 50.0666523], [19.9472434, 50.0665501], [19.9472749, 50.0664797], [19.9473067, 50.0663595], [19.9473343, 50.066176], [19.9471641, 50.0661737], [19.9470638, 50.0661724], [19.9469774, 50.0661717], [19.9469777, 50.0661469], [19.9469845, 50.0660146], [19.9469421, 50.065986], [19.9468192, 50.0659031], [19.9468285, 50.0655925], [19.9468366, 50.0653711], [19.9467634, 50.0652679], [19.9466495, 50.0651071], [19.9468083, 50.064929], [19.9468867, 50.0648388], [19.9468964, 50.064794], [19.9469269, 50.0646498], [19.946853, 50.0646438], [19.9468329, 50.0646421], [19.9468384, 50.0646202], [19.9468453, 50.0645905], [19.9466308, 50.0645715], [19.9466048, 50.0645615], [19.9466915, 50.064197], [19.946777, 50.0638328], [19.9468272, 50.0636023], [19.946846, 50.0635908], [19.9468574, 50.0635486], [19.9468672, 50.0635024], [19.9468507, 50.0634869], [19.9469686, 50.0629909], [19.9469929, 50.0628887], [19.9473624, 50.0613345], [19.9473702, 50.0613192], [19.9474032, 50.0613177], [19.9474469, 50.0613263], [19.9474567, 50.0613156], [19.9474793, 50.061291], [19.9475015, 50.0612659], [19.9475155, 50.0612495], [19.9475689, 50.0612732], [19.9476324, 50.0612002], [19.947687, 50.0611195], [19.9477319, 50.0610689], [19.9477637, 50.0610205], [19.9477637, 50.0609824], [19.947734, 50.0608861], [19.947743, 50.0608373], [19.9477402, 50.060772], [19.9477485, 50.0606567], [19.9477564, 50.0606465], [19.947584, 50.0605136], [19.9475756, 50.0604491], [19.9475621, 50.0603452], [19.9475584, 50.060317], [19.9475512, 50.060262], [19.9475698, 50.0601887], [19.947557, 50.0601446], [19.9475401, 50.0600858], [19.9475622, 50.0599429], [19.9475778, 50.0598541], [19.9475867, 50.0598438], [19.947499, 50.059818], [19.9473693, 50.0597797], [19.9473682, 50.059768], [19.9473617, 50.0597069], [19.9473403, 50.0596681], [19.947349, 50.0596583], [19.9473527, 50.059609], [19.9473851, 50.0591746], [19.9473915, 50.0591192], [19.9473977, 50.0590654], [19.9474005, 50.0590322], [19.9474249, 50.0587434], [19.947435, 50.0586553], [19.946748, 50.0584484], [19.946809, 50.0583962], [19.9468521, 50.0583594], [19.9468905, 50.0583285], [19.9469725, 50.0582873], [19.9469897, 50.0582786], [19.9470099, 50.0582685], [19.9468949, 50.0581961], [19.946839, 50.058157], [19.9467866, 50.0581168], [19.9467363, 50.0580695], [19.9466598, 50.0579858], [19.9462765, 50.0575333], [19.9461386, 50.0573653], [19.9459376, 50.0571075], [19.9458608, 50.0570056], [19.945791, 50.056916], [19.9457393, 50.0568539], [19.9457165, 50.056827], [19.9455419, 50.0566087], [19.9455284, 50.0565914], [19.9455079, 50.0565671], [19.9454663, 50.0565136], [19.9454431, 50.0564838], [19.9453915, 50.0564191], [19.9453136, 50.0563218], [19.9453346, 50.0563022], [19.9453472, 50.0562914], [19.9453649, 50.0562264], [19.9453673, 50.0562109], [19.9453707, 50.0561881], [19.9453733, 50.0561672], [19.9453753, 50.056151], [19.9453781, 50.0561373], [19.9453541, 50.0561326], [19.9453373, 50.0561261], [19.9453188, 50.0561094], [19.9450287, 50.0557498], [19.9448475, 50.0555212], [19.9446305, 50.0552498], [19.9446248, 50.0551808], [19.9446212, 50.0551124], [19.9446776, 50.0550727], [19.9447307, 50.0550343], [19.9447823, 50.0549977], [19.9449202, 50.0548826], [19.945103, 50.05473], [19.9452507, 50.0546067], [19.9454148, 50.0544698], [19.9456143, 50.0543032], [19.9457241, 50.0542131], [19.945748, 50.0541925], [19.9457828, 50.0541625], [19.9458207, 50.0541294], [19.9458288, 50.054118], [19.9460035, 50.0538092], [19.9461318, 50.0535772], [19.9462248, 50.0534091], [19.9463217, 50.0532339], [19.9463399, 50.0532061], [19.9463619, 50.0531705], [19.9463814, 50.0531362], [19.9464002, 50.0531052], [19.9463144, 50.0530832], [19.9462892, 50.0530548], [19.9462733, 50.0530515], [19.9462485, 50.0530458], [19.9461968, 50.0530341], [19.9463388, 50.0527621], [19.9463591, 50.0527273], [19.945766, 50.0524491], [19.9451933, 50.052185], [19.9451273, 50.0521564], [19.9450591, 50.0521166], [19.9450792, 50.0520716], [19.944997, 50.0518462], [19.9449735, 50.0518512], [19.9448908, 50.0518505], [19.9448128, 50.0518326], [19.9447483, 50.0517995], [19.9447041, 50.0517548], [19.9446848, 50.0517032], [19.9446926, 50.0516505], [19.9447033, 50.0516352]]}, "properties": {"profile": "Pieszy (bez ograniczeń)", "mode": "strict", "length_m": 2181, "time_min": 27.3, "pct_niepewne": 0.0, "steps": [{"text": "Idź dalej, 85 m", "length_m": 85, "status": 0, "notes": []}, {"text": "Schody, 20 m", "length_m": 20, "status": 0, "notes": []}, {"text": "Idź Tunel Magda, 47 m", "length_m": 47, "status": 0, "notes": []}, {"text": "Schody, 14 m", "length_m": 14, "status": 0, "notes": []}, {"text": "Idź dalej, 288 m", "length_m": 288, "status": 0, "notes": []}, {"text": "Schody, 30 m", "length_m": 30, "status": 0, "notes": []}, {"text": "Przejście dla pieszych, 3 m", "length_m": 3, "status": 0, "notes": []}, {"text": "Idź dalej, 127 m", "length_m": 127, "status": 0, "notes": []}, {"text": "Przejście dla pieszych, 10 m", "length_m": 10, "status": 0, "notes": []}, {"text": "Idź dalej, 452 m", "length_m": 452, "status": 0, "notes": []}, {"text": "Przejście dla pieszych, 11 m", "length_m": 11, "status": 0, "notes": []}, {"text": "Idź dalej, 55 m", "length_m": 55, "status": 0, "notes": []}, {"text": "Przejście dla pieszych, 12 m", "length_m": 12, "status": 0, "notes": []}, {"text": "Idź dalej, 127 m", "length_m": 127, "status": 0, "notes": []}, {"text": "Idź dalej, 249 m", "length_m": 249, "status": 0, "notes": []}, {"text": "Przejście dla pieszych, 21 m", "length_m": 21, "status": 0, "notes": []}, {"text": "Idź dalej, 121 m", "length_m": 121, "status": 0, "notes": []}, {"text": "Przejście dla pieszych, 19 m", "length_m": 19, "status": 0, "notes": []}, {"text": "Idź dalej, 116 m", "length_m": 116, "status": 0, "notes": []}, {"text": "Przejście dla pieszych, 13 m", "length_m": 13, "status": 0, "notes": []}, {"text": "Idź dalej, 104 m", "length_m": 104, "status": 0, "notes": []}, {"text": "Przejście dla pieszych, 15 m", "length_m": 15, "status": 0, "notes": []}, {"text": "Idź dalej, 10 m", "length_m": 10, "status": 0, "notes": []}, {"text": "Przejście dla pieszych, 7 m", "length_m": 7, "status": 0, "notes": []}, {"text": "Idź dalej, 32 m", "length_m": 32, "status": 0, "notes": []}, {"text": "Przejście dla pieszych, 4 m", "length_m": 4, "status": 0, "notes": []}, {"text": "Idź Warszauera, 103 m", "length_m": 103, "status": 0, "notes": []}, {"text": "Idź Plac Nowy, 12 m", "length_m": 12, "status": 0, "notes": []}, {"text": "Przejście dla pieszych, 5 m", "length_m": 5, "status": 0, "notes": []}, {"text": "Idź dalej, 65 m", "length_m": 65, "status": 0, "notes": []}]}}, {"type": "Feature", "geometry": {"type": "LineString", "coordinates": [[19.943113, 50.0682293], [19.94301, 50.0682445], [19.9429222, 50.0680299], [19.9427672, 50.0676614], [19.9427541, 50.0676395], [19.9427142, 50.0676088], [19.9426973, 50.0675964], [19.942671, 50.0675699], [19.9426407, 50.0675395], [19.9426123, 50.06754], [19.9425689, 50.0675267], [19.9425303, 50.0675048], [19.9424696, 50.0673907], [19.9424415, 50.0673698], [19.9424272, 50.0673507], [19.9419289, 50.0665525], [19.9419043, 50.0665104], [19.9418835, 50.0664772], [19.9418667, 50.0664504], [19.9418528, 50.066426], [19.9415483, 50.0659342], [19.9415332, 50.0659138], [19.9415278, 50.0659083], [19.9415237, 50.0659048], [19.9415196, 50.0659021], [19.9415125, 50.0658985], [19.9415091, 50.0658971], [19.9415052, 50.0658943], [19.9415007, 50.0658897], [19.9414808, 50.0658677], [19.9414485, 50.0658273], [19.9414378, 50.0658139], [19.9414274, 50.0658009], [19.941405, 50.0657727], [19.9413986, 50.0657664], [19.9406816, 50.066015], [19.9405073, 50.0660723], [19.9403144, 50.06613], [19.9401748, 50.0661653], [19.9401046, 50.0661808], [19.9400143, 50.0661961], [19.9399381, 50.0662065], [19.9398693, 50.0662148], [19.9397624, 50.06622], [19.9396908, 50.0662226], [19.9396176, 50.0662225], [19.9394508, 50.066217], [19.9393194, 50.0662077], [19.9393239, 50.0661724], [19.9393234, 50.066159], [19.9393199, 50.0661435], [19.9393133, 50.066128], [19.9392929, 50.0660933], [19.939073, 50.0657614], [19.9389106, 50.0655307], [19.9388245, 50.0655282], [19.9387461, 50.0654218], [19.9387201, 50.0653783], [19.9386852, 50.0653199], [19.9386643, 50.0652859], [19.9384896, 50.065011], [19.9380934, 50.0644211], [19.9380406, 50.0643465], [19.9380137, 50.0643085], [19.9379983, 50.064286], [19.9377761, 50.0639553], [19.9376644, 50.0637948], [19.9376132, 50.0637263], [19.9375749, 50.0636766], [19.9375014, 50.0635821], [19.9374734, 50.0635483], [19.9374583, 50.0635298], [19.9372087, 50.0632117], [19.9370826, 50.0630564], [19.936925, 50.0628495], [19.936911, 50.0628291], [19.9368915, 50.0628048], [19.9368959, 50.0627747], [19.9368196, 50.0627676], [19.9367877, 50.0627817], [19.9361457, 50.0621068], [19.9361242, 50.0620835], [19.9360998, 50.0620571], [19.9357991, 50.0617269], [19.935483, 50.0613781], [19.9354948, 50.0613452], [19.93551, 50.061308], [19.9361007, 50.0611191], [19.9365531, 50.0609712], [19.9365879, 50.0609597], [19.936641, 50.0609424], [19.9366272, 50.0609233], [19.9364194, 50.0606351], [19.9364008, 50.0606073], [19.9363803, 50.0605736], [19.9363669, 50.0605425], [19.9363564, 50.0605129], [19.9363465, 50.0604788], [19.9363416, 50.0604563], [19.9363196, 50.0603536], [19.9363138, 50.0603083], [19.9362875, 50.0600804], [19.9362823, 50.0600163], [19.9362665, 50.0598634], [19.9362659, 50.0598267], [19.9362682, 50.0597705], [19.9362811, 50.0595393], [19.936283, 50.0595244], [19.9363325, 50.0595056], [19.9363247, 50.0594842], [19.936315, 50.0594572], [19.9363098, 50.0594429], [19.9363048, 50.0594291], [19.9362915, 50.0593924], [19.9362873, 50.0593809], [19.9363149, 50.0593772], [19.9363538, 50.0593695], [19.9363901, 50.0593613], [19.936437, 50.0593479], [19.9364773, 50.0593351], [19.936514, 50.0593212], [19.9365635, 50.0593011], [19.9366122, 50.0592806], [19.9366263, 50.0592729], [19.9366352, 50.0592658], [19.9366388, 50.0592603], [19.9366445, 50.0592502], [19.9366484, 50.0592461], [19.9366547, 50.0592417], [19.9366715, 50.0592332], [19.9368055, 50.0591767], [19.9368358, 50.0591637], [19.9368838, 50.0591451], [19.9369015, 50.0591397], [19.936917, 50.0591349], [19.9369555, 50.0591241], [19.9369958, 50.059115], [19.9370404, 50.0591068], [19.9370613, 50.0591041], [19.9370926, 50.0591], [19.9371466, 50.0590949], [19.9371931, 50.059092], [19.9372552, 50.0590898], [19.9376225, 50.05908], [19.9376948, 50.0590781], [19.9377337, 50.0590764], [19.9378567, 50.059071], [19.937878, 50.0589176], [19.9378797, 50.058907], [19.9379027, 50.0587658], [19.9379128, 50.0587065], [19.9379245, 50.0586377], [19.9379297, 50.0586069], [19.9379804, 50.0586116], [19.9380305, 50.0584804], [19.9380412, 50.0584524], [19.9381169, 50.058254], [19.9381257, 50.0582293], [19.9381315, 50.058199], [19.9381334, 50.0581848], [19.9381368, 50.05816], [19.9381417, 50.0581237], [19.9381428, 50.0581139], [19.9381658, 50.0578824], [19.9381711, 50.0577876], [19.9381809, 50.0577054], [19.9381847, 50.0576767], [19.9382258, 50.0575524], [19.9382583, 50.0574172], [19.9382744, 50.0573107], [19.9382771, 50.0572827], [19.9382851, 50.0571983], [19.9382957, 50.0570772], [19.9383161, 50.0569336], [19.9383046, 50.0568684], [19.9382586, 50.0568073], [19.93817, 50.0566627], [19.9381825, 50.0565262], [19.9382155, 50.0561943], [19.9382272, 50.0560941], [19.9382446, 50.0559512], [19.9382471, 50.055927], [19.9382589, 50.0558539], [19.9383041, 50.0555741], [19.938321, 50.0554704], [19.9383315, 50.0554003], [19.9382349, 50.0553969], [19.9379782, 50.0553784], [19.9379596, 50.0552753], [19.9379802, 50.0551675], [19.9380127, 50.0550416], [19.938032, 50.0550227], [19.9381655, 50.0550066], [19.9384006, 50.0550373], [19.9384169, 50.0549522], [19.9384783, 50.0547591], [19.9384983, 50.0546428], [19.9383639, 50.0545596], [19.9383079, 50.0545089], [19.9381898, 50.0540961], [19.9382389, 50.0540258], [19.9382943, 50.0539549], [19.9383672, 50.0538616], [19.9360101, 50.0529414], [19.9358747, 50.0528826], [19.9358178, 50.0527979], [19.9355188, 50.0526723], [19.9353092, 50.0525903], [19.9351355, 50.0525229], [19.9349417, 50.0524904], [19.9350011, 50.05235], [19.9345084, 50.0521659], [19.9345595, 50.0521225], [19.9345868, 50.0521003], [19.9347521, 50.0519657], [19.9349812, 50.0517524], [19.9351677, 50.0515339], [19.9353627, 50.051309], [19.9354128, 50.0512283], [19.9353763, 50.0512197], [19.9353593, 50.0511037], [19.9352613, 50.0504345], [19.9351929, 50.0503852], [19.9351868, 50.0500707], [19.9351509, 50.0499934], [19.935263, 50.0498331], [19.9353853, 50.0497982], [19.9356955, 50.0496171], [19.9357554, 50.0496091], [19.9359788, 50.0492803], [19.9359928, 50.0492585], [19.9365152, 50.048623], [19.9368271, 50.0482586], [19.9370221, 50.0482233], [19.9377943, 50.0473173], [19.938002, 50.0473012], [19.9381667, 50.0473674], [19.9386592, 50.0475675], [19.9389316, 50.0476786], [19.9391447, 50.0477584], [19.9392051, 50.0477821], [19.9393988, 50.0478627], [19.9394562, 50.0479141], [19.9394829, 50.0479414], [19.9395287, 50.0479545], [19.9395293, 50.0479803], [19.9395494, 50.0479879], [19.9396592, 50.048024], [19.9398764, 50.0480763], [19.940076, 50.048114], [19.9402538, 50.0481403], [19.9404177, 50.0481685], [19.9405051, 50.0481835], [19.94084, 50.0482348], [19.9415885, 50.0483555], [19.9420962, 50.0484362], [19.9421091, 50.0484541], [19.9419029, 50.048934], [19.9417939, 50.0491561], [19.9417878, 50.0491686], [19.9417657, 50.0491745], [19.9417377, 50.0491715], [19.9415543, 50.0491322], [19.9414784, 50.0491164], [19.9410992, 50.0490377], [19.9409466, 50.049006], [19.9409071, 50.0489978], [19.9407477, 50.0489647], [19.940709, 50.0489551], [19.9406497, 50.0489391], [19.9405475, 50.0489116], [19.9405285, 50.0489418], [19.9405173, 50.0489641], [19.9405865, 50.0489835], [19.9406677, 50.049024], [19.9407034, 50.0490389], [19.9410486, 50.0491172], [19.9415852, 50.0492354], [19.9416131, 50.0492179], [19.9417256, 50.0492417], [19.9417318, 50.0492479], [19.9417288, 50.0492582], [19.9416848, 50.049338], [19.9416635, 50.049333], [19.9411508, 50.0502417]]}, "properties": {"profile": "Wózek inwalidzki", "mode": "strict", "length_m": 3847, "time_min": 64.1, "pct_niepewne": 0.0, "steps": [{"text": "Idź dalej, 8 m", "length_m": 8, "status": 0, "notes": []}, {"text": "Idź dalej, 550 m", "length_m": 550, "status": 0, "notes": []}, {"text": "Idź Sławkowska, 333 m", "length_m": 333, "status": 0, "notes": []}, {"text": "Idź Rynek Główny, 3 m - nawierzchnia nierówna: sett", "length_m": 3, "status": 0, "notes": ["nawierzchnia nierówna: sett"]}, {"text": "Idź dalej, 590 m", "length_m": 590, "status": 0, "notes": []}, {"text": "Idź Grodzka, 52 m", "length_m": 52, "status": 0, "notes": []}, {"text": "Idź dalej, 224 m", "length_m": 224, "status": 0, "notes": []}, {"text": "Idź Grodzka, 141 m", "length_m": 141, "status": 0, "notes": []}, {"text": "Idź dalej, 92 m", "length_m": 92, "status": 0, "notes": []}, {"text": "Idź Grodzka, 31 m - nawierzchnia nierówna: sett", "length_m": 31, "status": 0, "notes": ["nawierzchnia nierówna: sett"]}, {"text": "Idź Droga do Zamku, 33 m - nawierzchnia nierówna: sett", "length_m": 33, "status": 0, "notes": ["nawierzchnia nierówna: sett"]}, {"text": "Idź Droga do Zamku, 47 m", "length_m": 47, "status": 0, "notes": []}, {"text": "Idź dalej, 1742 m - strome (17%), ale to krótki odcinek z NMT - niepewne", "length_m": 1742, "status": 0, "notes": ["strome (17%), ale to krótki odcinek z NMT - niepewne"]}]}}, {"type": "Feature", "geometry": {"type": "LineString", "coordinates": [[19.9476429, 50.0680801], [19.9475687, 50.0680783], [19.9475673, 50.0681135], [19.9475669, 50.0681228], [19.9475692, 50.0680786], [19.9476303, 50.0681169], [19.9476252, 50.0682216], [19.9478434, 50.0682255], [19.9478936, 50.0682264], [19.9479708, 50.0682278], [19.9481692, 50.0682314], [19.9482232, 50.0682324], [19.9482858, 50.0682335], [19.9485621, 50.0682385], [19.9486198, 50.0682395], [19.9487042, 50.0682411], [19.9487582, 50.068242], [19.9490033, 50.0682522], [19.9490289, 50.0682525], [19.9491477, 50.068291], [19.9492591, 50.0683032], [19.9493301, 50.0683379], [19.9493372, 50.0683387], [19.9493577, 50.0683573], [19.9493672, 50.0683659], [19.9494235, 50.0683671], [19.9494544, 50.0683678], [19.9494794, 50.0683683], [19.9495612, 50.06837], [19.9495705, 50.06837], [19.9495808, 50.068369], [19.9495887, 50.0683651], [19.9495915, 50.0683605], [19.9495938, 50.0683416], [19.9495979, 50.0683011], [19.9496716, 50.0683075], [19.9497702, 50.0683127], [19.9498363, 50.0683171], [19.9498525, 50.068319], [19.9498665, 50.068323], [19.9499525, 50.068351], [19.9499769, 50.0683545], [19.9499971, 50.0683549], [19.9500194, 50.0683518], [19.9503769, 50.0682387], [19.9503914, 50.0682325], [19.9504686, 50.0681789], [19.9505533, 50.0681728], [19.9505942, 50.0681697], [19.950631, 50.0681655], [19.9508394, 50.0681263], [19.9508834, 50.0681156], [19.9511199, 50.0680534], [19.9511885, 50.068036], [19.9512367, 50.0680251], [19.9512994, 50.068013], [19.9513387, 50.0680039], [19.951369, 50.0679922], [19.9513918, 50.0679832], [19.9514214, 50.0679745], [19.9517346, 50.0679175], [19.9518124, 50.0679128], [19.9519293, 50.0678907], [19.9519407, 50.0679141], [19.9518998, 50.0679219], [19.9516185, 50.0679758], [19.9516306, 50.0679994], [19.9521394, 50.0679015], [19.9521672, 50.0678784], [19.9522024, 50.0678734], [19.9522762, 50.0679701], [19.9523711, 50.0680984], [19.9526303, 50.0680638], [19.952659, 50.0680401], [19.9530769, 50.0679633], [19.9530823, 50.0679737], [19.9530844, 50.0679836], [19.9530823, 50.0679927], [19.9530793, 50.0679979], [19.9530721, 50.0680038], [19.9530632, 50.0680081], [19.9528454, 50.0680679], [19.952879, 50.0681317], [19.9527719, 50.0681633], [19.9527076, 50.0681876], [19.9527463, 50.0682698], [19.953081, 50.068713], [19.9531013, 50.0687407], [19.9531193, 50.0687653], [19.9531416, 50.0687586], [19.953192, 50.0687434], [19.9533915, 50.06901], [19.9534654, 50.0690153], [19.9535276, 50.0689975], [19.9537679, 50.0689243], [19.9539201, 50.0688783], [19.9539293, 50.068894], [19.9539583, 50.0689331], [19.9540252, 50.0689464], [19.9540846, 50.0689579], [19.9541039, 50.068963], [19.9541185, 50.0689695], [19.9541273, 50.068976], [19.9541497, 50.0690047], [19.954155, 50.0690019], [19.9542803, 50.0689301], [19.9543523, 50.0688913], [19.9543864, 50.0688716], [19.9544173, 50.068858], [19.9544409, 50.0688504], [19.9548092, 50.0687395], [19.954879, 50.0687165], [19.9549053, 50.0687532], [19.954616, 50.0688412], [19.9544675, 50.0688864], [19.9543896, 50.0689167], [19.9543487, 50.0689425], [19.9543175, 50.0689622], [19.9542922, 50.0689776], [19.9542028, 50.069036], [19.9541563, 50.0690515], [19.953838, 50.0691496], [19.95387, 50.0692022], [19.9538283, 50.0692151], [19.9539157, 50.0693339], [19.9541773, 50.069693], [19.9541913, 50.0696886], [19.9547931, 50.0694991], [19.95659, 50.0689358], [19.9567403, 50.0688886], [19.9568526, 50.0688534], [19.9569409, 50.0688281], [19.9574619, 50.0686784], [19.9576887, 50.0686133], [19.9578285, 50.0685763], [19.9579793, 50.0685364], [19.9580463, 50.0685382], [19.9580852, 50.0685372], [19.9581233, 50.0685335], [19.9581622, 50.0685273], [19.9582305, 50.0685129], [19.9582977, 50.0684962], [19.9583363, 50.0684861], [19.958371, 50.0684795], [19.9584135, 50.0684759], [19.9584266, 50.0684758], [19.958459, 50.0684754], [19.9584852, 50.0684757], [19.9585103, 50.0684772], [19.9586748, 50.0684844], [19.9587098, 50.068486], [19.9587696, 50.0684888], [19.9588023, 50.0684903], [19.9588086, 50.0684419], [19.9591347, 50.0684565], [19.9591583, 50.0682642], [19.9591642, 50.0682156], [19.9591683, 50.0681823], [19.9591713, 50.068158], [19.9591958, 50.0679582], [19.9591987, 50.0679347], [19.959206, 50.067875], [19.9592081, 50.0678579], [19.9592235, 50.0677323], [19.959234, 50.0676464], [19.9592423, 50.0675786], [19.9592451, 50.0675555], [19.9592595, 50.0674382], [19.9592607, 50.0674286], [19.9592692, 50.0673633], [19.9592719, 50.067343], [19.959278, 50.0672959], [19.9593087, 50.0670505], [19.9591853, 50.0670441], [19.9585401, 50.0670085], [19.958351, 50.0669915], [19.9590871, 50.0668042], [19.9592031, 50.0667774], [19.9594159, 50.0667427], [19.9595458, 50.06672], [19.9597983, 50.0666599], [19.9598731, 50.0666407], [19.9598861, 50.0666377], [19.9599023, 50.0666365], [19.9599166, 50.066555], [19.9597858, 50.0663893], [19.9596849, 50.0662712], [19.9595545, 50.0661172], [19.9593951, 50.0659395], [19.9593938, 50.0658337], [19.9593956, 50.0657937], [19.9593829, 50.0657642], [19.9593718, 50.0657301], [19.9593914, 50.0657018], [19.9594059, 50.06568], [19.9594127, 50.0656708], [19.9594277, 50.0656484], [19.9594439, 50.0656244], [19.9594892, 50.0655994], [19.9595171, 50.0655804], [19.9595421, 50.0655212], [19.9595253, 50.0654662], [19.9595243, 50.0654536], [19.9595177, 50.0654412], [19.9595077, 50.0654336], [19.9594806, 50.0654201], [19.9594517, 50.0654076], [19.9594289, 50.0653922], [19.9594096, 50.0653723], [19.9593984, 50.0653507], [19.9593925, 50.0653274], [19.9593982, 50.0652057], [19.9592758, 50.0651759], [19.9592936, 50.0651191], [19.9594932, 50.0647785], [19.959507, 50.0647536], [19.9594761, 50.064746], [19.9594405, 50.0647374], [19.9594195, 50.0647322], [19.9595005, 50.0645905], [19.9595616, 50.064452], [19.9596448, 50.0641821], [19.9599151, 50.0632783], [19.9600451, 50.0628341], [19.9601053, 50.0626323], [19.9601949, 50.0623302], [19.96022, 50.062214], [19.9602405, 50.062081], [19.9602455, 50.0619616], [19.9602497, 50.0618519], [19.9602405, 50.0617213], [19.9602284, 50.0616293], [19.960213, 50.0615426], [19.9601824, 50.0614179], [19.9601439, 50.0612909], [19.9599779, 50.0608129], [19.9596282, 50.0598196], [19.9594126, 50.0591956], [19.9593169, 50.0588808], [19.9592798, 50.0587361], [19.9592369, 50.0585878], [19.9592044, 50.0584621], [19.959129, 50.0581845], [19.9591208, 50.0581604], [19.9590955, 50.0580736], [19.959089, 50.0580454], [19.9590585, 50.0579116], [19.9590249, 50.0578007], [19.9590005, 50.057689], [19.9589977, 50.0576745], [19.9589915, 50.0576365], [19.9589899, 50.0576221], [19.9589877, 50.0576008], [19.9589736, 50.0574736], [19.9589675, 50.0574185], [19.9589492, 50.0572577], [19.958946, 50.0572236], [19.9589511, 50.0571666], [19.9589241, 50.0571705], [19.9589216, 50.0571708], [19.9588983, 50.0571741], [19.9588705, 50.0571784], [19.9588152, 50.0571868], [19.9587876, 50.0571878], [19.9587684, 50.0571867], [19.9587126, 50.0571741], [19.958628, 50.0571559], [19.9585788, 50.0571475], [19.9586648, 50.0570458], [19.9586755, 50.0569], [19.9586043, 50.0568659], [19.9586449, 50.0568183], [19.9586585, 50.0567978], [19.9586658, 50.056774], [19.9586707, 50.0567468], [19.9587281, 50.0562198], [19.9587437, 50.056112], [19.9587602, 50.0560317], [19.9587949, 50.0559182], [19.9588876, 50.0556909], [19.958965, 50.0555075], [19.9590669, 50.0552955], [19.9591852, 50.0550088], [19.9591971, 50.0549644], [19.9592174, 50.0549333], [19.9592961, 50.0546747], [19.9595329, 50.0541778], [19.9595949, 50.0541678], [19.9596446, 50.0541628], [19.9596482, 50.054056], [19.959668, 50.0537546], [19.9596497, 50.0536474], [19.9598457, 50.0534377], [19.9598781, 50.0534146], [19.9599171, 50.0533764], [19.9599406, 50.0533498], [19.9599683, 50.05332], [19.9599825, 50.0533043], [19.9600093, 50.0532759], [19.9600345, 50.0532492], [19.9600424, 50.0532403], [19.9595351, 50.0531479], [19.9592053, 50.0530816], [19.9586455, 50.0529294], [19.9586076, 50.0529167], [19.9580478, 50.052742], [19.9564093, 50.0522197], [19.9562232, 50.0521585], [19.9561401, 50.0521028], [19.9557463, 50.0519524], [19.9555084, 50.0518479], [19.9553393, 50.051757], [19.9552603, 50.0517037], [19.9551774, 50.0516462], [19.9550128, 50.0515134], [19.9547477, 50.051262], [19.9547469, 50.0512186], [19.9546937, 50.0511735], [19.954508, 50.0510288], [19.9544507, 50.0509858], [19.9543855, 50.0509432], [19.9536627, 50.0504794], [19.9536058, 50.0504432], [19.953542, 50.050407], [19.953398, 50.0503162], [19.9531484, 50.0501888], [19.952852, 50.0500385], [19.9526978, 50.0499583], [19.952597, 50.0498997], [19.9525797, 50.0498871], [19.9525245, 50.0498611], [19.9525024, 50.0498502], [19.952486, 50.049842], [19.9524695, 50.0498338], [19.9524481, 50.0498232], [19.9523974, 50.0497965], [19.9523714, 50.0497829], [19.9522875, 50.0497398], [19.9522567, 50.0497641], [19.9522094, 50.0497994], [19.9521842, 50.0498206], [19.9521593, 50.0498428], [19.952177, 50.0498582], [19.9521856, 50.0498787], [19.9521802, 50.049907], [19.9516211, 50.050432], [19.9516103, 50.0504659], [19.9516107, 50.050497], [19.9515969, 50.0505258], [19.9514547, 50.050659], [19.9513638, 50.0507474], [19.9513384, 50.0507569], [19.9513214, 50.0507559], [19.9512686, 50.0507457], [19.9509779, 50.0506824], [19.9507095, 50.0506248], [19.9502181, 50.0505216], [19.9498391, 50.0504364], [19.9497643, 50.0504203], [19.9496411, 50.0503937], [19.9495123, 50.0503693], [19.9494655, 50.0503607], [19.9487785, 50.050214], [19.9486276, 50.0501808], [19.9484669, 50.0501455], [19.9484385, 50.0501393], [19.9484035, 50.0501314], [19.948164, 50.0500772], [19.9478127, 50.049997], [19.9476207, 50.0499548], [19.9474362, 50.0499135], [19.9473781, 50.0499003], [19.9473627, 50.0498973], [19.9463271, 50.0496688], [19.9462832, 50.049655]]}, "properties": {"profile": "Wózek z dzieckiem", "mode": "strict", "length_m": 4487, "time_min": 67.3, "pct_niepewne": 0.0, "steps": [{"text": "Idź dalej, 253 m", "length_m": 253, "status": 0, "notes": []}, {"text": "Idź Aleksandra Lubomirskiego, 101 m", "length_m": 101, "status": 0, "notes": []}, {"text": "Idź dalej, 604 m - strome (8%), ale to krótki odcinek z NMT - niepewne", "length_m": 604, "status": 0, "notes": ["strome (8%), ale to krótki odcinek z NMT - niepewne"]}, {"text": "Idź dalej, 366 m", "length_m": 366, "status": 0, "notes": []}, {"text": "Idź dalej, 609 m", "length_m": 609, "status": 0, "notes": []}, {"text": "Idź dalej, 856 m", "length_m": 856, "status": 0, "notes": []}, {"text": "Idź dalej, 1698 m", "length_m": 1698, "status": 0, "notes": []}]}}, {"type": "Feature", "geometry": {"type": "LineString", "coordinates": [[19.9476429, 50.0680801], [19.9476597, 50.067651], [19.9476651, 50.067514], [19.9476711, 50.0673619], [19.9475974, 50.0673607], [19.9475985, 50.0673311], [19.9476015, 50.0672618], [19.947605, 50.0671784], [19.9471986, 50.0671716], [19.9469442, 50.0671673], [19.9469451, 50.0671329], [19.9469495, 50.0670567], [19.9469503, 50.0670432], [19.9469617, 50.0669043], [19.9471841, 50.0666523], [19.9472434, 50.0665501], [19.9472749, 50.0664797], [19.9473067, 50.0663595], [19.9473343, 50.066176], [19.9471641, 50.0661737], [19.9470638, 50.0661724], [19.9469774, 50.0661717], [19.9469777, 50.0661469], [19.9469845, 50.0660146], [19.9469421, 50.065986], [19.9468192, 50.0659031], [19.9468285, 50.0655925], [19.9468366, 50.0653711], [19.9467634, 50.0652679], [19.9466495, 50.0651071], [19.9468083, 50.064929], [19.9468867, 50.0648388], [19.9468964, 50.064794], [19.9469269, 50.0646498], [19.946853, 50.0646438], [19.9468329, 50.0646421], [19.9468384, 50.0646202], [19.9468453, 50.0645905], [19.9466308, 50.0645715], [19.9466048, 50.0645615], [19.9466915, 50.064197], [19.946777, 50.0638328], [19.9468272, 50.0636023], [19.946846, 50.0635908], [19.9468824, 50.0635908], [19.9473516, 50.0636352], [19.9473783, 50.0635945], [19.9473606, 50.0635507], [19.9468672, 50.0635024], [19.9468507, 50.0634869], [19.9469686, 50.0629909], [19.9469929, 50.0628887], [19.9473624, 50.0613345], [19.9473702, 50.0613192], [19.9474032, 50.0613177], [19.9474469, 50.0613263], [19.9474567, 50.0613156], [19.9474793, 50.061291], [19.9475015, 50.0612659], [19.9475155, 50.0612495], [19.9475689, 50.0612732], [19.9476324, 50.0612002], [19.947687, 50.0611195], [19.9477319, 50.0610689], [19.9477637, 50.0610205], [19.9477637, 50.0609824], [19.947734, 50.0608861], [19.947743, 50.0608373], [19.9477402, 50.060772], [19.9477485, 50.0606567], [19.9477564, 50.0606465], [19.9478342, 50.0605462], [19.9478363, 50.0604894], [19.9478387, 50.0604851], [19.947855, 50.0604565], [19.9478584, 50.0603886], [19.9478729, 50.060342], [19.9478529, 50.0602613], [19.947856, 50.0602476], [19.9478728, 50.0601707], [19.9478785, 50.0601468], [19.9478577, 50.0600536], [19.9478902, 50.0599609], [19.947886, 50.0599461], [19.9478825, 50.0599342], [19.9478626, 50.059865], [19.9478785, 50.0598193], [19.947863, 50.0597926], [19.9478426, 50.0597596], [19.9477864, 50.0596678], [19.9478024, 50.0595957], [19.9477948, 50.0595455], [19.9478142, 50.0594998], [19.9478017, 50.0594266], [19.9478024, 50.0593898], [19.9477851, 50.0593583], [19.9477305, 50.0592584], [19.9478059, 50.0591896], [19.9478183, 50.0591692], [19.9480362, 50.059093], [19.9480644, 50.0590831], [19.9480761, 50.0590618], [19.9480761, 50.0590006], [19.94809, 50.0589562], [19.9480948, 50.0588692], [19.9480964, 50.0588292], [19.948135, 50.0588392], [19.9481811, 50.0588541], [19.9482458, 50.0588775], [19.9484988, 50.0589563], [19.9486782, 50.0589697], [19.9490116, 50.0589456], [19.949501, 50.0589137], [19.94954, 50.0589112], [19.9500087, 50.0588807], [19.9503951, 50.0588526], [19.9504558, 50.0588552], [19.9504848, 50.058932], [19.950565, 50.0589269], [19.9506311, 50.0589209], [19.9506461, 50.0588904], [19.9506627, 50.0588754], [19.9507507, 50.0588682], [19.9513163, 50.0588272], [19.9516317, 50.0588043], [19.9535107, 50.058668], [19.9541875, 50.0586062], [19.9542925, 50.0585525], [19.9545777, 50.0584529], [19.9546908, 50.0584161], [19.954783, 50.0583902], [19.9549851, 50.0583322], [19.9562318, 50.0578695], [19.9566489, 50.057706], [19.9567158, 50.057685], [19.9567857, 50.0576668], [19.9568602, 50.0576526], [19.9569355, 50.0576422], [19.9570071, 50.057635], [19.9571017, 50.0576334], [19.9571884, 50.0576365], [19.9573056, 50.0576454], [19.9574379, 50.0576695], [19.957524, 50.0576917], [19.9575805, 50.0577138], [19.9576381, 50.0577412], [19.9576879, 50.0577591], [19.9577718, 50.0577817], [19.9579237, 50.0578192], [19.9580478, 50.0578492], [19.9580835, 50.0577694], [19.9581056, 50.0577163], [19.9581211, 50.057685], [19.958124, 50.0576559], [19.9581217, 50.0576061], [19.9581207, 50.0575854], [19.9581207, 50.0575704], [19.9581207, 50.0575528], [19.9581206, 50.0575347], [19.9581206, 50.057523], [19.958127, 50.0574734], [19.9581325, 50.0574227], [19.9581387, 50.0573718], [19.9581525, 50.0573036], [19.9582168, 50.0572959], [19.9582704, 50.0572873], [19.9583137, 50.0572795], [19.9583433, 50.0572725], [19.9583699, 50.0572626], [19.9583939, 50.0572497], [19.9584222, 50.0572284], [19.9584664, 50.0571845], [19.9584858, 50.057166], [19.9584976, 50.0571441], [19.9584906, 50.0570507], [19.958494, 50.0570102], [19.9585004, 50.056992], [19.9585106, 50.0569733], [19.9585223, 50.0569579], [19.9585597, 50.0569139], [19.9586043, 50.0568659], [19.9586449, 50.0568183], [19.9586585, 50.0567978], [19.9586658, 50.056774], [19.9586707, 50.0567468], [19.9587281, 50.0562198], [19.9587437, 50.056112], [19.9587602, 50.0560317], [19.9587949, 50.0559182], [19.9588876, 50.0556909], [19.958965, 50.0555075], [19.9590669, 50.0552955], [19.9591852, 50.0550088], [19.9591971, 50.0549644], [19.9592174, 50.0549333], [19.9592961, 50.0546747], [19.9595329, 50.0541778], [19.9595949, 50.0541678], [19.9596446, 50.0541628], [19.9596482, 50.054056], [19.959668, 50.0537546], [19.9596497, 50.0536474], [19.9598457, 50.0534377], [19.9598781, 50.0534146], [19.9599171, 50.0533764], [19.9599406, 50.0533498], [19.9599683, 50.05332], [19.9599825, 50.0533043], [19.9600093, 50.0532759], [19.9600345, 50.0532492], [19.9600424, 50.0532403], [19.9595351, 50.0531479], [19.9592053, 50.0530816], [19.9586455, 50.0529294], [19.9586076, 50.0529167], [19.9580478, 50.052742], [19.9564093, 50.0522197], [19.9562232, 50.0521585], [19.9561401, 50.0521028], [19.9557463, 50.0519524], [19.9555084, 50.0518479], [19.9553393, 50.051757], [19.9552603, 50.0517037], [19.9551774, 50.0516462], [19.9550128, 50.0515134], [19.9547477, 50.051262], [19.9547469, 50.0512186], [19.9546937, 50.0511735], [19.954508, 50.0510288], [19.9544507, 50.0509858], [19.9543855, 50.0509432], [19.9536627, 50.0504794], [19.9536058, 50.0504432], [19.953542, 50.050407], [19.953398, 50.0503162], [19.9531484, 50.0501888], [19.952852, 50.0500385], [19.9526978, 50.0499583], [19.952597, 50.0498997], [19.9525797, 50.0498871], [19.9525245, 50.0498611], [19.9525024, 50.0498502], [19.952486, 50.049842], [19.9524695, 50.0498338], [19.9524481, 50.0498232], [19.9523974, 50.0497965], [19.9523714, 50.0497829], [19.9522875, 50.0497398], [19.9522567, 50.0497641], [19.9522094, 50.0497994], [19.9521842, 50.0498206], [19.9521593, 50.0498428], [19.952177, 50.0498582], [19.9521856, 50.0498787], [19.9521802, 50.049907], [19.9516211, 50.050432], [19.9516103, 50.0504659], [19.9516107, 50.050497], [19.9515969, 50.0505258], [19.9514547, 50.050659], [19.9513638, 50.0507474], [19.9513384, 50.0507569], [19.9513214, 50.0507559], [19.9512686, 50.0507457], [19.9509779, 50.0506824], [19.9507095, 50.0506248], [19.9502181, 50.0505216], [19.9498391, 50.0504364], [19.9498281, 50.0504595], [19.9498215, 50.0504749], [19.9498163, 50.0504843], [19.9497929, 50.050532], [19.9497656, 50.0505269], [19.9497337, 50.0505256], [19.9497052, 50.0505318], [19.9496803, 50.0505402], [19.9496671, 50.0505609], [19.9496326, 50.0506703], [19.9495573, 50.0509279], [19.9495363, 50.0509995], [19.9494818, 50.051211], [19.9494096, 50.0512022], [19.9493192, 50.0511895], [19.9492777, 50.051344], [19.9492492, 50.0514416], [19.9491759, 50.0516826], [19.949168, 50.0517118], [19.9491251, 50.0518706], [19.9490742, 50.0518702], [19.9489267, 50.0518585], [19.9486008, 50.0518273], [19.9485973, 50.051827], [19.9483973, 50.051796], [19.9481783, 50.0517621], [19.9482646, 50.0514451], [19.9482823, 50.05138], [19.9481396, 50.0513592], [19.9478145, 50.0513119], [19.947467, 50.0512614], [19.9475609, 50.0510438], [19.9474833, 50.0510308], [19.9474784, 50.0510419], [19.9474223, 50.0510325], [19.9472215, 50.0509954], [19.947199, 50.0509708], [19.9471152, 50.0511569], [19.9471063, 50.0511661], [19.9470859, 50.0511672], [19.9470455, 50.0511572], [19.9468383, 50.0511056], [19.9466589, 50.0510653], [19.9465925, 50.0510504], [19.9464488, 50.0510167], [19.9462233, 50.0509638], [19.9457986, 50.0508623], [19.94576, 50.0508531], [19.9452784, 50.0507388], [19.945155, 50.0507085], [19.9449571, 50.0506598], [19.9446861, 50.0506026], [19.9446561, 50.0505961], [19.9441222, 50.0504809], [19.9440762, 50.0504728], [19.9440681, 50.050468], [19.9440746, 50.0504381], [19.944056, 50.0504343], [19.9440193, 50.0504267], [19.943992, 50.0505005], [19.9439726, 50.0505585], [19.9438331, 50.0508599], [19.9436642, 50.0512055], [19.9437269, 50.0512356], [19.9439085, 50.0512931], [19.9445142, 50.0514847], [19.944573, 50.0515033], [19.9446455, 50.0515241], [19.9447831, 50.0515636], [19.9447266, 50.0516022], [19.9447033, 50.0516352]]}, "properties": {"profile": "Osoba niewidoma / słabowidząca", "mode": "strict", "length_m": 4371, "time_min": 74.9, "pct_niepewne": 0.0, "steps": [{"text": "Idź dalej, 85 m", "length_m": 85, "status": 0, "notes": []}, {"text": "Schody, 20 m - schody", "length_m": 20, "status": 0, "notes": ["schody"]}, {"text": "Idź Tunel Magda, 47 m", "length_m": 47, "status": 0, "notes": []}, {"text": "Schody, 14 m - schody", "length_m": 14, "status": 0, "notes": ["schody"]}, {"text": "Idź dalej, 288 m - nawierzchnia nierówna: unhewn_cobblestone", "length_m": 288, "status": 0, "notes": ["nawierzchnia nierówna: unhewn_cobblestone"]}, {"text": "Schody, 30 m - schody; brak prowadzenia dotykowego (OSM)", "length_m": 30, "status": 0, "notes": ["schody", "brak prowadzenia dotykowego (OSM)"]}, {"text": "Przejście dla pieszych, 3 m - brak prowadzenia dotykowego (OSM)", "length_m": 3, "status": 0, "notes": ["brak prowadzenia dotykowego (OSM)"]}, {"text": "Idź dalej, 950 m - nawierzchnia: compacted; nawierzchnia nierówna: sett", "length_m": 950, "status": 0, "notes": ["nawierzchnia: compacted", "nawierzchnia nierówna: sett"]}, {"text": "Przejście dla pieszych, 11 m - prowadzenie dotykowe (OSM)", "length_m": 11, "status": 0, "notes": ["prowadzenie dotykowe (OSM)"]}, {"text": "Idź dalej, 2062 m", "length_m": 2062, "status": 0, "notes": []}, {"text": "Przejście dla pieszych, 11 m - nawierzchnia nierówna: sett; brak prowadzenia dotykowego (OSM)", "length_m": 11, "status": 0, "notes": ["nawierzchnia nierówna: sett", "brak prowadzenia dotykowego (OSM)"]}, {"text": "Idź dalej, 84 m", "length_m": 84, "status": 0, "notes": []}, {"text": "Idź dalej, 12 m", "length_m": 12, "status": 0, "notes": []}, {"text": "Idź dalej, 146 m", "length_m": 146, "status": 0, "notes": []}, {"text": "Idź Szeroka, 43 m - nawierzchnia nierówna: sett", "length_m": 43, "status": 0, "notes": ["nawierzchnia nierówna: sett"]}, {"text": "Idź Józefa, 60 m - nawierzchnia nierówna: sett", "length_m": 60, "status": 0, "notes": ["nawierzchnia nierówna: sett"]}, {"text": "Idź dalej, 25 m", "length_m": 25, "status": 0, "notes": []}, {"text": "Idź dalej, 6 m", "length_m": 6, "status": 0, "notes": []}, {"text": "Idź Wąska, 1 m", "length_m": 1, "status": 0, "notes": []}, {"text": "Idź dalej, 22 m", "length_m": 22, "status": 0, "notes": []}, {"text": "Idź dalej, 257 m", "length_m": 257, "status": 0, "notes": []}, {"text": "Przejście dla pieszych, 4 m - brak prowadzenia dotykowego (OSM)", "length_m": 4, "status": 0, "notes": ["brak prowadzenia dotykowego (OSM)"]}, {"text": "Idź Bożego Ciała, 90 m", "length_m": 90, "status": 0, "notes": []}, {"text": "Idź Beera Meiselsa, 73 m", "length_m": 73, "status": 0, "notes": []}, {"text": "Schody, 16 m - schody bez potwierdzonej poręczy", "length_m": 16, "status": 0, "notes": ["schody bez potwierdzonej poręczy"]}, {"text": "Idź dalej, 10 m", "length_m": 10, "status": 0, "notes": []}]}}, {"type": "Feature", "geometry": {"type": "LineString", "coordinates": [[19.9476429, 50.0680801], [19.9476597, 50.067651], [19.9476651, 50.067514], [19.9476711, 50.0673619], [19.9475974, 50.0673607], [19.9475985, 50.0673311], [19.9476015, 50.0672618], [19.947605, 50.0671784], [19.9471986, 50.0671716], [19.9469442, 50.0671673], [19.9469451, 50.0671329], [19.9469495, 50.0670567], [19.9469503, 50.0670432], [19.9469617, 50.0669043], [19.9471841, 50.0666523], [19.9472434, 50.0665501], [19.9472749, 50.0664797], [19.9473067, 50.0663595], [19.9473343, 50.066176], [19.9471641, 50.0661737], [19.9470638, 50.0661724], [19.9469774, 50.0661717], [19.9469777, 50.0661469], [19.9469845, 50.0660146], [19.9460884, 50.0660035], [19.9457764, 50.0654354], [19.9454177, 50.0652984], [19.945577, 50.0652661], [19.9455685, 50.0652299], [19.9455756, 50.065143], [19.9455911, 50.064953], [19.9455443, 50.0649483], [19.9454959, 50.0649435], [19.945448, 50.064922], [19.9454144, 50.0649017], [19.9453914, 50.0648781], [19.9453668, 50.0648512], [19.9453481, 50.0648297], [19.945304, 50.0647439], [19.9452742, 50.0647191], [19.9449667, 50.0646294], [19.9451369, 50.064474], [19.9451946, 50.0644548], [19.945185, 50.0644539], [19.9450952, 50.0644458], [19.9450658, 50.0643777], [19.9450664, 50.0643111], [19.9450762, 50.0642396], [19.945077, 50.0642304], [19.9450912, 50.064077], [19.9451283, 50.0638519], [19.9451392, 50.0637859], [19.9451925, 50.0634633], [19.9452077, 50.0634481], [19.9452147, 50.0633984], [19.9452314, 50.0633569], [19.9452032, 50.0633346], [19.9451137, 50.0628366], [19.9451375, 50.0628197], [19.9451336, 50.0628044], [19.9451253, 50.0627714], [19.945117, 50.0627423], [19.9451129, 50.0627278], [19.9450888, 50.0627013], [19.9450297, 50.062506], [19.9442997, 50.061248], [19.9443133, 50.0612093], [19.9443175, 50.0611902], [19.9442933, 50.0611412], [19.9442727, 50.0610995], [19.9442349, 50.0610729], [19.9442261, 50.0610695], [19.9442185, 50.0610646], [19.9442086, 50.0610545], [19.9440867, 50.0609134], [19.9439239, 50.0607289], [19.943906, 50.0607172], [19.9438475, 50.0606821], [19.9438146, 50.0606603], [19.9437978, 50.0606515], [19.9434445, 50.0604081], [19.9431928, 50.0602348], [19.9430939, 50.0601667], [19.9424121, 50.0596725], [19.9423949, 50.059648], [19.9423906, 50.0596274], [19.942394, 50.0596029], [19.9424048, 50.0595861], [19.9424322, 50.0595632], [19.9425324, 50.059505], [19.9425046, 50.0594842], [19.9424686, 50.0594573], [19.9424454, 50.0594416], [19.9424356, 50.0594349], [19.9424087, 50.0594232], [19.9424624, 50.0593844], [19.9425187, 50.0593436], [19.9425447, 50.0592927], [19.9427122, 50.0591132], [19.942773, 50.059048], [19.9427876, 50.0590334], [19.9427899, 50.0590211], [19.9433466, 50.0585046], [19.9435531, 50.058312], [19.943531, 50.0583028], [19.9435, 50.0582868], [19.9434685, 50.058268], [19.9434379, 50.0582489], [19.9433831, 50.0582173], [19.9436227, 50.0579933], [19.9439613, 50.057676], [19.9440386, 50.0576026], [19.944186, 50.0574657], [19.9444013, 50.0572699], [19.9446216, 50.0570687], [19.9448676, 50.0568364], [19.9450006, 50.0567112], [19.9451047, 50.0566125], [19.9451183, 50.056599], [19.9451093, 50.0565556], [19.9450742, 50.0565119], [19.9450955, 50.0564958], [19.9451288, 50.0564707], [19.9451648, 50.0564439], [19.945217, 50.0564006], [19.9452836, 50.0563472], [19.9452955, 50.0563362], [19.9452994, 50.0563328], [19.9453136, 50.0563218], [19.9453346, 50.0563022], [19.9453472, 50.0562914], [19.9453649, 50.0562264], [19.9453673, 50.0562109], [19.9453707, 50.0561881], [19.9453733, 50.0561672], [19.9453753, 50.056151], [19.9453781, 50.0561373], [19.9453541, 50.0561326], [19.9453373, 50.0561261], [19.9453188, 50.0561094], [19.9450287, 50.0557498], [19.9448475, 50.0555212], [19.9446305, 50.0552498], [19.9446248, 50.0551808], [19.9446212, 50.0551124], [19.9446776, 50.0550727], [19.9447307, 50.0550343], [19.9447823, 50.0549977], [19.9449202, 50.0548826], [19.945103, 50.05473], [19.9452507, 50.0546067], [19.9454148, 50.0544698], [19.9456143, 50.0543032], [19.9457241, 50.0542131], [19.945748, 50.0541925], [19.9457828, 50.0541625], [19.9458207, 50.0541294], [19.9458288, 50.054118], [19.9460035, 50.0538092], [19.9461318, 50.0535772], [19.9462248, 50.0534091], [19.9463217, 50.0532339], [19.9463399, 50.0532061], [19.9463619, 50.0531705], [19.9463814, 50.0531362], [19.9464002, 50.0531052], [19.9463144, 50.0530832], [19.9462892, 50.0530548], [19.9462733, 50.0530515], [19.9462485, 50.0530458], [19.9461968, 50.0530341], [19.9463388, 50.0527621], [19.9463287, 50.0527534], [19.9460495, 50.0526268], [19.9455822, 50.052415], [19.9451664, 50.0522265], [19.9451933, 50.052185], [19.9451273, 50.0521564], [19.9450591, 50.0521166], [19.9450792, 50.0520716], [19.944997, 50.0518462], [19.9449735, 50.0518512], [19.9448908, 50.0518505], [19.9448128, 50.0518326], [19.9447483, 50.0517995], [19.9447041, 50.0517548], [19.9446848, 50.0517032], [19.9446926, 50.0516505], [19.9447033, 50.0516352]]}, "properties": {"profile": "Senior", "mode": "strict", "length_m": 2312, "time_min": 43.4, "pct_niepewne": 0.0, "steps": [{"text": "Idź dalej, 85 m", "length_m": 85, "status": 0, "notes": []}, {"text": "Schody, 20 m - schody", "length_m": 20, "status": 0, "notes": ["schody"]}, {"text": "Idź Tunel Magda, 47 m", "length_m": 47, "status": 0, "notes": []}, {"text": "Schody, 14 m - schody", "length_m": 14, "status": 0, "notes": ["schody"]}, {"text": "Idź dalej, 145 m", "length_m": 145, "status": 0, "notes": []}, {"text": "Idź dalej, 64 m", "length_m": 64, "status": 0, "notes": []}, {"text": "Idź dalej, 147 m", "length_m": 147, "status": 0, "notes": []}, {"text": "Schody, 30 m - schody", "length_m": 30, "status": 0, "notes": ["schody"]}, {"text": "Idź dalej, 173 m", "length_m": 173, "status": 0, "notes": []}, {"text": "Przejście dla pieszych, 10 m", "length_m": 10, "status": 0, "notes": []}, {"text": "Idź dalej, 61 m", "length_m": 61, "status": 0, "notes": []}, {"text": "Przejście dla pieszych, 10 m", "length_m": 10, "status": 0, "notes": []}, {"text": "Idź dalej, 179 m", "length_m": 179, "status": 0, "notes": []}, {"text": "Przejście dla pieszych, 17 m", "length_m": 17, "status": 0, "notes": []}, {"text": "Idź dalej, 44 m", "length_m": 44, "status": 0, "notes": []}, {"text": "Przejście dla pieszych, 12 m", "length_m": 12, "status": 0, "notes": []}, {"text": "Idź dalej, 170 m", "length_m": 170, "status": 0, "notes": []}, {"text": "Przejście dla pieszych, 13 m", "length_m": 13, "status": 0, "notes": []}, {"text": "Idź dalej, 149 m", "length_m": 149, "status": 0, "notes": []}, {"text": "Idź dalej, 16 m", "length_m": 16, "status": 0, "notes": []}, {"text": "Idź dalej, 229 m", "length_m": 229, "status": 0, "notes": []}, {"text": "Przejście dla pieszych, 49 m", "length_m": 49, "status": 0, "notes": []}, {"text": "Idź dalej, 121 m", "length_m": 121, "status": 0, "notes": []}, {"text": "Przejście dla pieszych, 19 m", "length_m": 19, "status": 0, "notes": []}, {"text": "Idź dalej, 116 m", "length_m": 116, "status": 0, "notes": []}, {"text": "Przejście dla pieszych, 13 m", "length_m": 13, "status": 0, "notes": []}, {"text": "Idź dalej, 104 m", "length_m": 104, "status": 0, "notes": []}, {"text": "Przejście dla pieszych, 15 m", "length_m": 15, "status": 0, "notes": []}, {"text": "Idź dalej, 10 m", "length_m": 10, "status": 0, "notes": []}, {"text": "Przejście dla pieszych, 7 m", "length_m": 7, "status": 0, "notes": []}, {"text": "Idź dalej, 135 m", "length_m": 135, "status": 0, "notes": []}, {"text": "Przejście dla pieszych, 5 m", "length_m": 5, "status": 0, "notes": []}, {"text": "Idź Plac Nowy, 12 m", "length_m": 12, "status": 0, "notes": []}, {"text": "Przejście dla pieszych, 5 m", "length_m": 5, "status": 0, "notes": []}, {"text": "Idź dalej, 65 m", "length_m": 65, "status": 0, "notes": []}]}}]}