{"type": "FeatureCollection", "features": [{"type": "Feature", "geometry": {"type": "Polygon", "coordinates": [[[19.9354533, 50.0711913], [19.9358004, 50.0719461], [19.9367081, 50.0724117], [19.9375558, 50.0723857], [19.9393552, 50.0723166], [19.9405, 50.0724305], [19.9422305, 50.072675], [19.9426762, 50.0727827], [19.9435027, 50.0729051], [19.9448616, 50.0726559], [19.9459936, 50.0724714], [19.9475756, 50.0727641], [19.9480034, 50.072982], [19.9495914, 50.0729692], [19.9496799, 50.0729405], [19.9504394, 50.0727175], [19.951136, 50.0719674], [19.9518226, 50.0715597], [19.9535914, 50.0713697], [19.9549424, 50.0714119], [19.9555648, 50.0722517], [19.9556043, 50.0723049], [19.9564094, 50.0721017], [19.9558992, 50.0711184], [19.9565751, 50.0697336], [19.9580477, 50.0695858], [19.9588293, 50.0708876], [19.9588455, 50.0708883], [19.9603781, 50.0698035], [19.9607794, 50.0695553], [19.9612968, 50.0690397], [19.9617374, 50.0676589], [19.9617327, 50.067606], [19.9614664, 50.0663629], [19.9612465, 50.065604], [19.9607935, 50.0645202], [19.9603221, 50.0641752], [19.9584926, 50.0636315], [19.9570095, 50.0633832], [19.9551031, 50.0626548], [19.9537874, 50.0613666], [19.9532278, 50.0608356], [19.9529234, 50.0606272], [19.9517734, 50.0615556], [19.9503274, 50.0609039], [19.9495818, 50.0601234], [19.9484988, 50.0589563], [19.9483703, 50.0587936], [19.9477061, 50.0587281], [19.9474005, 50.0590322], [19.9456891, 50.0597672], [19.9454539, 50.0597982], [19.9436241, 50.0603026], [19.9424121, 50.0596725], [19.9419502, 50.0597176], [19.9415947, 50.05993], [19.9409763, 50.0604265], [19.9397419, 50.0608517], [19.9388825, 50.0620135], [19.9375232, 50.0635302], [19.9375014, 50.0635821], [19.9366897, 50.0647613], [19.9354239, 50.06554], [19.9352225, 50.0658789], [19.9350623, 50.0662258], [19.9361084, 50.0667339], [19.936735, 50.0679413], [19.9365675, 50.0691062], [19.9368354, 50.0698888], [19.9355011, 50.0711279], [19.9354633, 50.0711774], [19.9354533, 50.0711913]]]}, "properties": {"profile": "Pieszy (bez ograniczeń)", "minutes": 15, "speed_kmh": 4.8, "n_nodes": 3239, "area_km2": 2.074}}, {"type": "Feature", "geometry": {"type": "Polygon", "coordinates": [[[19.9385346, 50.0703183], [19.9392278, 50.0713319], [19.9392503, 50.0713412], [19.9398117, 50.0712893], [19.9397871, 50.0712234], [19.9397784, 50.0712], [19.9386596, 50.070288], [19.9395058, 50.068619], [19.9410171, 50.0692481], [19.9410756, 50.0693574], [19.9413659, 50.0698748], [19.9414147, 50.070705], [19.9415267, 50.0708366], [19.9415991, 50.0708967], [19.9416452, 50.0708865], [19.9430947, 50.0705629], [19.943569, 50.0703378], [19.9436598, 50.0702883], [19.9435829, 50.0695309], [19.9435588, 50.0694265], [19.943113, 50.0682293], [19.9427541, 50.0676395], [19.9427142, 50.0676088], [19.9424696, 50.0673907], [19.9419289, 50.0665525], [19.9420957, 50.0655264], [19.9430409, 50.0652704], [19.9436941, 50.0649235], [19.9440121, 50.0648163], [19.9442082, 50.0647524], [19.9447129, 50.0645865], [19.9448345, 50.0639502], [19.9448712, 50.0633511], [19.9448059, 50.0628638], [19.9443942, 50.0619563], [19.9438535, 50.0616213], [19.9434275, 50.0617412], [19.9432255, 50.0618287], [19.9423511, 50.0620539], [19.940785, 50.0615414], [19.9398911, 50.0614884], [19.9384312, 50.0612556], [19.9383127, 50.0612934], [19.9374606, 50.0621712], [19.9368265, 50.0628325], [19.9374145, 50.0635731], [19.9367487, 50.0647256], [19.9352802, 50.0643566], [19.9348795, 50.0644198], [19.9348614, 50.0646975], [19.9354239, 50.06554], [19.9363864, 50.0658257], [19.9372083, 50.0659838], [19.9376427, 50.066157], [19.9389165, 50.0670876], [19.9387793, 50.0675307], [19.9383645, 50.0689208], [19.9380233, 50.0692249], [19.938014, 50.0692603], [19.9385346, 50.0703183]]]}, "properties": {"profile": "Wózek inwalidzki", "minutes": 15, "speed_kmh": 3.6, "n_nodes": 429, "area_km2": 0.4}}, {"type": "Feature", "geometry": {"type": "Polygon", "coordinates": [[[19.9447683, 50.0720878], [19.9449556, 50.0726148], [19.9459936, 50.0724714], [19.9480034, 50.072982], [19.9495914, 50.0729692], [19.9504394, 50.0727175], [19.9519713, 50.0714938], [19.9535914, 50.0713697], [19.9549424, 50.0714119], [19.9550508, 50.0713796], [19.9554569, 50.0712479], [19.9558338, 50.0689685], [19.9562284, 50.0683069], [19.9554698, 50.0675574], [19.9542129, 50.0667115], [19.9521991, 50.0670402], [19.9519003, 50.0670928], [19.9506657, 50.067219], [19.9485666, 50.0669103], [19.9468867, 50.0648388], [19.9468384, 50.0646202], [19.9466819, 50.0635849], [19.9443942, 50.0619563], [19.944173, 50.0615309], [19.9434275, 50.0617412], [19.9423511, 50.0620539], [19.9419159, 50.0637116], [19.9413343, 50.0648091], [19.941319, 50.0651673], [19.9421105, 50.0654344], [19.9430409, 50.0652704], [19.9450547, 50.0660016], [19.9453934, 50.0671798], [19.9454136, 50.0672882], [19.9451091, 50.0691834], [19.9450928, 50.0693203], [19.9446643, 50.0715153], [19.9447683, 50.0720878]]]}, "properties": {"profile": "Wózek z dzieckiem", "minutes": 15, "speed_kmh": 4.0, "n_nodes": 804, "area_km2": 0.603}}, {"type": "Feature", "geometry": {"type": "Polygon", "coordinates": [[[19.9414554, 50.0710426], [19.9415006, 50.071328], [19.9416233, 50.0714403], [19.9419542, 50.07171], [19.9424602, 50.0719373], [19.9439056, 50.0725549], [19.9448616, 50.0726559], [19.9459936, 50.0724714], [19.9480034, 50.072982], [19.9495914, 50.0729692], [19.9504394, 50.0727175], [19.9519713, 50.0714938], [19.9535914, 50.0713697], [19.9549424, 50.0714119], [19.9550508, 50.0713796], [19.9554569, 50.0712479], [19.954765, 50.0703347], [19.9558338, 50.0689685], [19.9571686, 50.0680346], [19.9579209, 50.0673586], [19.958351, 50.0669915], [19.9573608, 50.0670985], [19.9570513, 50.0671487], [19.9555814, 50.0674196], [19.9542129, 50.0667115], [19.9521991, 50.0670402], [19.9505797, 50.066221], [19.9502451, 50.0651305], [19.9506701, 50.0640971], [19.9507543, 50.0639481], [19.9507909, 50.0638458], [19.9505335, 50.0636793], [19.9489718, 50.0638966], [19.9473706, 50.0635378], [19.9469929, 50.0628887], [19.9457693, 50.0634493], [19.9448059, 50.0628638], [19.9439911, 50.0624348], [19.9429719, 50.062774], [19.9419015, 50.0636051], [19.9411021, 50.0645142], [19.9413986, 50.0657664], [19.9418818, 50.0656005], [19.9420957, 50.0655264], [19.9430409, 50.0652704], [19.9432061, 50.0651438], [19.9450547, 50.0660016], [19.9453934, 50.0671798], [19.9454136, 50.0672882], [19.9451091, 50.0691834], [19.9435102, 50.0705242], [19.9425509, 50.0706852], [19.9414807, 50.0709231], [19.9414554, 50.0710426]]]}, "properties": {"profile": "Osoba niewidoma / słabowidząca", "minutes": 15, "speed_kmh": 3.5, "n_nodes": 1212, "area_km2": 0.731}}, {"type": "Feature", "geometry": {"type": "Polygon", "coordinates": [[[19.9414807, 50.0709231], [19.9414554, 50.0710426], [19.9424602, 50.0719373], [19.9435027, 50.0729051], [19.9448616, 50.0726559], [19.9459936, 50.0724714], [19.9475756, 50.0727641], [19.9480034, 50.072982], [19.9495914, 50.0729692], [19.9504394, 50.0727175], [19.9516457, 50.0715563], [19.9519713, 50.0714938], [19.9533209, 50.0709622], [19.9545893, 50.071239], [19.9546636, 50.0712167], [19.9547739, 50.0711836], [19.954765, 50.0703347], [19.9558338, 50.0689685], [19.9562284, 50.0683069], [19.9572694, 50.0673239], [19.9577988, 50.0666172], [19.9566452, 50.0662491], [19.955075, 50.0654883], [19.9548163, 50.0652948], [19.9547794, 50.0652908], [19.9537233, 50.0650322], [19.9526896, 50.0643506], [19.9520769, 50.0642603], [19.9506993, 50.0633171], [19.9489718, 50.0638966], [19.9473706, 50.0635378], [19.947019, 50.0622207], [19.9457233, 50.0627789], [19.9451129, 50.0627278], [19.9445257, 50.0628303], [19.9440746, 50.0629201], [19.9439344, 50.0629701], [19.9435299, 50.0631776], [19.9423155, 50.0644112], [19.9421712, 50.0646063], [19.9418458, 50.0658122], [19.9424696, 50.0673907], [19.9427142, 50.0676088], [19.9432448, 50.0688188], [19.942662, 50.0705748], [19.9418362, 50.0707561], [19.9415562, 50.0707115], [19.9414807, 50.0709231]]]}, "properties": {"profile": "Senior", "minutes": 15, "speed_kmh": 3.2, "n_nodes": 1410, "area_km2": 0.906}}, {"type": "Feature", "geometry": {"type": "Polygon", "coordinates": [[[19.9419869, 50.0725139], [19.9420357, 50.0725935], [19.9422305, 50.072675], [19.9426762, 50.0727827], [19.9435027, 50.0729051], [19.9448616, 50.0726559], [19.9459936, 50.0724714], [19.9480034, 50.072982], [19.9495914, 50.0729692], [19.9504394, 50.0727175], [19.9519713, 50.0714938], [19.9535914, 50.0713697], [19.9549424, 50.0714119], [19.9550508, 50.0713796], [19.9558992, 50.0711184], [19.9565751, 50.0697336], [19.95785, 50.0679064], [19.958351, 50.0669915], [19.9581256, 50.0657776], [19.9560356, 50.0650897], [19.9538483, 50.0645229], [19.9526896, 50.0643506], [19.9511372, 50.0628231], [19.950532, 50.0626309], [19.9489718, 50.0638966], [19.9475666, 50.0613902], [19.9475728, 50.0613762], [19.9475689, 50.0612732], [19.9475155, 50.0612495], [19.947245, 50.061151], [19.9471758, 50.0612318], [19.9443942, 50.0619563], [19.9442302, 50.0619862], [19.943928, 50.0620416], [19.9415568, 50.0632165], [19.9415142, 50.0632687], [19.9409583, 50.0643197], [19.9413042, 50.0657051], [19.9413791, 50.0680031], [19.9413659, 50.0698748], [19.9414147, 50.070705], [19.9414554, 50.0710426], [19.9415006, 50.071328], [19.9419869, 50.0725139]]]}, "properties": {"profile": "Kobieta w ciąży", "minutes": 15, "speed_kmh": 3.6, "n_nodes": 1647, "area_km2": 1.144}}]}