{
"type": "FeatureCollection",
"name": "transit_stops",
"crs": { "type": "name", "properties": { "name": "urn:ogc:def:crs:OGC:1.3:CRS84" } },
"features": [
{ "type": "Feature", "properties": { "id": "tramwaj:stop_5_10", "gtfs_id": "stop_5_10", "feed": "tramwaj", "name": "Nullo", "lon": 19.966793, "lat": 50.060001, "wheelchair_boarding": "unknown", "mode": "tramwaj", "lines": "1,14,22,62" }, "geometry": { "type": "Point", "coordinates": [ 19.966793, 50.060001 ] } },
{ "type": "Feature", "properties": { "id": "tramwaj:stop_5_11", "gtfs_id": "stop_5_11", "feed": "tramwaj", "name": "Nullo", "lon": 19.967382, "lat": 50.060173, "wheelchair_boarding": "unknown", "mode": "tramwaj", "lines": "1,14,22,62" }, "geometry": { "type": "Point", "coordinates": [ 19.967382, 50.060173 ] } },
{ "type": "Feature", "properties": { "id": "tramwaj:stop_14_31", "gtfs_id": "stop_14_31", "feed": "tramwaj", "name": "Rondo Młyńskie", "lon": 19.972606, "lat": 50.081519, "wheelchair_boarding": "unknown", "mode": "tramwaj", "lines": "12,16,9" }, "geometry": { "type": "Point", "coordinates": [ 19.972606, 50.081519 ] } },
{ "type": "Feature", "properties": { "id": "tramwaj:stop_14_32", "gtfs_id": "stop_14_32", "feed": "tramwaj", "name": "Rondo Młyńskie", "lon": 19.972678, "lat": 50.081551, "wheelchair_boarding": "unknown", "mode": "tramwaj", "lines": "12,16,9" }, "geometry": { "type": "Point", "coordinates": [ 19.972678, 50.081551 ] } },
{ "type": "Feature", "properties": { "id": "tramwaj:stop_15_35", "gtfs_id": "stop_15_35", "feed": "tramwaj", "name": "Meissnera", "lon": 19.979378, "lat": 50.075781, "wheelchair_boarding": "unknown", "mode": "tramwaj", "lines": "12,16,9" }, "geometry": { "type": "Point", "coordinates": [ 19.979378, 50.075781 ] } },
{ "type": "Feature", "properties": { "id": "tramwaj:stop_15_36", "gtfs_id": "stop_15_36", "feed": "tramwaj", "name": "Meissnera", "lon": 19.979684, "lat": 50.074915, "wheelchair_boarding": "unknown", "mode": "tramwaj", "lines": "12,16,9" }, "geometry": { "type": "Point", "coordinates": [ 19.979684, 50.074915 ] } },
{ "type": "Feature", "properties": { "id": "tramwaj:stop_17_39", "gtfs_id": "stop_17_39", "feed": "tramwaj", "name": "Rondo Barei", "lon": 19.976148, "lat": 50.089267, "wheelchair_boarding": "unknown", "mode": "tramwaj", "lines": "12,16,9" }, "geometry": { "type": "Point", "coordinates": [ 19.976148, 50.089267 ] } },
{ "type": "Feature", "properties": { "id": "tramwaj:stop_17_40", "gtfs_id": "stop_17_40", "feed": "tramwaj", "name": "Rondo Barei", "lon": 19.976176, "lat": 50.089208, "wheelchair_boarding": "unknown", "mode": "tramwaj", "lines": "12,16,9" }, "geometry": { "type": "Point", "coordinates": [ 19.976176, 50.089208 ] } },
{ "type": "Feature", "properties": { "id": "tramwaj:stop_18_41", "gtfs_id": "stop_18_41", "feed": "tramwaj", "name": "Marchołta", "lon": 19.98776, "lat": 50.091614, "wheelchair_boarding": "unknown", "mode": "tramwaj", "lines": "12,16,9" }, "geometry": { "type": "Point", "coordinates": [ 19.98776, 50.091614 ] } },
{ "type": "Feature", "properties": { "id": "tramwaj:stop_18_42", "gtfs_id": "stop_18_42", "feed": "tramwaj", "name": "Marchołta", "lon": 19.987852, "lat": 50.091618, "wheelchair_boarding": "unknown", "mode": "tramwaj", "lines": "12,16,9" }, "geometry": { "type": "Point", "coordinates": [ 19.987852, 50.091618 ] } },
{ "type": "Feature", "properties": { "id": "tramwaj:stop_19_43", "gtfs_id": "stop_19_43", "feed": "tramwaj", "name": "Pszona", "lon": 19.977402, "lat": 50.078132, "wheelchair_boarding": "unknown", "mode": "tramwaj", "lines": "12,16,9" }, "geometry": { "type": "Point", "coordinates": [ 19.977402, 50.078132 ] } },
{ "type": "Feature", "properties": { "id": "tramwaj:stop_19_44", "gtfs_id": "stop_19_44", "feed": "tramwaj", "name": "Pszona", "lon": 19.977335, "lat": 50.078091, "wheelchair_boarding": "unknown", "mode": "tramwaj", "lines": "12,16,9" }, "geometry": { "type": "Point", "coordinates": [ 19.977335, 50.078091 ] } },
{ "type": "Feature", "properties": { "id": "tramwaj:stop_21_48", "gtfs_id": "stop_21_48", "feed": "tramwaj", "name": "Rondo Polsad", "lon": 19.97087, "lat": 50.084708, "wheelchair_boarding": "unknown", "mode": "tramwaj", "lines": "12,16,9" }, "geometry": { "type": "Point", "coordinates": [ 19.97087, 50.084708 ] } },
{ "type": "Feature", "properties": { "id": "tramwaj:stop_21_49", "gtfs_id": "stop_21_49", "feed": "tramwaj", "name": "Rondo Polsad", "lon": 19.970954, "lat": 50.084687, "wheelchair_boarding": "unknown", "mode": "tramwaj", "lines": "12,16,9" }, "geometry": { "type": "Point", "coordinates": [ 19.970954, 50.084687 ] } },
{ "type": "Feature", "properties": { "id": "tramwaj:stop_188_7219", "gtfs_id": "stop_188_7219", "feed": "tramwaj", "name": "Pędzichów", "lon": 19.937536, "lat": 50.069678, "wheelchair_boarding": "unknown", "mode": "tramwaj", "lines": "18,20,5" }, "geometry": { "type": "Point", "coordinates": [ 19.937536, 50.069678 ] } },
{ "type": "Feature", "properties": { "id": "tramwaj:stop_188_7229", "gtfs_id": "stop_188_7229", "feed": "tramwaj", "name": "Pędzichów", "lon": 19.937499, "lat": 50.069646, "wheelchair_boarding": "unknown", "mode": "tramwaj", "lines": "18,20,5" }, "geometry": { "type": "Point", "coordinates": [ 19.937499, 50.069646 ] } },
{ "type": "Feature", "properties": { "id": "tramwaj:stop_189_7319", "gtfs_id": "stop_189_7319", "feed": "tramwaj", "name": "Politechnika", "lon": 19.945059, "lat": 50.071341, "wheelchair_boarding": "unknown", "mode": "tramwaj", "lines": "3,69" }, "geometry": { "type": "Point", "coordinates": [ 19.945059, 50.071341 ] } },
{ "type": "Feature", "properties": { "id": "tramwaj:stop_189_7329", "gtfs_id": "stop_189_7329", "feed": "tramwaj", "name": "Politechnika", "lon": 19.945062, "lat": 50.070807, "wheelchair_boarding": "unknown", "mode": "tramwaj", "lines": "3,69" }, "geometry": { "type": "Point", "coordinates": [ 19.945062, 50.070807 ] } },
{ "type": "Feature", "properties": { "id": "tramwaj:stop_189_7339", "gtfs_id": "stop_189_7339", "feed": "tramwaj", "name": "Politechnika", "lon": 19.945072, "lat": 50.071143, "wheelchair_boarding": "unknown", "mode": "tramwaj", "lines": "14,15,16,7" }, "geometry": { "type": "Point", "coordinates": [ 19.945072, 50.071143 ] } },
{ "type": "Feature", "properties": { "id": "tramwaj:stop_189_7349", "gtfs_id": "stop_189_7349", "feed": "tramwaj", "name": "Politechnika", "lon": 19.945016, "lat": 50.071056, "wheelchair_boarding": "unknown", "mode": "tramwaj", "lines": "14,15,16,7" }, "geometry": { "type": "Point", "coordinates": [ 19.945016, 50.071056 ] } },
{ "type": "Feature", "properties": { "id": "tramwaj:stop_202_12419", "gtfs_id": "stop_202_12419", "feed": "tramwaj", "name": "Cmentarz Rakowicki", "lon": 19.957387, "lat": 50.074262, "wheelchair_boarding": "unknown", "mode": "tramwaj", "lines": "76" }, "geometry": { "type": "Point", "coordinates": [ 19.957387, 50.074262 ] } },
{ "type": "Feature", "properties": { "id": "tramwaj:stop_202_12429", "gtfs_id": "stop_202_12429", "feed": "tramwaj", "name": "Cmentarz Rakowicki", "lon": 19.956041, "lat": 50.072948, "wheelchair_boarding": "unknown", "mode": "tramwaj", "lines": "76" }, "geometry": { "type": "Point", "coordinates": [ 19.956041, 50.072948 ] } },
{ "type": "Feature", "properties": { "id": "tramwaj:stop_203_12519", "gtfs_id": "stop_203_12519", "feed": "tramwaj", "name": "Rondo Mogilskie", "lon": 19.959639, "lat": 50.065782, "wheelchair_boarding": "unknown", "mode": "tramwaj", "lines": "12,5,70,74" }, "geometry": { "type": "Point", "coordinates": [ 19.959639, 50.065782 ] } },
{ "type": "Feature", "properties": { "id": "tramwaj:stop_203_12529", "gtfs_id": "stop_203_12529", "feed": "tramwaj", "name": "Rondo Mogilskie", "lon": 19.959864, "lat": 50.065759, "wheelchair_boarding": "unknown", "mode": "tramwaj", "lines": "12,15,16,49,5,70,74,9" }, "geometry": { "type": "Point", "coordinates": [ 19.959864, 50.065759 ] } },
{ "type": "Feature", "properties": { "id": "tramwaj:stop_203_12539", "gtfs_id": "stop_203_12539", "feed": "tramwaj", "name": "Rondo Mogilskie", "lon": 19.959303, "lat": 50.064865, "wheelchair_boarding": "unknown", "mode": "tramwaj", "lines": "1,14,20,22,49,62,7,9" }, "geometry": { "type": "Point", "coordinates": [ 19.959303, 50.064865 ] } },
{ "type": "Feature", "properties": { "id": "tramwaj:stop_203_12549", "gtfs_id": "stop_203_12549", "feed": "tramwaj", "name": "Rondo Mogilskie", "lon": 19.959357, "lat": 50.064973, "wheelchair_boarding": "unknown", "mode": "tramwaj", "lines": "1,20,22,62" }, "geometry": { "type": "Point", "coordinates": [ 19.959357, 50.064973 ] } },
{ "type": "Feature", "properties": { "id": "tramwaj:stop_203_12559", "gtfs_id": "stop_203_12559", "feed": "tramwaj", "name": "Rondo Mogilskie", "lon": 19.958722, "lat": 50.066002, "wheelchair_boarding": "unknown", "mode": "tramwaj", "lines": "14,15,16,7" }, "geometry": { "type": "Point", "coordinates": [ 19.958722, 50.066002 ] } },
{ "type": "Feature", "properties": { "id": "tramwaj:stop_204_12619", "gtfs_id": "stop_204_12619", "feed": "tramwaj", "name": "Lubicz", "lon": 19.952104, "lat": 50.065186, "wheelchair_boarding": "unknown", "mode": "tramwaj", "lines": "1,12,20,22,5,62,70,74" }, "geometry": { "type": "Point", "coordinates": [ 19.952104, 50.065186 ] } },
{ "type": "Feature", "properties": { "id": "tramwaj:stop_204_12629", "gtfs_id": "stop_204_12629", "feed": "tramwaj", "name": "Lubicz", "lon": 19.951094, "lat": 50.065046, "wheelchair_boarding": "unknown", "mode": "tramwaj", "lines": "1,12,20,22,5,62,70,74,76" }, "geometry": { "type": "Point", "coordinates": [ 19.951094, 50.065046 ] } },
{ "type": "Feature", "properties": { "id": "tramwaj:stop_204_12639", "gtfs_id": "stop_204_12639", "feed": "tramwaj", "name": "Lubicz", "lon": 19.951621, "lat": 50.065436, "wheelchair_boarding": "unknown", "mode": "tramwaj", "lines": "76" }, "geometry": { "type": "Point", "coordinates": [ 19.951621, 50.065436 ] } },
{ "type": "Feature", "properties": { "id": "tramwaj:stop_205_12719", "gtfs_id": "stop_205_12719", "feed": "tramwaj", "name": "Uniwersytet Ekonomiczny", "lon": 19.952235, "lat": 50.067608, "wheelchair_boarding": "unknown", "mode": "tramwaj", "lines": "76" }, "geometry": { "type": "Point", "coordinates": [ 19.952235, 50.067608 ] } },
{ "type": "Feature", "properties": { "id": "tramwaj:stop_205_12729", "gtfs_id": "stop_205_12729", "feed": "tramwaj", "name": "Uniwersytet Ekonomiczny", "lon": 19.952638, "lat": 50.068328, "wheelchair_boarding": "unknown", "mode": "tramwaj", "lines": "76" }, "geometry": { "type": "Point", "coordinates": [ 19.952638, 50.068328 ] } },
{ "type": "Feature", "properties": { "id": "tramwaj:stop_207_12919", "gtfs_id": "stop_207_12919", "feed": "tramwaj", "name": "Cystersów", "lon": 19.970519, "lat": 50.066523, "wheelchair_boarding": "unknown", "mode": "tramwaj", "lines": "12,15,16,49,5,70,74,9" }, "geometry": { "type": "Point", "coordinates": [ 19.970519, 50.066523 ] } },
{ "type": "Feature", "properties": { "id": "tramwaj:stop_207_12929", "gtfs_id": "stop_207_12929", "feed": "tramwaj", "name": "Cystersów", "lon": 19.969149, "lat": 50.06654, "wheelchair_boarding": "unknown", "mode": "tramwaj", "lines": "12,15,16,49,5,70,74,9" }, "geometry": { "type": "Point", "coordinates": [ 19.969149, 50.06654 ] } },
{ "type": "Feature", "properties": { "id": "tramwaj:stop_208_13019", "gtfs_id": "stop_208_13019", "feed": "tramwaj", "name": "Białucha", "lon": 19.977991, "lat": 50.067841, "wheelchair_boarding": "unknown", "mode": "tramwaj", "lines": "12,15,16,49,5,70,74,9" }, "geometry": { "type": "Point", "coordinates": [ 19.977991, 50.067841 ] } },
{ "type": "Feature", "properties": { "id": "tramwaj:stop_208_13029", "gtfs_id": "stop_208_13029", "feed": "tramwaj", "name": "Białucha", "lon": 19.977192, "lat": 50.067597, "wheelchair_boarding": "unknown", "mode": "tramwaj", "lines": "12,15,16,49,5,70,74,9" }, "geometry": { "type": "Point", "coordinates": [ 19.977192, 50.067597 ] } },
{ "type": "Feature", "properties": { "id": "tramwaj:stop_216_31919", "gtfs_id": "stop_216_31919", "feed": "tramwaj", "name": "Jubilat", "lon": 19.928109, "lat": 50.055498, "wheelchair_boarding": "unknown", "mode": "tramwaj", "lines": "1,13" }, "geometry": { "type": "Point", "coordinates": [ 19.928109, 50.055498 ] } },
{ "type": "Feature", "properties": { "id": "tramwaj:stop_219_32219", "gtfs_id": "stop_219_32219", "feed": "tramwaj", "name": "Filharmonia", "lon": 19.93387, "lat": 50.05903, "wheelchair_boarding": "unknown", "mode": "tramwaj", "lines": "1,13,77,8" }, "geometry": { "type": "Point", "coordinates": [ 19.93387, 50.05903 ] } },
{ "type": "Feature", "properties": { "id": "tramwaj:stop_219_32229", "gtfs_id": "stop_219_32229", "feed": "tramwaj", "name": "Filharmonia", "lon": 19.933001, "lat": 50.058666, "wheelchair_boarding": "unknown", "mode": "tramwaj", "lines": "1,13" }, "geometry": { "type": "Point", "coordinates": [ 19.933001, 50.058666 ] } },
{ "type": "Feature", "properties": { "id": "tramwaj:stop_219_32239", "gtfs_id": "stop_219_32239", "feed": "tramwaj", "name": "Filharmonia", "lon": 19.9331, "lat": 50.05917, "wheelchair_boarding": "unknown", "mode": "tramwaj", "lines": "77,8" }, "geometry": { "type": "Point", "coordinates": [ 19.9331, 50.05917 ] } },
{ "type": "Feature", "properties": { "id": "tramwaj:stop_221_32519", "gtfs_id": "stop_221_32519", "feed": "tramwaj", "name": "Wawel", "lon": 19.93963, "lat": 50.05449, "wheelchair_boarding": "unknown", "mode": "tramwaj", "lines": "13,18,70,76,8" }, "geometry": { "type": "Point", "coordinates": [ 19.93963, 50.05449 ] } },
{ "type": "Feature", "properties": { "id": "tramwaj:stop_221_32529", "gtfs_id": "stop_221_32529", "feed": "tramwaj", "name": "Wawel", "lon": 19.939404, "lat": 50.054344, "wheelchair_boarding": "unknown", "mode": "tramwaj", "lines": "13,18,70,76,8" }, "geometry": { "type": "Point", "coordinates": [ 19.939404, 50.054344 ] } },
{ "type": "Feature", "properties": { "id": "tramwaj:stop_222_35719", "gtfs_id": "stop_222_35719", "feed": "tramwaj", "name": "Poczta Główna", "lon": 19.942404, "lat": 50.059797, "wheelchair_boarding": "unknown", "mode": "tramwaj", "lines": "1,12,18,22,3,62,69,70,74,76" }, "geometry": { "type": "Point", "coordinates": [ 19.942404, 50.059797 ] } },
{ "type": "Feature", "properties": { "id": "tramwaj:stop_222_35729", "gtfs_id": "stop_222_35729", "feed": "tramwaj", "name": "Poczta Główna", "lon": 19.942571, "lat": 50.059205, "wheelchair_boarding": "unknown", "mode": "tramwaj", "lines": "12,22,3,62,69,74,77" }, "geometry": { "type": "Point", "coordinates": [ 19.942571, 50.059205 ] } },
{ "type": "Feature", "properties": { "id": "tramwaj:stop_222_35739", "gtfs_id": "stop_222_35739", "feed": "tramwaj", "name": "Poczta Główna", "lon": 19.941821, "lat": 50.059339, "wheelchair_boarding": "unknown", "mode": "tramwaj", "lines": "1,18,70,76,77" }, "geometry": { "type": "Point", "coordinates": [ 19.941821, 50.059339 ] } },
{ "type": "Feature", "properties": { "id": "tramwaj:stop_223_35819", "gtfs_id": "stop_223_35819", "feed": "tramwaj", "name": "Starowiślna", "lon": 19.94455, "lat": 50.05731, "wheelchair_boarding": "unknown", "mode": "tramwaj", "lines": "12,22,3,62,69,74,77" }, "geometry": { "type": "Point", "coordinates": [ 19.94455, 50.05731 ] } },
{ "type": "Feature", "properties": { "id": "tramwaj:stop_223_35829", "gtfs_id": "stop_223_35829", "feed": "tramwaj", "name": "Starowiślna", "lon": 19.945029, "lat": 50.05689, "wheelchair_boarding": "unknown", "mode": "tramwaj", "lines": "12,22,3,62,69,74,77" }, "geometry": { "type": "Point", "coordinates": [ 19.945029, 50.05689 ] } },
{ "type": "Feature", "properties": { "id": "tramwaj:stop_224_35919", "gtfs_id": "stop_224_35919", "feed": "tramwaj", "name": "Stradom", "lon": 19.941337, "lat": 50.05148, "wheelchair_boarding": "unknown", "mode": "tramwaj", "lines": "12,18,22,62" }, "geometry": { "type": "Point", "coordinates": [ 19.941337, 50.05148 ] } },
{ "type": "Feature", "properties": { "id": "tramwaj:stop_224_35929", "gtfs_id": "stop_224_35929", "feed": "tramwaj", "name": "Stradom", "lon": 19.941166, "lat": 50.052086, "wheelchair_boarding": "unknown", "mode": "tramwaj", "lines": "13,18,70,76,8" }, "geometry": { "type": "Point", "coordinates": [ 19.941166, 50.052086 ] } },
{ "type": "Feature", "properties": { "id": "tramwaj:stop_224_35939", "gtfs_id": "stop_224_35939", "feed": "tramwaj", "name": "Stradom", "lon": 19.942061, "lat": 50.052258, "wheelchair_boarding": "unknown", "mode": "tramwaj", "lines": "12,22,62" }, "geometry": { "type": "Point", "coordinates": [ 19.942061, 50.052258 ] } },
{ "type": "Feature", "properties": { "id": "tramwaj:stop_224_35949", "gtfs_id": "stop_224_35949", "feed": "tramwaj", "name": "Stradom", "lon": 19.942415, "lat": 50.050842, "wheelchair_boarding": "unknown", "mode": "tramwaj", "lines": "13,70,76,8" }, "geometry": { "type": "Point", "coordinates": [ 19.942415, 50.050842 ] } },
{ "type": "Feature", "properties": { "id": "tramwaj:stop_225_36019", "gtfs_id": "stop_225_36019", "feed": "tramwaj", "name": "Plac Wolnica", "lon": 19.943426, "lat": 50.048028, "wheelchair_boarding": "unknown", "mode": "tramwaj", "lines": "13,70,76,8" }, "geometry": { "type": "Point", "coordinates": [ 19.943426, 50.048028 ] } },
{ "type": "Feature", "properties": { "id": "tramwaj:stop_225_36029", "gtfs_id": "stop_225_36029", "feed": "tramwaj", "name": "Plac Wolnica", "lon": 19.943448, "lat": 50.048114, "wheelchair_boarding": "unknown", "mode": "tramwaj", "lines": "13,70,76,8" }, "geometry": { "type": "Point", "coordinates": [ 19.943448, 50.048114 ] } },
{ "type": "Feature", "properties": { "id": "tramwaj:stop_226_36119", "gtfs_id": "stop_226_36119", "feed": "tramwaj", "name": "Orzeszkowej", "lon": 19.938671, "lat": 50.050631, "wheelchair_boarding": "unknown", "mode": "tramwaj", "lines": "12,18,22,62" }, "geometry": { "type": "Point", "coordinates": [ 19.938671, 50.050631 ] } },
{ "type": "Feature", "properties": { "id": "tramwaj:stop_226_36129", "gtfs_id": "stop_226_36129", "feed": "tramwaj", "name": "Orzeszkowej", "lon": 19.938251, "lat": 50.050546, "wheelchair_boarding": "unknown", "mode": "tramwaj", "lines": "12,18,22,62" }, "geometry": { "type": "Point", "coordinates": [ 19.938251, 50.050546 ] } },
{ "type": "Feature", "properties": { "id": "tramwaj:stop_227_36219", "gtfs_id": "stop_227_36219", "feed": "tramwaj", "name": "Miodowa", "lon": 19.948108, "lat": 50.053886, "wheelchair_boarding": "unknown", "mode": "tramwaj", "lines": "3,69,74,77" }, "geometry": { "type": "Point", "coordinates": [ 19.948108, 50.053886 ] } },
{ "type": "Feature", "properties": { "id": "tramwaj:stop_227_36229", "gtfs_id": "stop_227_36229", "feed": "tramwaj", "name": "Miodowa", "lon": 19.9489, "lat": 50.05321, "wheelchair_boarding": "unknown", "mode": "tramwaj", "lines": "3,69,74,77" }, "geometry": { "type": "Point", "coordinates": [ 19.9489, 50.05321 ] } },
{ "type": "Feature", "properties": { "id": "tramwaj:stop_230_36519", "gtfs_id": "stop_230_36519", "feed": "tramwaj", "name": "Rondo Grzegórzeckie", "lon": 19.960296, "lat": 50.057888, "wheelchair_boarding": "unknown", "mode": "tramwaj", "lines": "1,14,22,62" }, "geometry": { "type": "Point", "coordinates": [ 19.960296, 50.057888 ] } },
{ "type": "Feature", "properties": { "id": "tramwaj:stop_230_36539", "gtfs_id": "stop_230_36539", "feed": "tramwaj", "name": "Rondo Grzegórzeckie", "lon": 19.959244, "lat": 50.058426, "wheelchair_boarding": "unknown", "mode": "tramwaj", "lines": "1,14,20,22,49,62,7,9" }, "geometry": { "type": "Point", "coordinates": [ 19.959244, 50.058426 ] } },
{ "type": "Feature", "properties": { "id": "tramwaj:stop_230_36549", "gtfs_id": "stop_230_36549", "feed": "tramwaj", "name": "Rondo Grzegórzeckie", "lon": 19.958941, "lat": 50.056894, "wheelchair_boarding": "unknown", "mode": "tramwaj", "lines": "20,49,7,9" }, "geometry": { "type": "Point", "coordinates": [ 19.958941, 50.056894 ] } },
{ "type": "Feature", "properties": { "id": "tramwaj:stop_232_36819", "gtfs_id": "stop_232_36819", "feed": "tramwaj", "name": "Fabryczna", "lon": 19.970172, "lat": 50.060437, "wheelchair_boarding": "unknown", "mode": "tramwaj", "lines": "1,14,22,62" }, "geometry": { "type": "Point", "coordinates": [ 19.970172, 50.060437 ] } },
{ "type": "Feature", "properties": { "id": "tramwaj:stop_232_36829", "gtfs_id": "stop_232_36829", "feed": "tramwaj", "name": "Fabryczna", "lon": 19.971272, "lat": 50.060251, "wheelchair_boarding": "unknown", "mode": "tramwaj", "lines": "1,14,22,62" }, "geometry": { "type": "Point", "coordinates": [ 19.971272, 50.060251 ] } },
{ "type": "Feature", "properties": { "id": "tramwaj:stop_233_36919", "gtfs_id": "stop_233_36919", "feed": "tramwaj", "name": "Ofiar Dąbia", "lon": 19.976363, "lat": 50.05959, "wheelchair_boarding": "unknown", "mode": "tramwaj", "lines": "1,14,22,62" }, "geometry": { "type": "Point", "coordinates": [ 19.976363, 50.05959 ] } },
{ "type": "Feature", "properties": { "id": "tramwaj:stop_233_36929", "gtfs_id": "stop_233_36929", "feed": "tramwaj", "name": "Ofiar Dąbia", "lon": 19.976271, "lat": 50.059629, "wheelchair_boarding": "unknown", "mode": "tramwaj", "lines": "1,14,22,62" }, "geometry": { "type": "Point", "coordinates": [ 19.976271, 50.059629 ] } },
{ "type": "Feature", "properties": { "id": "tramwaj:stop_234_37019", "gtfs_id": "stop_234_37019", "feed": "tramwaj", "name": "Dąbie", "lon": 19.979185, "lat": 50.060724, "wheelchair_boarding": "unknown", "mode": "tramwaj", "lines": "1,14,22,62" }, "geometry": { "type": "Point", "coordinates": [ 19.979185, 50.060724 ] } },
{ "type": "Feature", "properties": { "id": "tramwaj:stop_234_37029", "gtfs_id": "stop_234_37029", "feed": "tramwaj", "name": "Dąbie", "lon": 19.979012, "lat": 50.060709, "wheelchair_boarding": "unknown", "mode": "tramwaj", "lines": "1,14,22,62" }, "geometry": { "type": "Point", "coordinates": [ 19.979012, 50.060709 ] } },
{ "type": "Feature", "properties": { "id": "tramwaj:stop_322_117319", "gtfs_id": "stop_322_117319", "feed": "tramwaj", "name": "Dworzec Główny Tunel", "lon": 19.947649, "lat": 50.068199, "wheelchair_boarding": "unknown", "mode": "tramwaj", "lines": "14,15,16,7" }, "geometry": { "type": "Point", "coordinates": [ 19.947649, 50.068199 ] } },
{ "type": "Feature", "properties": { "id": "tramwaj:stop_322_117329", "gtfs_id": "stop_322_117329", "feed": "tramwaj", "name": "Dworzec Główny Tunel", "lon": 19.947641, "lat": 50.068258, "wheelchair_boarding": "unknown", "mode": "tramwaj", "lines": "14,15,16,7" }, "geometry": { "type": "Point", "coordinates": [ 19.947641, 50.068258 ] } },
{ "type": "Feature", "properties": { "id": "tramwaj:stop_325_136019", "gtfs_id": "stop_325_136019", "feed": "tramwaj", "name": "Plac Wszystkich Świętych", "lon": 19.93824, "lat": 50.05912, "wheelchair_boarding": "unknown", "mode": "tramwaj", "lines": "1,13,77,8" }, "geometry": { "type": "Point", "coordinates": [ 19.93824, 50.05912 ] } },
{ "type": "Feature", "properties": { "id": "tramwaj:stop_325_136029", "gtfs_id": "stop_325_136029", "feed": "tramwaj", "name": "Plac Wszystkich Świętych", "lon": 19.937497, "lat": 50.059113, "wheelchair_boarding": "unknown", "mode": "tramwaj", "lines": "1,13,77,8" }, "geometry": { "type": "Point", "coordinates": [ 19.937497, 50.059113 ] } },
{ "type": "Feature", "properties": { "id": "tramwaj:stop_335_260819", "gtfs_id": "stop_335_260819", "feed": "tramwaj", "name": "Dworzec Główny Zachód", "lon": 19.945354, "lat": 50.06783, "wheelchair_boarding": "unknown", "mode": "tramwaj", "lines": "3,69" }, "geometry": { "type": "Point", "coordinates": [ 19.945354, 50.06783 ] } },
{ "type": "Feature", "properties": { "id": "tramwaj:stop_335_260829", "gtfs_id": "stop_335_260829", "feed": "tramwaj", "name": "Dworzec Główny Zachód", "lon": 19.945408, "lat": 50.067827, "wheelchair_boarding": "unknown", "mode": "tramwaj", "lines": "3,69" }, "geometry": { "type": "Point", "coordinates": [ 19.945408, 50.067827 ] } },
{ "type": "Feature", "properties": { "id": "tramwaj:stop_386_285919", "gtfs_id": "stop_386_285919", "feed": "tramwaj", "name": "Teatr Variete", "lon": 19.962529, "lat": 50.058858, "wheelchair_boarding": "unknown", "mode": "tramwaj", "lines": "1,14,22,62" }, "geometry": { "type": "Point", "coordinates": [ 19.962529, 50.058858 ] } },
{ "type": "Feature", "properties": { "id": "tramwaj:stop_386_285929", "gtfs_id": "stop_386_285929", "feed": "tramwaj", "name": "Teatr Variete", "lon": 19.962374, "lat": 50.058827, "wheelchair_boarding": "unknown", "mode": "tramwaj", "lines": "1,14,22,62" }, "geometry": { "type": "Point", "coordinates": [ 19.962374, 50.058827 ] } },
{ "type": "Feature", "properties": { "id": "tramwaj:stop_568_303219", "gtfs_id": "stop_568_303219", "feed": "tramwaj", "name": "Stary Kleparz", "lon": 19.939721, "lat": 50.066314, "wheelchair_boarding": "unknown", "mode": "tramwaj", "lines": "18,20,5" }, "geometry": { "type": "Point", "coordinates": [ 19.939721, 50.066314 ] } },
{ "type": "Feature", "properties": { "id": "tramwaj:stop_568_303239", "gtfs_id": "stop_568_303239", "feed": "tramwaj", "name": "Stary Kleparz", "lon": 19.93895, "lat": 50.06666, "wheelchair_boarding": "unknown", "mode": "tramwaj", "lines": "18,20,5" }, "geometry": { "type": "Point", "coordinates": [ 19.93895, 50.06666 ] } },
{ "type": "Feature", "properties": { "id": "tramwaj:stop_574_45", "gtfs_id": "stop_574_45", "feed": "tramwaj", "name": "TAURON Arena Kraków Wieczysta", "lon": 19.985222, "lat": 50.072109, "wheelchair_boarding": "unknown", "mode": "tramwaj", "lines": "49" }, "geometry": { "type": "Point", "coordinates": [ 19.985222, 50.072109 ] } },
{ "type": "Feature", "properties": { "id": "tramwaj:stop_574_304019", "gtfs_id": "stop_574_304019", "feed": "tramwaj", "name": "TAURON Arena Kraków Wieczysta", "lon": 19.983839, "lat": 50.071785, "wheelchair_boarding": "unknown", "mode": "tramwaj", "lines": "15,5,70,74" }, "geometry": { "type": "Point", "coordinates": [ 19.983839, 50.071785 ] } },
{ "type": "Feature", "properties": { "id": "tramwaj:stop_574_304029", "gtfs_id": "stop_574_304029", "feed": "tramwaj", "name": "TAURON Arena Kraków Wieczysta", "lon": 19.982871, "lat": 50.071103, "wheelchair_boarding": "unknown", "mode": "tramwaj", "lines": "12,15,16,49,5,70,74,9" }, "geometry": { "type": "Point", "coordinates": [ 19.982871, 50.071103 ] } },
{ "type": "Feature", "properties": { "id": "tramwaj:stop_574_304039", "gtfs_id": "stop_574_304039", "feed": "tramwaj", "name": "TAURON Arena Kraków Wieczysta", "lon": 19.982626, "lat": 50.071841, "wheelchair_boarding": "unknown", "mode": "tramwaj", "lines": "12,16,9" }, "geometry": { "type": "Point", "coordinates": [ 19.982626, 50.071841 ] } },
{ "type": "Feature", "properties": { "id": "tramwaj:stop_782_314119", "gtfs_id": "stop_782_314119", "feed": "tramwaj", "name": "Muzeum Narodowe", "lon": 19.92554, "lat": 50.059525, "wheelchair_boarding": "unknown", "mode": "tramwaj", "lines": "77,8" }, "geometry": { "type": "Point", "coordinates": [ 19.92554, 50.059525 ] } },
{ "type": "Feature", "properties": { "id": "tramwaj:stop_852_324219", "gtfs_id": "stop_852_324219", "feed": "tramwaj", "name": "Teatr Słowackiego", "lon": 19.945628, "lat": 50.064609, "wheelchair_boarding": "unknown", "mode": "tramwaj", "lines": "1,12,20,22,5,62,70,74,76" }, "geometry": { "type": "Point", "coordinates": [ 19.945628, 50.064609 ] } },
{ "type": "Feature", "properties": { "id": "tramwaj:stop_852_324229", "gtfs_id": "stop_852_324229", "feed": "tramwaj", "name": "Teatr Słowackiego", "lon": 19.944409, "lat": 50.064792, "wheelchair_boarding": "unknown", "mode": "tramwaj", "lines": "18,20,5" }, "geometry": { "type": "Point", "coordinates": [ 19.944409, 50.064792 ] } },
{ "type": "Feature", "properties": { "id": "tramwaj:stop_852_324239", "gtfs_id": "stop_852_324239", "feed": "tramwaj", "name": "Teatr Słowackiego", "lon": 19.94499, "lat": 50.064192, "wheelchair_boarding": "unknown", "mode": "tramwaj", "lines": "1,12,18,22,3,62,69,70,74,76" }, "geometry": { "type": "Point", "coordinates": [ 19.94499, 50.064192 ] } },
{ "type": "Feature", "properties": { "id": "tramwaj:stop_852_324249", "gtfs_id": "stop_852_324249", "feed": "tramwaj", "name": "Teatr Słowackiego", "lon": 19.94518, "lat": 50.065006, "wheelchair_boarding": "unknown", "mode": "tramwaj", "lines": "3,69" }, "geometry": { "type": "Point", "coordinates": [ 19.94518, 50.065006 ] } },
{ "type": "Feature", "properties": { "id": "tramwaj:stop_1102_347019", "gtfs_id": "stop_1102_347019", "feed": "tramwaj", "name": "św. Gertrudy", "lon": 19.940988, "lat": 50.058627, "wheelchair_boarding": "unknown", "mode": "tramwaj", "lines": "13,8" }, "geometry": { "type": "Point", "coordinates": [ 19.940988, 50.058627 ] } },
{ "type": "Feature", "properties": { "id": "tramwaj:stop_1102_347029", "gtfs_id": "stop_1102_347029", "feed": "tramwaj", "name": "św. Gertrudy", "lon": 19.940838, "lat": 50.058486, "wheelchair_boarding": "unknown", "mode": "tramwaj", "lines": "13,18,70,76,8" }, "geometry": { "type": "Point", "coordinates": [ 19.940838, 50.058486 ] } },
{ "type": "Feature", "properties": { "id": "tramwaj:stop_1103_347119", "gtfs_id": "stop_1103_347119", "feed": "tramwaj", "name": "św. Wawrzyńca", "lon": 19.951064, "lat": 50.051131, "wheelchair_boarding": "unknown", "mode": "tramwaj", "lines": "3,69,74,77" }, "geometry": { "type": "Point", "coordinates": [ 19.951064, 50.051131 ] } },
{ "type": "Feature", "properties": { "id": "tramwaj:stop_1103_347129", "gtfs_id": "stop_1103_347129", "feed": "tramwaj", "name": "św. Wawrzyńca", "lon": 19.950829, "lat": 50.051415, "wheelchair_boarding": "unknown", "mode": "tramwaj", "lines": "3,69,74,77" }, "geometry": { "type": "Point", "coordinates": [ 19.950829, 50.051415 ] } },
{ "type": "Feature", "properties": { "id": "tramwaj:stop_1234_362119", "gtfs_id": "stop_1234_362119", "feed": "tramwaj", "name": "Muzeum Fotografii", "lon": 19.954281, "lat": 50.070486, "wheelchair_boarding": "unknown", "mode": "tramwaj", "lines": "76" }, "geometry": { "type": "Point", "coordinates": [ 19.954281, 50.070486 ] } },
{ "type": "Feature", "properties": { "id": "tramwaj:stop_1234_362129", "gtfs_id": "stop_1234_362129", "feed": "tramwaj", "name": "Muzeum Fotografii", "lon": 19.954592, "lat": 50.070982, "wheelchair_boarding": "unknown", "mode": "tramwaj", "lines": "76" }, "geometry": { "type": "Point", "coordinates": [ 19.954592, 50.070982 ] } },
{ "type": "Feature", "properties": { "id": "tramwaj:stop_1487_373619", "gtfs_id": "stop_1487_373619", "feed": "tramwaj", "name": "UJ / AST", "lon": 19.93052, "lat": 50.060269, "wheelchair_boarding": "unknown", "mode": "tramwaj", "lines": "77,8" }, "geometry": { "type": "Point", "coordinates": [ 19.93052, 50.060269 ] } },
{ "type": "Feature", "properties": { "id": "tramwaj:stop_1487_373629", "gtfs_id": "stop_1487_373629", "feed": "tramwaj", "name": "UJ / AST", "lon": 19.931732, "lat": 50.060366, "wheelchair_boarding": "unknown", "mode": "tramwaj", "lines": "77,8" }, "geometry": { "type": "Point", "coordinates": [ 19.931732, 50.060366 ] } },
{ "type": "Feature", "properties": { "id": "autobus:11514", "gtfs_id": "11514", "feed": "autobus", "name": "TAURON Arena Kraków Al. Pokoju", "lon": 19.98939, "lat": 50.06484, "wheelchair_boarding": "unknown", "mode": "autobus", "lines": "124,128" }, "geometry": { "type": "Point", "coordinates": [ 19.98939, 50.06484 ] } },
{ "type": "Feature", "properties": { "id": "autobus:13699", "gtfs_id": "13699", "feed": "autobus", "name": "Sudolska", "lon": 19.9646, "lat": 50.09197, "wheelchair_boarding": "unknown", "mode": "autobus", "lines": "105,199,405,610" }, "geometry": { "type": "Point", "coordinates": [ 19.9646, 50.09197 ] } },
{ "type": "Feature", "properties": { "id": "autobus:8801", "gtfs_id": "8801", "feed": "autobus", "name": "Muzeum Armii Krajowej", "lon": 19.94903, "lat": 50.07041, "wheelchair_boarding": "unknown", "mode": "autobus", "lines": "317" }, "geometry": { "type": "Point", "coordinates": [ 19.94903, 50.07041 ] } },
{ "type": "Feature", "properties": { "id": "autobus:8898", "gtfs_id": "8898", "feed": "autobus", "name": "Muzeum Armii Krajowej", "lon": 19.94885, "lat": 50.07164, "wheelchair_boarding": "unknown", "mode": "autobus", "lines": "317" }, "geometry": { "type": "Point", "coordinates": [ 19.94885, 50.07164 ] } },
{ "type": "Feature", "properties": { "id": "autobus:8906", "gtfs_id": "8906", "feed": "autobus", "name": "Dworzec Główny Wschód", "lon": 19.94943, "lat": 50.06848, "wheelchair_boarding": "unknown", "mode": "autobus", "lines": "125,192,317,609,902" }, "geometry": { "type": "Point", "coordinates": [ 19.94943, 50.06848 ] } },
{ "type": "Feature", "properties": { "id": "autobus:12070", "gtfs_id": "12070", "feed": "autobus", "name": "Dworzec Główny Wschód", "lon": 19.94969, "lat": 50.06864, "wheelchair_boarding": "unknown", "mode": "autobus", "lines": "124" }, "geometry": { "type": "Point", "coordinates": [ 19.94969, 50.06864 ] } },
{ "type": "Feature", "properties": { "id": "autobus:18244", "gtfs_id": "18244", "feed": "autobus", "name": "Dworzec Główny Wschód", "lon": 19.94943, "lat": 50.06848, "wheelchair_boarding": "unknown", "mode": "autobus", "lines": "124" }, "geometry": { "type": "Point", "coordinates": [ 19.94943, 50.06848 ] } },
{ "type": "Feature", "properties": { "id": "autobus:18441", "gtfs_id": "18441", "feed": "autobus", "name": "Meissnera", "lon": 19.97948, "lat": 50.07592, "wheelchair_boarding": "unknown", "mode": "autobus", "lines": "128" }, "geometry": { "type": "Point", "coordinates": [ 19.97948, 50.07592 ] } },
{ "type": "Feature", "properties": { "id": "autobus:18442", "gtfs_id": "18442", "feed": "autobus", "name": "Meissnera", "lon": 19.97967, "lat": 50.0746, "wheelchair_boarding": "unknown", "mode": "autobus", "lines": "128" }, "geometry": { "type": "Point", "coordinates": [ 19.97967, 50.0746 ] } },
{ "type": "Feature", "properties": { "id": "autobus:11977", "gtfs_id": "11977", "feed": "autobus", "name": "Dworzec Główny Zachód", "lon": 19.94456, "lat": 50.06853, "wheelchair_boarding": "unknown", "mode": "autobus", "lines": "105,132,405" }, "geometry": { "type": "Point", "coordinates": [ 19.94456, 50.06853 ] } },
{ "type": "Feature", "properties": { "id": "autobus:13714", "gtfs_id": "13714", "feed": "autobus", "name": "Dworzec Główny Zachód", "lon": 19.94527, "lat": 50.06778, "wheelchair_boarding": "unknown", "mode": "autobus", "lines": "179,304,608,609,610,669,704,902,904" }, "geometry": { "type": "Point", "coordinates": [ 19.94527, 50.06778 ] } },
{ "type": "Feature", "properties": { "id": "autobus:13718", "gtfs_id": "13718", "feed": "autobus", "name": "Dworzec Główny Zachód", "lon": 19.9445, "lat": 50.0672, "wheelchair_boarding": "unknown", "mode": "autobus", "lines": "130,304" }, "geometry": { "type": "Point", "coordinates": [ 19.9445, 50.0672 ] } },
{ "type": "Feature", "properties": { "id": "autobus:9138", "gtfs_id": "9138", "feed": "autobus", "name": "Powstańców Garaże", "lon": 19.96752, "lat": 50.09497, "wheelchair_boarding": "unknown", "mode": "autobus", "lines": "105,128,199,405,610" }, "geometry": { "type": "Point", "coordinates": [ 19.96752, 50.09497 ] } },
{ "type": "Feature", "properties": { "id": "autobus:9139", "gtfs_id": "9139", "feed": "autobus", "name": "Powstańców Garaże", "lon": 19.96829, "lat": 50.09525, "wheelchair_boarding": "unknown", "mode": "autobus", "lines": "105,128,199,405,610" }, "geometry": { "type": "Point", "coordinates": [ 19.96829, 50.09525 ] } },
{ "type": "Feature", "properties": { "id": "autobus:18475", "gtfs_id": "18475", "feed": "autobus", "name": "Marchołta", "lon": 19.98771, "lat": 50.09264, "wheelchair_boarding": "unknown", "mode": "autobus", "lines": "139,183,601" }, "geometry": { "type": "Point", "coordinates": [ 19.98771, 50.09264 ] } },
{ "type": "Feature", "properties": { "id": "autobus:18477", "gtfs_id": "18477", "feed": "autobus", "name": "Marchołta", "lon": 19.98792, "lat": 50.09321, "wheelchair_boarding": "unknown", "mode": "autobus", "lines": "139,183,601" }, "geometry": { "type": "Point", "coordinates": [ 19.98792, 50.09321 ] } },
{ "type": "Feature", "properties": { "id": "autobus:12570", "gtfs_id": "12570", "feed": "autobus", "name": "Reduta", "lon": 19.97504, "lat": 50.0978, "wheelchair_boarding": "unknown", "mode": "autobus", "lines": "250" }, "geometry": { "type": "Point", "coordinates": [ 19.97504, 50.0978 ] } },
{ "type": "Feature", "properties": { "id": "autobus:12571", "gtfs_id": "12571", "feed": "autobus", "name": "Reduta", "lon": 19.97433, "lat": 50.09909, "wheelchair_boarding": "unknown", "mode": "autobus", "lines": "250" }, "geometry": { "type": "Point", "coordinates": [ 19.97433, 50.09909 ] } },
{ "type": "Feature", "properties": { "id": "autobus:18445", "gtfs_id": "18445", "feed": "autobus", "name": "Pszona", "lon": 19.9769, "lat": 50.07867, "wheelchair_boarding": "unknown", "mode": "autobus", "lines": "128" }, "geometry": { "type": "Point", "coordinates": [ 19.9769, 50.07867 ] } },
{ "type": "Feature", "properties": { "id": "autobus:18446", "gtfs_id": "18446", "feed": "autobus", "name": "Pszona", "lon": 19.9777, "lat": 50.07769, "wheelchair_boarding": "unknown", "mode": "autobus", "lines": "128" }, "geometry": { "type": "Point", "coordinates": [ 19.9777, 50.07769 ] } },
{ "type": "Feature", "properties": { "id": "autobus:9169", "gtfs_id": "9169", "feed": "autobus", "name": "Brodowicza", "lon": 19.96285, "lat": 50.07023, "wheelchair_boarding": "unknown", "mode": "autobus", "lines": "601,611" }, "geometry": { "type": "Point", "coordinates": [ 19.96285, 50.07023 ] } },
{ "type": "Feature", "properties": { "id": "autobus:13639", "gtfs_id": "13639", "feed": "autobus", "name": "Brodowicza", "lon": 19.96111, "lat": 50.06908, "wheelchair_boarding": "unknown", "mode": "autobus", "lines": "601,611" }, "geometry": { "type": "Point", "coordinates": [ 19.96111, 50.06908 ] } },
{ "type": "Feature", "properties": { "id": "autobus:11516", "gtfs_id": "11516", "feed": "autobus", "name": "TAURON Arena Kraków", "lon": 19.98857, "lat": 50.06695, "wheelchair_boarding": "unknown", "mode": "autobus", "lines": "124,128" }, "geometry": { "type": "Point", "coordinates": [ 19.98857, 50.06695 ] } },
{ "type": "Feature", "properties": { "id": "autobus:12717", "gtfs_id": "12717", "feed": "autobus", "name": "Teatr Słowackiego", "lon": 19.94566, "lat": 50.06464, "wheelchair_boarding": "unknown", "mode": "autobus", "lines": "502,601,608,609,611,662,664,669,902" }, "geometry": { "type": "Point", "coordinates": [ 19.94566, 50.06464 ] } },
{ "type": "Feature", "properties": { "id": "autobus:12718", "gtfs_id": "12718", "feed": "autobus", "name": "Teatr Słowackiego", "lon": 19.94418, "lat": 50.06485, "wheelchair_boarding": "unknown", "mode": "autobus", "lines": "502,601,605,608,610,611,664,704,902,904" }, "geometry": { "type": "Point", "coordinates": [ 19.94418, 50.06485 ] } },
{ "type": "Feature", "properties": { "id": "autobus:12719", "gtfs_id": "12719", "feed": "autobus", "name": "Teatr Słowackiego", "lon": 19.94509, "lat": 50.06401, "wheelchair_boarding": "unknown", "mode": "autobus", "lines": "609,610,662,669,904" }, "geometry": { "type": "Point", "coordinates": [ 19.94509, 50.06401 ] } },
{ "type": "Feature", "properties": { "id": "autobus:7471", "gtfs_id": "7471", "feed": "autobus", "name": "Rondo Mogilskie", "lon": 19.95976, "lat": 50.06582, "wheelchair_boarding": "unknown", "mode": "autobus", "lines": "125,664" }, "geometry": { "type": "Point", "coordinates": [ 19.95976, 50.06582 ] } },
{ "type": "Feature", "properties": { "id": "autobus:9051", "gtfs_id": "9051", "feed": "autobus", "name": "Rondo Mogilskie", "lon": 19.95979, "lat": 50.06573, "wheelchair_boarding": "unknown", "mode": "autobus", "lines": "125,664" }, "geometry": { "type": "Point", "coordinates": [ 19.95979, 50.06573 ] } },
{ "type": "Feature", "properties": { "id": "autobus:9050", "gtfs_id": "9050", "feed": "autobus", "name": "Rondo Mogilskie", "lon": 19.95924, "lat": 50.06493, "wheelchair_boarding": "unknown", "mode": "autobus", "lines": "605,662" }, "geometry": { "type": "Point", "coordinates": [ 19.95924, 50.06493 ] } },
{ "type": "Feature", "properties": { "id": "autobus:9049", "gtfs_id": "9049", "feed": "autobus", "name": "Rondo Mogilskie", "lon": 19.95939, "lat": 50.06493, "wheelchair_boarding": "unknown", "mode": "autobus", "lines": "605,662" }, "geometry": { "type": "Point", "coordinates": [ 19.95939, 50.06493 ] } },
{ "type": "Feature", "properties": { "id": "autobus:10991", "gtfs_id": "10991", "feed": "autobus", "name": "Rondo Mogilskie", "lon": 19.95971, "lat": 50.06714, "wheelchair_boarding": "unknown", "mode": "autobus", "lines": "124,502,601,611" }, "geometry": { "type": "Point", "coordinates": [ 19.95971, 50.06714 ] } },
{ "type": "Feature", "properties": { "id": "autobus:11432", "gtfs_id": "11432", "feed": "autobus", "name": "Rondo Mogilskie", "lon": 19.95793, "lat": 50.06705, "wheelchair_boarding": "unknown", "mode": "autobus", "lines": "124" }, "geometry": { "type": "Point", "coordinates": [ 19.95793, 50.06705 ] } },
{ "type": "Feature", "properties": { "id": "autobus:12893", "gtfs_id": "12893", "feed": "autobus", "name": "Cystersów", "lon": 19.96808, "lat": 50.06643, "wheelchair_boarding": "unknown", "mode": "autobus", "lines": "125,664" }, "geometry": { "type": "Point", "coordinates": [ 19.96808, 50.06643 ] } },
{ "type": "Feature", "properties": { "id": "autobus:12869", "gtfs_id": "12869", "feed": "autobus", "name": "Białucha", "lon": 19.97708, "lat": 50.06738, "wheelchair_boarding": "unknown", "mode": "autobus", "lines": "664" }, "geometry": { "type": "Point", "coordinates": [ 19.97708, 50.06738 ] } },
{ "type": "Feature", "properties": { "id": "autobus:12870", "gtfs_id": "12870", "feed": "autobus", "name": "Białucha", "lon": 19.97843, "lat": 50.06818, "wheelchair_boarding": "unknown", "mode": "autobus", "lines": "664" }, "geometry": { "type": "Point", "coordinates": [ 19.97843, 50.06818 ] } },
{ "type": "Feature", "properties": { "id": "autobus:12868", "gtfs_id": "12868", "feed": "autobus", "name": "TAURON Arena Kraków Wieczysta", "lon": 19.98271, "lat": 50.07196, "wheelchair_boarding": "unknown", "mode": "autobus", "lines": "128" }, "geometry": { "type": "Point", "coordinates": [ 19.98271, 50.07196 ] } },
{ "type": "Feature", "properties": { "id": "autobus:12871", "gtfs_id": "12871", "feed": "autobus", "name": "TAURON Arena Kraków Wieczysta", "lon": 19.9825, "lat": 50.07099, "wheelchair_boarding": "unknown", "mode": "autobus", "lines": "664" }, "geometry": { "type": "Point", "coordinates": [ 19.9825, 50.07099 ] } },
{ "type": "Feature", "properties": { "id": "autobus:13670", "gtfs_id": "13670", "feed": "autobus", "name": "TAURON Arena Kraków Wieczysta", "lon": 19.984, "lat": 50.07168, "wheelchair_boarding": "unknown", "mode": "autobus", "lines": "124,664" }, "geometry": { "type": "Point", "coordinates": [ 19.984, 50.07168 ] } },
{ "type": "Feature", "properties": { "id": "autobus:7891", "gtfs_id": "7891", "feed": "autobus", "name": "Poczta Główna", "lon": 19.94284, "lat": 50.05931, "wheelchair_boarding": "unknown", "mode": "autobus", "lines": "605,610,662,669,904" }, "geometry": { "type": "Point", "coordinates": [ 19.94284, 50.05931 ] } },
{ "type": "Feature", "properties": { "id": "autobus:10700", "gtfs_id": "10700", "feed": "autobus", "name": "Poczta Główna", "lon": 19.94172, "lat": 50.0592, "wheelchair_boarding": "unknown", "mode": "autobus", "lines": "609" }, "geometry": { "type": "Point", "coordinates": [ 19.94172, 50.0592 ] } },
{ "type": "Feature", "properties": { "id": "autobus:9878", "gtfs_id": "9878", "feed": "autobus", "name": "Poczta Główna", "lon": 19.94249, "lat": 50.05994, "wheelchair_boarding": "unknown", "mode": "autobus", "lines": "605,609,610,662,669,904" }, "geometry": { "type": "Point", "coordinates": [ 19.94249, 50.05994 ] } },
{ "type": "Feature", "properties": { "id": "autobus:12298", "gtfs_id": "12298", "feed": "autobus", "name": "Starowiślna", "lon": 19.94604, "lat": 50.05672, "wheelchair_boarding": "unknown", "mode": "autobus", "lines": "605,610,662,669,904" }, "geometry": { "type": "Point", "coordinates": [ 19.94604, 50.05672 ] } },
{ "type": "Feature", "properties": { "id": "autobus:10602", "gtfs_id": "10602", "feed": "autobus", "name": "Starowiślna", "lon": 19.945, "lat": 50.05691, "wheelchair_boarding": "unknown", "mode": "autobus", "lines": "610,662,669,904" }, "geometry": { "type": "Point", "coordinates": [ 19.945, 50.05691 ] } },
{ "type": "Feature", "properties": { "id": "autobus:7895", "gtfs_id": "7895", "feed": "autobus", "name": "Hala Targowa", "lon": 19.94896, "lat": 50.05864, "wheelchair_boarding": "unknown", "mode": "autobus", "lines": "605" }, "geometry": { "type": "Point", "coordinates": [ 19.94896, 50.05864 ] } },
{ "type": "Feature", "properties": { "id": "autobus:7903", "gtfs_id": "7903", "feed": "autobus", "name": "Hala Targowa", "lon": 19.94895, "lat": 50.0587, "wheelchair_boarding": "unknown", "mode": "autobus", "lines": "605" }, "geometry": { "type": "Point", "coordinates": [ 19.94895, 50.0587 ] } },
{ "type": "Feature", "properties": { "id": "autobus:7905", "gtfs_id": "7905", "feed": "autobus", "name": "Rondo Grzegórzeckie", "lon": 19.9603, "lat": 50.05788, "wheelchair_boarding": "unknown", "mode": "autobus", "lines": "662" }, "geometry": { "type": "Point", "coordinates": [ 19.9603, 50.05788 ] } },
{ "type": "Feature", "properties": { "id": "autobus:7907", "gtfs_id": "7907", "feed": "autobus", "name": "Rondo Grzegórzeckie", "lon": 19.95774, "lat": 50.05757, "wheelchair_boarding": "unknown", "mode": "autobus", "lines": "605" }, "geometry": { "type": "Point", "coordinates": [ 19.95774, 50.05757 ] } },
{ "type": "Feature", "properties": { "id": "autobus:7908", "gtfs_id": "7908", "feed": "autobus", "name": "Rondo Grzegórzeckie", "lon": 19.95925, "lat": 50.05843, "wheelchair_boarding": "unknown", "mode": "autobus", "lines": "605,662" }, "geometry": { "type": "Point", "coordinates": [ 19.95925, 50.05843 ] } },
{ "type": "Feature", "properties": { "id": "autobus:8604", "gtfs_id": "8604", "feed": "autobus", "name": "Rondo Grzegórzeckie", "lon": 19.95892, "lat": 50.05694, "wheelchair_boarding": "unknown", "mode": "autobus", "lines": "605" }, "geometry": { "type": "Point", "coordinates": [ 19.95892, 50.05694 ] } },
{ "type": "Feature", "properties": { "id": "autobus:17909", "gtfs_id": "17909", "feed": "autobus", "name": "Nullo", "lon": 19.9679, "lat": 50.06014, "wheelchair_boarding": "unknown", "mode": "autobus", "lines": "662" }, "geometry": { "type": "Point", "coordinates": [ 19.9679, 50.06014 ] } },
{ "type": "Feature", "properties": { "id": "autobus:17910", "gtfs_id": "17910", "feed": "autobus", "name": "Nullo", "lon": 19.96672, "lat": 50.06015, "wheelchair_boarding": "unknown", "mode": "autobus", "lines": "662" }, "geometry": { "type": "Point", "coordinates": [ 19.96672, 50.06015 ] } },
{ "type": "Feature", "properties": { "id": "autobus:17940", "gtfs_id": "17940", "feed": "autobus", "name": "Fabryczna", "lon": 19.97057, "lat": 50.0612, "wheelchair_boarding": "unknown", "mode": "autobus", "lines": "125" }, "geometry": { "type": "Point", "coordinates": [ 19.97057, 50.0612 ] } },
{ "type": "Feature", "properties": { "id": "autobus:17941", "gtfs_id": "17941", "feed": "autobus", "name": "Fabryczna", "lon": 19.97044, "lat": 50.06119, "wheelchair_boarding": "unknown", "mode": "autobus", "lines": "125" }, "geometry": { "type": "Point", "coordinates": [ 19.97044, 50.06119 ] } },
{ "type": "Feature", "properties": { "id": "autobus:7910", "gtfs_id": "7910", "feed": "autobus", "name": "Ofiar Dąbia", "lon": 19.97538, "lat": 50.05905, "wheelchair_boarding": "unknown", "mode": "autobus", "lines": "125,128" }, "geometry": { "type": "Point", "coordinates": [ 19.97538, 50.05905 ] } },
{ "type": "Feature", "properties": { "id": "autobus:12878", "gtfs_id": "12878", "feed": "autobus", "name": "Ofiar Dąbia", "lon": 19.97538, "lat": 50.05972, "wheelchair_boarding": "unknown", "mode": "autobus", "lines": "125,128,662" }, "geometry": { "type": "Point", "coordinates": [ 19.97538, 50.05972 ] } },
{ "type": "Feature", "properties": { "id": "autobus:12877", "gtfs_id": "12877", "feed": "autobus", "name": "Ofiar Dąbia", "lon": 19.97717, "lat": 50.0596, "wheelchair_boarding": "unknown", "mode": "autobus", "lines": "128,662" }, "geometry": { "type": "Point", "coordinates": [ 19.97717, 50.0596 ] } },
{ "type": "Feature", "properties": { "id": "autobus:12875", "gtfs_id": "12875", "feed": "autobus", "name": "Dąbie", "lon": 19.97914, "lat": 50.0609, "wheelchair_boarding": "unknown", "mode": "autobus", "lines": "128,662" }, "geometry": { "type": "Point", "coordinates": [ 19.97914, 50.0609 ] } },
{ "type": "Feature", "properties": { "id": "autobus:13055", "gtfs_id": "13055", "feed": "autobus", "name": "Dąbie", "lon": 19.97987, "lat": 50.06089, "wheelchair_boarding": "unknown", "mode": "autobus", "lines": "128,662" }, "geometry": { "type": "Point", "coordinates": [ 19.97987, 50.06089 ] } },
{ "type": "Feature", "properties": { "id": "autobus:10648", "gtfs_id": "10648", "feed": "autobus", "name": "Miodowa", "lon": 19.94799, "lat": 50.05395, "wheelchair_boarding": "unknown", "mode": "autobus", "lines": "669" }, "geometry": { "type": "Point", "coordinates": [ 19.94799, 50.05395 ] } },
{ "type": "Feature", "properties": { "id": "autobus:10603", "gtfs_id": "10603", "feed": "autobus", "name": "Miodowa", "lon": 19.94898, "lat": 50.05321, "wheelchair_boarding": "unknown", "mode": "autobus", "lines": "669" }, "geometry": { "type": "Point", "coordinates": [ 19.94898, 50.05321 ] } },
{ "type": "Feature", "properties": { "id": "autobus:13587", "gtfs_id": "13587", "feed": "autobus", "name": "św. Wawrzyńca", "lon": 19.95097, "lat": 50.05114, "wheelchair_boarding": "unknown", "mode": "autobus", "lines": "669" }, "geometry": { "type": "Point", "coordinates": [ 19.95097, 50.05114 ] } },
{ "type": "Feature", "properties": { "id": "autobus:13586", "gtfs_id": "13586", "feed": "autobus", "name": "św. Wawrzyńca", "lon": 19.95091, "lat": 50.05139, "wheelchair_boarding": "unknown", "mode": "autobus", "lines": "669" }, "geometry": { "type": "Point", "coordinates": [ 19.95091, 50.05139 ] } },
{ "type": "Feature", "properties": { "id": "autobus:12970", "gtfs_id": "12970", "feed": "autobus", "name": "Stradom", "lon": 19.94226, "lat": 50.05202, "wheelchair_boarding": "unknown", "mode": "autobus", "lines": "610,662,904" }, "geometry": { "type": "Point", "coordinates": [ 19.94226, 50.05202 ] } },
{ "type": "Feature", "properties": { "id": "autobus:7893", "gtfs_id": "7893", "feed": "autobus", "name": "Stradom", "lon": 19.94196, "lat": 50.0525, "wheelchair_boarding": "unknown", "mode": "autobus", "lines": "904" }, "geometry": { "type": "Point", "coordinates": [ 19.94196, 50.0525 ] } },
{ "type": "Feature", "properties": { "id": "autobus:13723", "gtfs_id": "13723", "feed": "autobus", "name": "Stradom", "lon": 19.94085, "lat": 50.05145, "wheelchair_boarding": "unknown", "mode": "autobus", "lines": "610,662" }, "geometry": { "type": "Point", "coordinates": [ 19.94085, 50.05145 ] } },
{ "type": "Feature", "properties": { "id": "autobus:7897", "gtfs_id": "7897", "feed": "autobus", "name": "Plac Wolnica", "lon": 19.94334, "lat": 50.04807, "wheelchair_boarding": "unknown", "mode": "autobus", "lines": "904" }, "geometry": { "type": "Point", "coordinates": [ 19.94334, 50.04807 ] } },
{ "type": "Feature", "properties": { "id": "autobus:7894", "gtfs_id": "7894", "feed": "autobus", "name": "Plac Wolnica", "lon": 19.94351, "lat": 50.04804, "wheelchair_boarding": "unknown", "mode": "autobus", "lines": "904" }, "geometry": { "type": "Point", "coordinates": [ 19.94351, 50.04804 ] } },
{ "type": "Feature", "properties": { "id": "autobus:12010", "gtfs_id": "12010", "feed": "autobus", "name": "Plac Wszystkich Świętych", "lon": 19.93834, "lat": 50.05914, "wheelchair_boarding": "unknown", "mode": "autobus", "lines": "609" }, "geometry": { "type": "Point", "coordinates": [ 19.93834, 50.05914 ] } },
{ "type": "Feature", "properties": { "id": "autobus:12009", "gtfs_id": "12009", "feed": "autobus", "name": "Plac Wszystkich Świętych", "lon": 19.9374, "lat": 50.0591, "wheelchair_boarding": "unknown", "mode": "autobus", "lines": "609" }, "geometry": { "type": "Point", "coordinates": [ 19.9374, 50.0591 ] } },
{ "type": "Feature", "properties": { "id": "autobus:7813", "gtfs_id": "7813", "feed": "autobus", "name": "Filharmonia", "lon": 19.93414, "lat": 50.05915, "wheelchair_boarding": "unknown", "mode": "autobus", "lines": "609" }, "geometry": { "type": "Point", "coordinates": [ 19.93414, 50.05915 ] } },
{ "type": "Feature", "properties": { "id": "autobus:7885", "gtfs_id": "7885", "feed": "autobus", "name": "Filharmonia", "lon": 19.93289, "lat": 50.05861, "wheelchair_boarding": "unknown", "mode": "autobus", "lines": "609" }, "geometry": { "type": "Point", "coordinates": [ 19.93289, 50.05861 ] } },
{ "type": "Feature", "properties": { "id": "autobus:7811", "gtfs_id": "7811", "feed": "autobus", "name": "Jubilat", "lon": 19.9282, "lat": 50.05558, "wheelchair_boarding": "unknown", "mode": "autobus", "lines": "609" }, "geometry": { "type": "Point", "coordinates": [ 19.9282, 50.05558 ] } },
{ "type": "Feature", "properties": { "id": "autobus:17908", "gtfs_id": "17908", "feed": "autobus", "name": "Stefana Batorego", "lon": 19.92875, "lat": 50.06709, "wheelchair_boarding": "unknown", "mode": "autobus", "lines": "601,611,664,704,902" }, "geometry": { "type": "Point", "coordinates": [ 19.92875, 50.06709 ] } },
{ "type": "Feature", "properties": { "id": "autobus:11909", "gtfs_id": "11909", "feed": "autobus", "name": "Stary Kleparz", "lon": 19.93825, "lat": 50.06618, "wheelchair_boarding": "unknown", "mode": "autobus", "lines": "601,611,664,704,902" }, "geometry": { "type": "Point", "coordinates": [ 19.93825, 50.06618 ] } },
{ "type": "Feature", "properties": { "id": "autobus:11913", "gtfs_id": "11913", "feed": "autobus", "name": "Stary Kleparz", "lon": 19.9389, "lat": 50.0667, "wheelchair_boarding": "unknown", "mode": "autobus", "lines": "502,608" }, "geometry": { "type": "Point", "coordinates": [ 19.9389, 50.0667 ] } },
{ "type": "Feature", "properties": { "id": "autobus:13722", "gtfs_id": "13722", "feed": "autobus", "name": "Stary Kleparz", "lon": 19.94034, "lat": 50.06626, "wheelchair_boarding": "unknown", "mode": "autobus", "lines": "502,601,608,611,664,902" }, "geometry": { "type": "Point", "coordinates": [ 19.94034, 50.06626 ] } },
{ "type": "Feature", "properties": { "id": "autobus:12402", "gtfs_id": "12402", "feed": "autobus", "name": "Pędzichów", "lon": 19.9376, "lat": 50.06962, "wheelchair_boarding": "unknown", "mode": "autobus", "lines": "608" }, "geometry": { "type": "Point", "coordinates": [ 19.9376, 50.06962 ] } },
{ "type": "Feature", "properties": { "id": "autobus:12401", "gtfs_id": "12401", "feed": "autobus", "name": "Pędzichów", "lon": 19.93745, "lat": 50.06966, "wheelchair_boarding": "unknown", "mode": "autobus", "lines": "608" }, "geometry": { "type": "Point", "coordinates": [ 19.93745, 50.06966 ] } },
{ "type": "Feature", "properties": { "id": "autobus:8389", "gtfs_id": "8389", "feed": "autobus", "name": "Nowy Kleparz", "lon": 19.93482, "lat": 50.0731, "wheelchair_boarding": "unknown", "mode": "autobus", "lines": "608" }, "geometry": { "type": "Point", "coordinates": [ 19.93482, 50.0731 ] } },
{ "type": "Feature", "properties": { "id": "autobus:13746", "gtfs_id": "13746", "feed": "autobus", "name": "Wileńska", "lon": 19.95389, "lat": 50.08231, "wheelchair_boarding": "unknown", "mode": "autobus", "lines": "608" }, "geometry": { "type": "Point", "coordinates": [ 19.95389, 50.08231 ] } },
{ "type": "Feature", "properties": { "id": "autobus:12966", "gtfs_id": "12966", "feed": "autobus", "name": "Politechnika", "lon": 19.9441, "lat": 50.07128, "wheelchair_boarding": "unknown", "mode": "autobus", "lines": "105,130,132,179,304,405,610,904" }, "geometry": { "type": "Point", "coordinates": [ 19.9441, 50.07128 ] } },
{ "type": "Feature", "properties": { "id": "autobus:13715", "gtfs_id": "13715", "feed": "autobus", "name": "Politechnika", "lon": 19.94464, "lat": 50.07108, "wheelchair_boarding": "unknown", "mode": "autobus", "lines": "124,192,608,669" }, "geometry": { "type": "Point", "coordinates": [ 19.94464, 50.07108 ] } },
{ "type": "Feature", "properties": { "id": "autobus:9149", "gtfs_id": "9149", "feed": "autobus", "name": "Politechnika", "lon": 19.94511, "lat": 50.07109, "wheelchair_boarding": "unknown", "mode": "autobus", "lines": "105,124,130,132,179,192,304,405,608,610,669,704,904" }, "geometry": { "type": "Point", "coordinates": [ 19.94511, 50.07109 ] } },
{ "type": "Feature", "properties": { "id": "autobus:8899", "gtfs_id": "8899", "feed": "autobus", "name": "Cmentarz Rakowicki Zachód", "lon": 19.94681, "lat": 50.07564, "wheelchair_boarding": "unknown", "mode": "autobus", "lines": "105,132,139,169,199,405,469,608,610" }, "geometry": { "type": "Point", "coordinates": [ 19.94681, 50.07564 ] } },
{ "type": "Feature", "properties": { "id": "autobus:7434", "gtfs_id": "7434", "feed": "autobus", "name": "Cmentarz Rakowicki Zachód", "lon": 19.94765, "lat": 50.07619, "wheelchair_boarding": "unknown", "mode": "autobus", "lines": "105,132,139,169,199,405,608,610" }, "geometry": { "type": "Point", "coordinates": [ 19.94765, 50.07619 ] } },
{ "type": "Feature", "properties": { "id": "autobus:18320", "gtfs_id": "18320", "feed": "autobus", "name": "bp. Prandoty", "lon": 19.94865, "lat": 50.07802, "wheelchair_boarding": "unknown", "mode": "autobus", "lines": "105,132,139,169,199,307,317,405,469,503,608,610" }, "geometry": { "type": "Point", "coordinates": [ 19.94865, 50.07802 ] } },
{ "type": "Feature", "properties": { "id": "autobus:18288", "gtfs_id": "18288", "feed": "autobus", "name": "bp. Prandoty", "lon": 19.94992, "lat": 50.07911, "wheelchair_boarding": "unknown", "mode": "autobus", "lines": "105,132,139,169,199,307,317,405,503,608,610" }, "geometry": { "type": "Point", "coordinates": [ 19.94992, 50.07911 ] } },
{ "type": "Feature", "properties": { "id": "autobus:18333", "gtfs_id": "18333", "feed": "autobus", "name": "UR Al. 29 Listopada", "lon": 19.95215, "lat": 50.08244, "wheelchair_boarding": "unknown", "mode": "autobus", "lines": "608" }, "geometry": { "type": "Point", "coordinates": [ 19.95215, 50.08244 ] } },
{ "type": "Feature", "properties": { "id": "autobus:18321", "gtfs_id": "18321", "feed": "autobus", "name": "UR Al. 29 Listopada", "lon": 19.95156, "lat": 50.08212, "wheelchair_boarding": "unknown", "mode": "autobus", "lines": "105,132,139,169,199,405,469,503,608,610" }, "geometry": { "type": "Point", "coordinates": [ 19.95156, 50.08212 ] } },
{ "type": "Feature", "properties": { "id": "autobus:18286", "gtfs_id": "18286", "feed": "autobus", "name": "UR Al. 29 Listopada", "lon": 19.95273, "lat": 50.08332, "wheelchair_boarding": "unknown", "mode": "autobus", "lines": "105,132,139,169,199,405,503,610" }, "geometry": { "type": "Point", "coordinates": [ 19.95273, 50.08332 ] } },
{ "type": "Feature", "properties": { "id": "autobus:7482", "gtfs_id": "7482", "feed": "autobus", "name": "Opolska Estakada", "lon": 19.95545, "lat": 50.0867, "wheelchair_boarding": "unknown", "mode": "autobus", "lines": "105,132,137,139,199,307,317,405,503,610" }, "geometry": { "type": "Point", "coordinates": [ 19.95545, 50.0867 ] } },
{ "type": "Feature", "properties": { "id": "autobus:7480", "gtfs_id": "7480", "feed": "autobus", "name": "Opolska Estakada", "lon": 19.95346, "lat": 50.08483, "wheelchair_boarding": "unknown", "mode": "autobus", "lines": "105,132,139,169,199,307,317,405,469,503,610" }, "geometry": { "type": "Point", "coordinates": [ 19.95346, 50.08483 ] } },
{ "type": "Feature", "properties": { "id": "autobus:7437", "gtfs_id": "7437", "feed": "autobus", "name": "Opolska Estakada", "lon": 19.95548, "lat": 50.0857, "wheelchair_boarding": "unknown", "mode": "autobus", "lines": "138" }, "geometry": { "type": "Point", "coordinates": [ 19.95548, 50.0857 ] } },
{ "type": "Feature", "properties": { "id": "autobus:7481", "gtfs_id": "7481", "feed": "autobus", "name": "Opolska Estakada", "lon": 19.95383, "lat": 50.08655, "wheelchair_boarding": "unknown", "mode": "autobus", "lines": "137,138,169" }, "geometry": { "type": "Point", "coordinates": [ 19.95383, 50.08655 ] } },
{ "type": "Feature", "properties": { "id": "autobus:12314", "gtfs_id": "12314", "feed": "autobus", "name": "Dobrego Pasterza", "lon": 19.95838, "lat": 50.08884, "wheelchair_boarding": "unknown", "mode": "autobus", "lines": "105,132,139,199,405,610" }, "geometry": { "type": "Point", "coordinates": [ 19.95838, 50.08884 ] } },
{ "type": "Feature", "properties": { "id": "autobus:12309", "gtfs_id": "12309", "feed": "autobus", "name": "Dobrego Pasterza", "lon": 19.95849, "lat": 50.08941, "wheelchair_boarding": "unknown", "mode": "autobus", "lines": "137,317,503" }, "geometry": { "type": "Point", "coordinates": [ 19.95849, 50.08941 ] } },
{ "type": "Feature", "properties": { "id": "autobus:12312", "gtfs_id": "12312", "feed": "autobus", "name": "Dobrego Pasterza", "lon": 19.95676, "lat": 50.08833, "wheelchair_boarding": "unknown", "mode": "autobus", "lines": "105,132,137,139,199,317,405,503,610" }, "geometry": { "type": "Point", "coordinates": [ 19.95676, 50.08833 ] } },
{ "type": "Feature", "properties": { "id": "autobus:7441", "gtfs_id": "7441", "feed": "autobus", "name": "Powstańców", "lon": 19.96367, "lat": 50.093, "wheelchair_boarding": "unknown", "mode": "autobus", "lines": "105,199,405,610" }, "geometry": { "type": "Point", "coordinates": [ 19.96367, 50.093 ] } },
{ "type": "Feature", "properties": { "id": "autobus:10070", "gtfs_id": "10070", "feed": "autobus", "name": "Powstańców", "lon": 19.96425, "lat": 50.0934, "wheelchair_boarding": "unknown", "mode": "autobus", "lines": "105,128,199,405,610" }, "geometry": { "type": "Point", "coordinates": [ 19.96425, 50.0934 ] } },
{ "type": "Feature", "properties": { "id": "autobus:18155", "gtfs_id": "18155", "feed": "autobus", "name": "Prądnik Czerwony P+R", "lon": 19.97433, "lat": 50.0959, "wheelchair_boarding": "unknown", "mode": "autobus", "lines": "105" }, "geometry": { "type": "Point", "coordinates": [ 19.97433, 50.0959 ] } },
{ "type": "Feature", "properties": { "id": "autobus:18150", "gtfs_id": "18150", "feed": "autobus", "name": "Prądnik Czerwony P+R", "lon": 19.97441, "lat": 50.09581, "wheelchair_boarding": "unknown", "mode": "autobus", "lines": "128" }, "geometry": { "type": "Point", "coordinates": [ 19.97441, 50.09581 ] } },
{ "type": "Feature", "properties": { "id": "autobus:18147", "gtfs_id": "18147", "feed": "autobus", "name": "Prądnik Czerwony P+R", "lon": 19.97377, "lat": 50.09654, "wheelchair_boarding": "unknown", "mode": "autobus", "lines": "105,128,199,250,405,610" }, "geometry": { "type": "Point", "coordinates": [ 19.97377, 50.09654 ] } },
{ "type": "Feature", "properties": { "id": "autobus:18146", "gtfs_id": "18146", "feed": "autobus", "name": "Prądnik Czerwony P+R", "lon": 19.97432, "lat": 50.09679, "wheelchair_boarding": "unknown", "mode": "autobus", "lines": "105,199,250,405,610" }, "geometry": { "type": "Point", "coordinates": [ 19.97432, 50.09679 ] } },
{ "type": "Feature", "properties": { "id": "autobus:17310", "gtfs_id": "17310", "feed": "autobus", "name": "Cmentarz Prądnik Czerwony Wschód", "lon": 19.98602, "lat": 50.10234, "wheelchair_boarding": "unknown", "mode": "autobus", "lines": "105" }, "geometry": { "type": "Point", "coordinates": [ 19.98602, 50.10234 ] } },
{ "type": "Feature", "properties": { "id": "autobus:17311", "gtfs_id": "17311", "feed": "autobus", "name": "Cmentarz Prądnik Czerwony Wschód", "lon": 19.98682, "lat": 50.10245, "wheelchair_boarding": "unknown", "mode": "autobus", "lines": "105" }, "geometry": { "type": "Point", "coordinates": [ 19.98682, 50.10245 ] } },
{ "type": "Feature", "properties": { "id": "autobus:17308", "gtfs_id": "17308", "feed": "autobus", "name": "Cmentarz Prądnik Czerwony", "lon": 19.98317, "lat": 50.10156, "wheelchair_boarding": "unknown", "mode": "autobus", "lines": "105" }, "geometry": { "type": "Point", "coordinates": [ 19.98317, 50.10156 ] } },
{ "type": "Feature", "properties": { "id": "autobus:17307", "gtfs_id": "17307", "feed": "autobus", "name": "Cmentarz Prądnik Czerwony", "lon": 19.98202, "lat": 50.10129, "wheelchair_boarding": "unknown", "mode": "autobus", "lines": "105" }, "geometry": { "type": "Point", "coordinates": [ 19.98202, 50.10129 ] } },
{ "type": "Feature", "properties": { "id": "autobus:7511", "gtfs_id": "7511", "feed": "autobus", "name": "Lubicz", "lon": 19.95241, "lat": 50.06524, "wheelchair_boarding": "unknown", "mode": "autobus", "lines": "125,601,605,611,662,664" }, "geometry": { "type": "Point", "coordinates": [ 19.95241, 50.06524 ] } },
{ "type": "Feature", "properties": { "id": "autobus:7512", "gtfs_id": "7512", "feed": "autobus", "name": "Lubicz", "lon": 19.951, "lat": 50.06499, "wheelchair_boarding": "unknown", "mode": "autobus", "lines": "601,605,611,662,664" }, "geometry": { "type": "Point", "coordinates": [ 19.951, 50.06499 ] } },
{ "type": "Feature", "properties": { "id": "autobus:12022", "gtfs_id": "12022", "feed": "autobus", "name": "Lubicz", "lon": 19.95166, "lat": 50.0656, "wheelchair_boarding": "unknown", "mode": "autobus", "lines": "125,608,609,669,902" }, "geometry": { "type": "Point", "coordinates": [ 19.95166, 50.0656 ] } },
{ "type": "Feature", "properties": { "id": "autobus:12958", "gtfs_id": "12958", "feed": "autobus", "name": "Uniwersytet Ekonomiczny", "lon": 19.95312, "lat": 50.06772, "wheelchair_boarding": "unknown", "mode": "autobus", "lines": "124" }, "geometry": { "type": "Point", "coordinates": [ 19.95312, 50.06772 ] } },
{ "type": "Feature", "properties": { "id": "autobus:12959", "gtfs_id": "12959", "feed": "autobus", "name": "Uniwersytet Ekonomiczny", "lon": 19.9517, "lat": 50.06832, "wheelchair_boarding": "unknown", "mode": "autobus", "lines": "124,125" }, "geometry": { "type": "Point", "coordinates": [ 19.9517, 50.06832 ] } },
{ "type": "Feature", "properties": { "id": "autobus:13053", "gtfs_id": "13053", "feed": "autobus", "name": "Cmentarz Rakowicki", "lon": 19.95891, "lat": 50.07371, "wheelchair_boarding": "unknown", "mode": "autobus", "lines": "124" }, "geometry": { "type": "Point", "coordinates": [ 19.95891, 50.07371 ] } },
{ "type": "Feature", "properties": { "id": "autobus:13052", "gtfs_id": "13052", "feed": "autobus", "name": "Cmentarz Rakowicki", "lon": 19.95853, "lat": 50.07368, "wheelchair_boarding": "unknown", "mode": "autobus", "lines": "124" }, "geometry": { "type": "Point", "coordinates": [ 19.95853, 50.07368 ] } },
{ "type": "Feature", "properties": { "id": "autobus:7461", "gtfs_id": "7461", "feed": "autobus", "name": "Łukasiewicza", "lon": 19.96546, "lat": 50.07527, "wheelchair_boarding": "unknown", "mode": "autobus", "lines": "124" }, "geometry": { "type": "Point", "coordinates": [ 19.96546, 50.07527 ] } },
{ "type": "Feature", "properties": { "id": "autobus:7462", "gtfs_id": "7462", "feed": "autobus", "name": "Narzymskiego", "lon": 19.96631, "lat": 50.07369, "wheelchair_boarding": "unknown", "mode": "autobus", "lines": "124,502,601,611" }, "geometry": { "type": "Point", "coordinates": [ 19.96631, 50.07369 ] } },
{ "type": "Feature", "properties": { "id": "autobus:7472", "gtfs_id": "7472", "feed": "autobus", "name": "Narzymskiego", "lon": 19.96606, "lat": 50.0737, "wheelchair_boarding": "unknown", "mode": "autobus", "lines": "502,601,611" }, "geometry": { "type": "Point", "coordinates": [ 19.96606, 50.0737 ] } },
{ "type": "Feature", "properties": { "id": "autobus:7460", "gtfs_id": "7460", "feed": "autobus", "name": "Pilotów", "lon": 19.9715, "lat": 50.07878, "wheelchair_boarding": "unknown", "mode": "autobus", "lines": "124,601,611" }, "geometry": { "type": "Point", "coordinates": [ 19.9715, 50.07878 ] } },
{ "type": "Feature", "properties": { "id": "autobus:7504", "gtfs_id": "7504", "feed": "autobus", "name": "Pilotów", "lon": 19.97026, "lat": 50.07791, "wheelchair_boarding": "unknown", "mode": "autobus", "lines": "124,601,611" }, "geometry": { "type": "Point", "coordinates": [ 19.97026, 50.07791 ] } },
{ "type": "Feature", "properties": { "id": "autobus:11228", "gtfs_id": "11228", "feed": "autobus", "name": "Rondo Młyńskie", "lon": 19.97482, "lat": 50.08131, "wheelchair_boarding": "unknown", "mode": "autobus", "lines": "124" }, "geometry": { "type": "Point", "coordinates": [ 19.97482, 50.08131 ] } },
{ "type": "Feature", "properties": { "id": "autobus:13740", "gtfs_id": "13740", "feed": "autobus", "name": "Rondo Młyńskie", "lon": 19.97286, "lat": 50.08031, "wheelchair_boarding": "unknown", "mode": "autobus", "lines": "124,502,601,611" }, "geometry": { "type": "Point", "coordinates": [ 19.97286, 50.08031 ] } },
{ "type": "Feature", "properties": { "id": "autobus:18439", "gtfs_id": "18439", "feed": "autobus", "name": "Rondo Młyńskie", "lon": 19.97298, "lat": 50.08151, "wheelchair_boarding": "unknown", "mode": "autobus", "lines": "128,502,601,611" }, "geometry": { "type": "Point", "coordinates": [ 19.97298, 50.08151 ] } },
{ "type": "Feature", "properties": { "id": "autobus:18448", "gtfs_id": "18448", "feed": "autobus", "name": "Rondo Młyńskie", "lon": 19.97427, "lat": 50.08003, "wheelchair_boarding": "unknown", "mode": "autobus", "lines": "128" }, "geometry": { "type": "Point", "coordinates": [ 19.97427, 50.08003 ] } },
{ "type": "Feature", "properties": { "id": "autobus:7463", "gtfs_id": "7463", "feed": "autobus", "name": "Brogi", "lon": 19.96103, "lat": 50.07987, "wheelchair_boarding": "unknown", "mode": "autobus", "lines": "608" }, "geometry": { "type": "Point", "coordinates": [ 19.96103, 50.07987 ] } },
{ "type": "Feature", "properties": { "id": "autobus:7477", "gtfs_id": "7477", "feed": "autobus", "name": "Brogi", "lon": 19.95939, "lat": 50.07964, "wheelchair_boarding": "unknown", "mode": "autobus", "lines": "608" }, "geometry": { "type": "Point", "coordinates": [ 19.95939, 50.07964 ] } },
{ "type": "Feature", "properties": { "id": "autobus:7478", "gtfs_id": "7478", "feed": "autobus", "name": "Bosaków", "lon": 19.96435, "lat": 50.08331, "wheelchair_boarding": "unknown", "mode": "autobus", "lines": "608" }, "geometry": { "type": "Point", "coordinates": [ 19.96435, 50.08331 ] } },
{ "type": "Feature", "properties": { "id": "autobus:7448", "gtfs_id": "7448", "feed": "autobus", "name": "Bosaków", "lon": 19.9631, "lat": 50.08225, "wheelchair_boarding": "unknown", "mode": "autobus", "lines": "608" }, "geometry": { "type": "Point", "coordinates": [ 19.9631, 50.08225 ] } },
{ "type": "Feature", "properties": { "id": "autobus:7439", "gtfs_id": "7439", "feed": "autobus", "name": "Lublańska", "lon": 19.96197, "lat": 50.08526, "wheelchair_boarding": "unknown", "mode": "autobus", "lines": "138" }, "geometry": { "type": "Point", "coordinates": [ 19.96197, 50.08526 ] } },
{ "type": "Feature", "properties": { "id": "autobus:7483", "gtfs_id": "7483", "feed": "autobus", "name": "Lublańska", "lon": 19.96359, "lat": 50.0849, "wheelchair_boarding": "unknown", "mode": "autobus", "lines": "138" }, "geometry": { "type": "Point", "coordinates": [ 19.96359, 50.0849 ] } },
{ "type": "Feature", "properties": { "id": "autobus:18458", "gtfs_id": "18458", "feed": "autobus", "name": "Rondo Polsad", "lon": 19.97037, "lat": 50.08545, "wheelchair_boarding": "unknown", "mode": "autobus", "lines": "138" }, "geometry": { "type": "Point", "coordinates": [ 19.97037, 50.08545 ] } },
{ "type": "Feature", "properties": { "id": "autobus:18455", "gtfs_id": "18455", "feed": "autobus", "name": "Rondo Polsad", "lon": 19.96885, "lat": 50.08484, "wheelchair_boarding": "unknown", "mode": "autobus", "lines": "138" }, "geometry": { "type": "Point", "coordinates": [ 19.96885, 50.08484 ] } },
{ "type": "Feature", "properties": { "id": "autobus:18460", "gtfs_id": "18460", "feed": "autobus", "name": "Rondo Polsad", "lon": 19.97043, "lat": 50.08342, "wheelchair_boarding": "unknown", "mode": "autobus", "lines": "128,601,611" }, "geometry": { "type": "Point", "coordinates": [ 19.97043, 50.08342 ] } },
{ "type": "Feature", "properties": { "id": "autobus:18459", "gtfs_id": "18459", "feed": "autobus", "name": "Rondo Polsad", "lon": 19.97105, "lat": 50.08335, "wheelchair_boarding": "unknown", "mode": "autobus", "lines": "128,601,608,611" }, "geometry": { "type": "Point", "coordinates": [ 19.97105, 50.08335 ] } },
{ "type": "Feature", "properties": { "id": "autobus:18456", "gtfs_id": "18456", "feed": "autobus", "name": "Rondo Polsad", "lon": 19.96894, "lat": 50.08338, "wheelchair_boarding": "unknown", "mode": "autobus", "lines": "608" }, "geometry": { "type": "Point", "coordinates": [ 19.96894, 50.08338 ] } },
{ "type": "Feature", "properties": { "id": "autobus:8419", "gtfs_id": "8419", "feed": "autobus", "name": "Majora", "lon": 19.96347, "lat": 50.08842, "wheelchair_boarding": "unknown", "mode": "autobus", "lines": "105,199,405,610" }, "geometry": { "type": "Point", "coordinates": [ 19.96347, 50.08842 ] } },
{ "type": "Feature", "properties": { "id": "autobus:9026", "gtfs_id": "9026", "feed": "autobus", "name": "Majora", "lon": 19.96543, "lat": 50.08839, "wheelchair_boarding": "unknown", "mode": "autobus", "lines": "105,199,405,610" }, "geometry": { "type": "Point", "coordinates": [ 19.96543, 50.08839 ] } },
{ "type": "Feature", "properties": { "id": "autobus:18028", "gtfs_id": "18028", "feed": "autobus", "name": "Majora", "lon": 19.96422, "lat": 50.08797, "wheelchair_boarding": "unknown", "mode": "autobus", "lines": "132,139" }, "geometry": { "type": "Point", "coordinates": [ 19.96422, 50.08797 ] } },
{ "type": "Feature", "properties": { "id": "autobus:17778", "gtfs_id": "17778", "feed": "autobus", "name": "Bitschana", "lon": 19.9708, "lat": 50.08871, "wheelchair_boarding": "unknown", "mode": "autobus", "lines": "132,139" }, "geometry": { "type": "Point", "coordinates": [ 19.9708, 50.08871 ] } },
{ "type": "Feature", "properties": { "id": "autobus:7493", "gtfs_id": "7493", "feed": "autobus", "name": "Rondo Barei", "lon": 19.97289, "lat": 50.08814, "wheelchair_boarding": "unknown", "mode": "autobus", "lines": "128,138,601,611" }, "geometry": { "type": "Point", "coordinates": [ 19.97289, 50.08814 ] } },
{ "type": "Feature", "properties": { "id": "autobus:7444", "gtfs_id": "7444", "feed": "autobus", "name": "Rondo Barei", "lon": 19.9739, "lat": 50.08963, "wheelchair_boarding": "unknown", "mode": "autobus", "lines": "128" }, "geometry": { "type": "Point", "coordinates": [ 19.9739, 50.08963 ] } },
{ "type": "Feature", "properties": { "id": "autobus:7445", "gtfs_id": "7445", "feed": "autobus", "name": "Rondo Barei", "lon": 19.97303, "lat": 50.08906, "wheelchair_boarding": "unknown", "mode": "autobus", "lines": "132,139" }, "geometry": { "type": "Point", "coordinates": [ 19.97303, 50.08906 ] } },
{ "type": "Feature", "properties": { "id": "autobus:9375", "gtfs_id": "9375", "feed": "autobus", "name": "Rondo Barei", "lon": 19.97504, "lat": 50.08912, "wheelchair_boarding": "unknown", "mode": "autobus", "lines": "132,138,139,601,611" }, "geometry": { "type": "Point", "coordinates": [ 19.97504, 50.08912 ] } },
{ "type": "Feature", "properties": { "id": "autobus:7458", "gtfs_id": "7458", "feed": "autobus", "name": "Akacjowa", "lon": 19.97755, "lat": 50.08154, "wheelchair_boarding": "unknown", "mode": "autobus", "lines": "124" }, "geometry": { "type": "Point", "coordinates": [ 19.97755, 50.08154 ] } },
{ "type": "Feature", "properties": { "id": "autobus:7503", "gtfs_id": "7503", "feed": "autobus", "name": "Akacjowa", "lon": 19.97694, "lat": 50.08152, "wheelchair_boarding": "unknown", "mode": "autobus", "lines": "124" }, "geometry": { "type": "Point", "coordinates": [ 19.97694, 50.08152 ] } },
{ "type": "Feature", "properties": { "id": "autobus:8296", "gtfs_id": "8296", "feed": "autobus", "name": "Spadochroniarzy", "lon": 19.9815, "lat": 50.0799, "wheelchair_boarding": "unknown", "mode": "autobus", "lines": "124" }, "geometry": { "type": "Point", "coordinates": [ 19.9815, 50.0799 ] } },
{ "type": "Feature", "properties": { "id": "autobus:8297", "gtfs_id": "8297", "feed": "autobus", "name": "Spadochroniarzy", "lon": 19.98089, "lat": 50.08021, "wheelchair_boarding": "unknown", "mode": "autobus", "lines": "124" }, "geometry": { "type": "Point", "coordinates": [ 19.98089, 50.08021 ] } },
{ "type": "Feature", "properties": { "id": "autobus:7457", "gtfs_id": "7457", "feed": "autobus", "name": "Ugorek", "lon": 19.98424, "lat": 50.07706, "wheelchair_boarding": "unknown", "mode": "autobus", "lines": "124" }, "geometry": { "type": "Point", "coordinates": [ 19.98424, 50.07706 ] } },
{ "type": "Feature", "properties": { "id": "autobus:7502", "gtfs_id": "7502", "feed": "autobus", "name": "Ugorek", "lon": 19.98338, "lat": 50.07794, "wheelchair_boarding": "unknown", "mode": "autobus", "lines": "124" }, "geometry": { "type": "Point", "coordinates": [ 19.98338, 50.07794 ] } },
{ "type": "Feature", "properties": { "id": "autobus:10323", "gtfs_id": "10323", "feed": "autobus", "name": "Strzelców", "lon": 19.97477, "lat": 50.09253, "wheelchair_boarding": "unknown", "mode": "autobus", "lines": "128" }, "geometry": { "type": "Point", "coordinates": [ 19.97477, 50.09253 ] } },
{ "type": "Feature", "properties": { "id": "autobus:10324", "gtfs_id": "10324", "feed": "autobus", "name": "Strzelców", "lon": 19.97565, "lat": 50.09332, "wheelchair_boarding": "unknown", "mode": "autobus", "lines": "128" }, "geometry": { "type": "Point", "coordinates": [ 19.97565, 50.09332 ] } },
{ "type": "Feature", "properties": { "id": "autobus:18457", "gtfs_id": "18457", "feed": "autobus", "name": "Park Wodny", "lon": 19.98251, "lat": 50.09021, "wheelchair_boarding": "unknown", "mode": "autobus", "lines": "132,138,139,601,611" }, "geometry": { "type": "Point", "coordinates": [ 19.98251, 50.09021 ] } },
{ "type": "Feature", "properties": { "id": "autobus:18462", "gtfs_id": "18462", "feed": "autobus", "name": "Park Wodny", "lon": 19.98204, "lat": 50.09005, "wheelchair_boarding": "unknown", "mode": "autobus", "lines": "132,138,139,601,611" }, "geometry": { "type": "Point", "coordinates": [ 19.98204, 50.09005 ] } },
{ "type": "Feature", "properties": { "id": "autobus:8304", "gtfs_id": "8304", "feed": "autobus", "name": "Bora-Komorowskiego", "lon": 19.97846, "lat": 50.08585, "wheelchair_boarding": "unknown", "mode": "autobus", "lines": "502,608" }, "geometry": { "type": "Point", "coordinates": [ 19.97846, 50.08585 ] } },
{ "type": "Feature", "properties": { "id": "autobus:12310", "gtfs_id": "12310", "feed": "autobus", "name": "Słoneckiego", "lon": 19.97687, "lat": 50.08952, "wheelchair_boarding": "unknown", "mode": "autobus", "lines": "132,138,139,601,611" }, "geometry": { "type": "Point", "coordinates": [ 19.97687, 50.08952 ] } },
{ "type": "Feature", "properties": { "id": "autobus:18480", "gtfs_id": "18480", "feed": "autobus", "name": "Naczelna", "lon": 19.96677, "lat": 50.08827, "wheelchair_boarding": "unknown", "mode": "autobus", "lines": "132,139" }, "geometry": { "type": "Point", "coordinates": [ 19.96677, 50.08827 ] } },
{ "type": "Feature", "properties": { "id": "autobus:18461", "gtfs_id": "18461", "feed": "autobus", "name": "Naczelna", "lon": 19.96851, "lat": 50.08863, "wheelchair_boarding": "unknown", "mode": "autobus", "lines": "132,139" }, "geometry": { "type": "Point", "coordinates": [ 19.96851, 50.08863 ] } },
{ "type": "Feature", "properties": { "id": "autobus:17918", "gtfs_id": "17918", "feed": "autobus", "name": "Rondo Mogilskie Opera", "lon": 19.95755, "lat": 50.06566, "wheelchair_boarding": "unknown", "mode": "autobus", "lines": "502,601,611" }, "geometry": { "type": "Point", "coordinates": [ 19.95755, 50.06566 ] } },
{ "type": "Feature", "properties": { "id": "autobus:18274", "gtfs_id": "18274", "feed": "autobus", "name": "Garbarska", "lon": 19.93489, "lat": 50.06579, "wheelchair_boarding": "unknown", "mode": "autobus", "lines": "601,611,664,704,902" }, "geometry": { "type": "Point", "coordinates": [ 19.93489, 50.06579 ] } }
]
}
