{
"type": "FeatureCollection",
"name": "AOI_krk",
"crs": { "type": "name", "properties": { "name": "urn:ogc:def:crs:EPSG::2180" } },
"features": [
{ "type": "Feature", "properties": { "id": 1 }, "geometry": { "type": "MultiPolygon", "coordinates": [ [ [ [ 565653.811100994353183, 246156.002478267066181 ], [ 569141.499798599397764, 246257.033548215404153 ], [ 569098.700270475121215, 241600.171828538179398 ], [ 565641.193419703049585, 241590.893219566904008 ], [ 565653.811100994353183, 246156.002478267066181 ] ] ] ] } }
]
}
